#StationName,X,Y,Z,Latitude,Longitude,Height,ReceiverName,ReceiverSatelliteSystem,ReceiverSerialNumber,ReceiverFirmwareVersion,ReceiverElevationCutoff,ReceiverDateInstalled,AntennaName,AntennaRadome,AntennaSerialNumber,AntennaARP,AntennaMarkerUp,AntennaMarkerNorth,AntennaMarkerEast,AntennaDateInstalled,ClockType,ClockInputFrequency,ClockEffectiveDates
ABMF00GLP,2919786.0,-5383745.0,1774604.0,16.262,-61.528,-25.268,SEPT POLARX5,GPS+GLO+GAL+BDS+SBAS,3013312,5.3.2,0,2020-02-07T10:00Z,TRM57971.00,NONE,1441112501,BAM,0.00,0.00,0.00,2012-01-24T12:00Z,INTERNAL,,2008-07-15/CCYY-MM-DD
ABPO00MDG,4097216.6805,4429119.0287,-2065771.3676,-19.018,47.229,1553.398,SEPT POLARX5,GPS+GLO+GAL+BDS+QZSS,3013358,5.4.0,0,2021-01-29T21:25Z,ASH701945G_M,SCIT,CR6200342009,BPA,0.0083,0.0000,0.0000,2018-05-15T07:30Z,INTERNAL,,2007-11-16/CCYY-MM-DD
AC2300USA,-2752834.7418,-1533597.398,5526823.2554,60.475,-150.878,80.744,SEPT POLARX5,GPS+GLO+GAL+BDS+QZSS,3051527,5.5.0,0,2023-01-17T19:26Z,TRM59800.99,SCIT,0220346564,BPA,0.0083,0,0,2021-04-28T00:30Z,INTERNAL,,2007-06-15/CCYY-MM-DD
AC2400USA,-3051338.7572,-1317097.8223,5425614.2192,58.682,-156.653,36.841,SEPT POLARX5,GPS+GLO+GAL+BDS+QZSS,3069883,5.5.0,0,2023-01-17T19:38Z,TRM159800.00,SCIT,5823337038,BPA,0.0083,0,0,2021-08-19T20:03Z,INTERNAL,,2006-06-30/CCYY-MM-DD
ACRG00GHA,6347491.377,-22944.8986,622822.4766, 5.641,-0.207,83.792,JAVAD TRE_3S,GPS+GLO+GAL+BDS+IRNSS+SBAS,4745143,4.2.00-211012,0,2022-09-30T12:00Z,SEPCHOKE_B3E6,NONE,5635,BPA,0.1300,0.0000,0.0000,2022-09-30T12:00Z,INTERNAL,,2022-09-30/CCYY-MM-DD
ACSO00USA,595828.9368,-4839735.3204,4097876.7222,40.232,-82.982,249.810,SEPT POLARX5,GPS+GLO+GAL+BDS,3069746,5.5.0,0,2022-11-16T17:44Z,TRM59800.80,SCIT,0220375556,BPA,0.0083,0,0,2014-09-13T04:56Z,INTERNAL,,2006-08-19/CCYY-MM-DD
ADIS00ETH,4913652.76087,3945922.66962,995383.33311, 9.035,38.766,2439.550,LEICA GR50,GPS+GLO+GAL+BDS+SBAS,1871020,4.52/7.711,0,2022-04-13T13:30Z,LEIAR20,LEIM,22078003,BAM,0.0762,0.0000,0.0000,2022-04-13T13:00Z,N/A,N/A,N/A
AGGO00ARG,2765120.9,-4449250.25,-3626405.6,-34.874,-58.140,42.489,SEPT POLARX5TR,GPS+GLO+GAL+BDS+SBAS,3228290,5.4.0,0,2021-03-29T15:00Z,LEIAR25.R4,LEIT,726722,BPA,000.4100,000.0000,000.0000,2022-10-11T13:30Z,EXTERNAL CESIUM 1,10 ,2016-12-21/CCYY-MM-DD
AIRA00JPN,-3530185.489,4118797.337,3344036.931,31.824,130.600,315.056,TRIMBLE ALLOY,GPS+GLO+GAL+QZSS,6042R40081,6.15,5,2022-09-14T11:00Z,TRM59800.00,SCIS,4938353451,BPA,0.0,0.0,0.0,2012-08-01T01:00Z,INTERNAL ,,2004-11-19
AJAC00FRA,4696990.0,723994.0,4239678.0,41.927, 8.763,99.200,LEICA GR50,GPS+GLO+GAL+BDS+QZSS+SBAS,2090088,4.51,0,2021-12-15T15:00Z,TRM115000.00,NONE,6122223841,BAM,0.0000,0.0000,0.0000,2020-01-21T10:00Z,INTERNAL,,2000-01-22/CCYY-MM-DD
ALBH00CAN,-2341332.884,-3539049.509,4745791.36,48.390,-123.487,32.176,SEPT POLARX5,GPS+GLO+GAL,3013341,5.2.0,5,2019-01-16T22:16Z,TRM59800.00,SCIS,5112354071,BPA,0.100,0.000,0.000,2015-09-15T19:00Z,EXTERNAL H-MASER,10 ,2019-01-16/CCYY-MM-DD
ALGO00CAN,918129.4,-4346071.2,4561977.8,45.956,-78.071,201.258,SEPT POLARX5,GPS+GLO+GAL,3015995,5.3.2,5,2020-08-18T22:27Z,AOAD/M_T,NONE,303,BPA,000.1000,000.0000,000.0000,2012-12-20T17:00Z,INTERNAL,10 ,2022-09-20
ALIC00AUS,-4052052.7352,4212835.9833,-2545104.5853,-23.670,133.886,603.650,SEPT POLARX5,GPS+QZSS+GLO+GAL+BDS,3061704,5.5.0,0,2022-11-01T00:01Z,LEIAR25.R3,NONE,09370001,BPA,000.0015,000.0000,000.0000,2011-07-20T00:00Z,INTERNAL,,1994-05-15/(CCYY-MM-DD)
ALRT00CAN,388042.75,-740382.4,6302001.85,82.494,-62.340,78.562,ASHTECH UZ-12,GPS,UC2200511006,CQ00,0,2011-05-20T15:51Z,ASH701945D_M,NONE,CR520020903,BPA,0.1000,0.0000,0.0000,2002-07-16,INTERNAL,,2002-07-16/CCYY-MM-DD
AMC400USA,-1248596.405,-4819428.21,3976505.93,38.803,-104.525,1911.816,SEPT POLARX5TR,GPS+GLO+GAL+BDS,3013929,5.5.0,0,2023-03-16T19:24Z,TPSCR.G5C,NONE,1364-10065,BPA,0.0000,0.0000,0.0000,2018-06-20,EXTERNAL H-MASER,5 ,1998-03-24/CCYY-MM-DD
ANK200TUR,4124040.177,2655251.841,4065428.467,39.843,32.775,1294.749,TRIMBLE NETR9,GPS+GLO+GAL+BDS,5751R52038,Nav 5.45 / Boot 5.45,0,2022-02-18T06:00Z,TRM115000.00,NONE,1551101061,BAM,0.0420,0.0000,0.0000,2019-06-28T09:56Z,INTERNAL,,2019-06-28/CCYY-MM-DD
ANMG00MYS,-1270826.87,6242631.446,307792.439, 2.785,101.507,15.402,TRIMBLE NETR9,GPS+GLO+GAL+BDS+QZSS,5423R48722,5.37,0,2019-04-18T01:57Z,JAVRINGANT_DM,SCIS,00449,BPA,0.0000,0.0000,0.0000,2014-02-21T00:00Z,INTERNAL,,2014-02-21/CCYY-MM-DD
ANTC00CHL,1608539.0,-4816370.0,-3847799.0,-37.339,-71.532,746.168,TRIMBLE NETR9,GPS+GLO,5234K51716,4.85,5,2015-04-10T14:55Z,ASH700936D_M,SNOW,12462,BPA,0.0000,0.0000,0.0000,2002-01-01T00:01Z,INTERNAL ,,
ANTF00CHL,1958240.723,-5505483.304,-2548076.547,-23.702,-70.420,68.819,STONEX SC2200,GPS+GLO+GAL+BDS+SBAS,SC22A0081001G,2.12-210914-STX,0,2022-07-22T00:00Z,STXSA1500,STXG,C21090017640,BAM,0.136,0.000,0.000,2022-07-22T00:00Z,INTERNAL,,2022-07-22/CCYY-MM-DD
AREG00PER,1942816.3653,-5804077.1395,-1796884.4383,-16.465,-71.493,2489.742,SEPT POLARX5,GPS+GLO+GAL+BDS+SBAS,3022499,5.5.0,0,2022-11-30T14:26Z,TRM59800.00,NONE,5129354209,BPA,0.4291,0.0000,-0.0006,2013-01-11T00:00Z,EXTERNAL RUBIDIUM,10 ,2014-10-17/CCYY-MM-DD
AREQ00PER,1942826.192,-5804070.331,-1796894.267,-16.466,-71.493,2489.327,SEPT POLARX5,GPS+GLO+GAL+BDS,3025537,5.5.0,0,2023-02-28T00:52Z,JAVRINGANT_DM,NONE,01548,BPA,0.061,0.000,0.000,2018-05-01T01:30Z,EXTERNAL QUARTZ,5 ,2009-07-10/CCYY-MM-DD
ARHT00ATA,-1312626.536,311171.129,-6213081.915,-77.829,166.664,135.782,JAVAD TRE_3 DELTA,GPS+GLO+GAL+BDS+QZSS+IRNSS,02333,4.1.01,0,2021-07-20T21:45Z,JAVRINGANT_DM,SCIS,00836,BPA,0.0083,0,0,2017-12-05T00:00Z,INTERNAL,,2017-12-05/CCYY-MM-DD
ARTU00RUS,1843956.968,3016202.97,5291261.66,56.430,58.560,247.950,JAVAD TRE_G3TH DELTA,GPS+GLO,02668,3.6.9 Nov 28 2016,,2018-09-06T09:30Z,ASH700936D_M,DOME,CR13077,BPA,0.0796,,,1999-08-06,INTERNAL,,1999-08-06/CCYY-MM-DD
ARUC00ARM,3500416.7822,3390432.6839,4103027.5848,40.286,44.086,1222.580,SEPT POLARX5,GPS+GLO+GAL+BDS+QZSS,3013438,5.5.0,0,2023-02-28T01:42Z,ASH701945C_M,SCIS,CR520003504,BPA,0.0792,0.0000,0.0000,2013-11-08T07:24Z,INTERNAL,,2013-04-03/CCYY-MM-DD
ASCG00SHN,6121151.578,-1563978.904,-872615.417,-7.916,-14.333,38.385,TRIMBLE ALLOY,GPS+GLO+GAL+BDS+SBAS,5945R40128,6.16,0,2023-03-14T11:36Z,TRM59800.00,NONE,5311354626,BPA,0.4080,-0.0007,0.0001,2021-08-19T16:15Z,INTERNAL,,2015-07-24/CCYY-MM-DD
ASPA00USA,-6100260.096,-996503.51,-1567977.812,-14.326,-170.722,54.070,SEPT POLARX5,GPS+GLO+GAL,3074098,5.5.0,0,2023-01-17T18:09Z,TRM55971.00,NONE,30517456,BAM,0.0000,0.0000,0.0000,2008-10-01,INTERNAL,,2001-08-12/CCYY-MM-DD
AUCK00NZL,-5105681.0,461564.0,-3782181.7,-36.603,174.834,133.092,TRIMBLE ALLOY,GPS+GLO+GAL+BDS+QZSS,5921R40146,5.45,0,2020-09-22T09:53Z,TRM115000.00,NONE,1551016656,BAM,0.0550,0.0,0.0,2019-10-23T23:34Z,INTERNAL,,1995-09-18/CCYY-MM-DD
BADG00RUS,-838281.513,3865777.334,4987624.632,51.770,102.235,811.838,JAVAD TRE_3 DELTA,GPS+GLO+GAL,02682,3.7.10 Oct 22 2020,3,2020-11-17T13:00Z,JAVRINGANT_DM,JVDM,00328,BPA,000.0280,000.0000,000.0000,2010-03-15T00:00Z,EXTERNAL H-MASER CH1-80,5 ,2010-03-15/CCYY-MM-DD
BAIE00CAN,1546823.34,-3879765.13,4804185.05,49.187,-68.263,27.911,TPS NET-G5,GPS+GLO,1294-11329,5.2.7 Sep 09 2020,5,2022-01-12T15:04Z,TPSCR.G3,NONE,383-0458,BPA,000.1000,000.0000,000.0000,2016-07-11T19:30Z,INTERNAL,5,2001-11-04
BAKE00CAN,-289833.93,-2756501.06,5725162.22,64.318,-96.002, 4.854,TPS NET-G3A,GPS+GLO,618-02373,4.7 Nov 23 2017 p6,5,2019-02-19T22:53Z,TPSCR.G3,NONE,383-0416,BPA,000.1000,000.0000,000.0000,2018-07-26T03:36Z,INTERNAL,,2001-11-30
BAKO00IDN,-1836969.054,6065617.126,-716257.839,-6.491,106.849,158.562,LEICA GR50,GPS+GLO+GAL+BDS+QZSS+SBAS,1871265,4.31/7.403,10,2023-02-27T04:45Z,LEIAR20,LEIM,21015023,BAM,1.648,0.0,0.0,2018-07-31T00:00Z,EXTERNAL,,
BAMF00CAN,-2420721.2,-3439856.061,4778532.675,48.835,-125.135,11.071,SEPT POLARX5,GPS+GLO+GAL+BDS,3015944,5.3.2,0,2021-03-29T00:00Z,SEPCHOKE_B3E6,SPKE,5120,BPA,0.000,0.000,0.000,2018-03-20T22:18Z,INTERNAL CLOCK STEERING,,2005-08-30/CCYY-MM-DD
BARH00USA,1693644.846,-4239067.57,4439567.239,44.395,-68.222, 7.178,LEICA GR30,GPS+GLO,1706567,4.60/7.811,0,2022-07-21T08:01Z,LEIAR10,NONE,21299033,BAM,0.0000,0.0000,0.0000,2019-02-08T16:30Z,INTERNAL,,1998-10-02/CCYY-MM-DD
BAUT00DEU,3877545.5,1004370.9,4947148.1,51.192,14.522,212.211,JAVAD TRE_3 DELTA,GPS+GLO+GAL+BDS+SBAS,02812,4.1.06-221128,0,2023-02-08T10:01Z,LEIAR25.R3,LEIT,10020025,BPA,0.0450,0.0000,0.0000,2021-02-17T08:30Z,INTERNAL,,2018-09-20/CCYY-MM-DD
BELE00BRA,4228139.05,-4772752.08,-155761.38,-1.409,-48.463, 9.476,TRIMBLE NETR9,GPS+GLO+GAL+BDS,5750R51578,5.56,0,2022-12-21T20:03Z,TRM115000.00,NONE,1551129596,BAM,0.0080,0.0000,0.0000,2018-04-25T14:53Z,INTERNAL ,,
BHR300BHR,3633910.66,4425277.759,2799862.907,26.209,50.608,-13.446,NOV OEM6,GPS,NR057,D28CBA70,0,2021-10-21T00:00Z,TPSCR.G5,TPSH,762-11842,BPA,0.0000,0.0000,0.0000,2015-04-13T00:00Z,EXTERNAL CESIUM /RCVR1,5 ,2017-12-24/CCYY-MM-DD
BHR400BHR,3633910.66,4425277.759,2799862.907,26.209,50.608,-13.446,NOV OEM6,GPS,NR031,D28CBA70,0,2021-10-21T00:00Z,TPSCR.G5,TPSH,762-11842,BPA,0.0000,0.0000,0.0000,2015-04-13T00:00Z,EXTERNAL CESIUM /RCVR2,5 ,2017-07-19/CCYY-MM-DD
BIK000KGZ,1249005.5455,4513917.3461,4316147.9247,42.854,74.533,745.287,SEPT POLARX5,GPS+GLO+GAL+BDS+QZSS+IRNSS+SBAS,3051466,5.5.0,0,2023-02-16T08:30Z,JAV_RINGANT_G3T,NONE,313,BAM,0.1300,0.0000,0.0000,2014-03-27T06:00Z,INTERNAL,,2014-03-27/CCYY-MM-DD
BILL00USA,-2420420.5012,-4737131.5508,3507827.665,33.578,-117.065,470.478,SEPT POLARX5,GPS+GLO+GAL+BDS+QZSS+SBAS,3234967,5.5.0,0,2022-09-27T20:36Z,TRM59800.99,SCIT,0220067546,BPA,0.0083,0.0000,0.0000,2020-09-21T17:16Z,INTERNAL,,1997-11-18/CCYY-MM-DD
BJCO00BEN,6333076.505,270973.437,704551.984, 6.385, 2.450,31.127,TRIMBLE NETR5,GPS+GLO,4747K11320,4.48,0,2021-11-09T17:00Z,TRM59800.00,NONE,4804A44382,BPA,0.0000,0.0000,0.0000,2009-03-26T15:40Z,INTERNAL,,2008-11-20/CCYY-MM-DD
BJFS00CHN,-2148743.808,4426641.281,4044655.993,39.609,115.892,87.833,TRIMBLE NETR9,GPS+GLO,5310K42306,4.85,5,2017-03-10T00:00Z,TRM59900.00,SCIS,5317361110,BPA,000.0465,000.0000,000.0000,2015-11-26T00:00Z,EXTERNAL RUBIDIUM,10 ,2015-11-26/CCYY-MM-DD
BJNM00CHN,-2154287.413,4373440.047,4098885.628,40.245,116.224,109.492,SEPT POLARX3ETR,GPS+GLO,2001087,2.1,15,2010-05-04T00:00Z,NOV702GG,NONE,NAE09190046,BAM,0.0,0.0,0.0,2010-08-21T00:00Z,EXTERNAL HYDROGEN MASER,10M Hz,2006-06-25/CCYY-MM-DD
BLYT00USA,-2223206.72,-4830299.8,3510587.59,33.610,-114.715,86.324,SEPT POLARX5,GPS+GLO+GAL+SBAS,3052388,5.4.0,0,2022-05-11T20:49Z,TWIVC6150,SCIS,VC6150L1908270003,BPA,0.0332,0.0000,0.0000,2022-05-11T20:49Z,INTERNAL,,1994-01-13/(CCYY-MM-DD)
BNOA00IDN,-2685309.038,5704009.251,-963466.461,-8.746,115.210,39.458,TRIMBLE NETR9,GPS,5114K74800,4.81,5,2013-11-16T00:00Z,TRM59900.00,SCIS,5119360130,BPA,0.0000,0.0000,0.0000,2018-04-03T00:00Z,INTERNAL ,,
BOAV00BRA,3117452.21,-5555487.82,314480.74, 2.845,-60.701,69.876,TRIMBLE NETR9,GPS+GLO+GAL+BDS,5750R51600,5.56,0,2022-12-21T19:46Z,TRM115000.00,NONE,1551129630,BAM,000.0080,000.0000,000.0000,2018-07-25T21:14Z,INTERNAL ,,
BOGI00POL,3633815.7,1397453.9,5035280.8,52.475,21.035,140.355,JAVAD TRE_G3T DELTA,GPS+GLO+GAL,Delta_00031 OEM_066,3.6.14 Nov 19 2018,0,2019-01-21T14:10Z,TPSCR.G5,TPSH,762-13216,BPA,0.0534,0.0000,0.0000,2021-04-28T08:30Z,EXTERNAL RUBIDIUM,5 ,2009-07-03/CCYY-MM-DD
BOGT00COL,1744399.0397,-6116037.5577,512731.7532, 4.640,-74.081,2577.179,JAVAD TRE_3 DELTA,GPS+GLO+GAL+BDS,01972,4.1.01,0,2021-07-20T23:27Z,JAVRINGANT_DM,NONE,00989,BPA,0.061,0.000,0.000,2015-08-19T21:00Z,INTERNAL,,2002-02-14/CCYY-MM-DD
BOR100POL,3738358.833,1148173.963,5021816.113,52.277,17.073,125.335,TRIMBLE NETR9,GPS+GLO+GAL+BDS+QZSS+SBAS,5420R48510,5.45,0,2020-09-18T10:20Z,TRM59800.00,NONE,5421355014,BPA,0.0622,0.0000,0.0000,2016-10-05T11:00Z,EXTERNAL H-MASER,5 ,2016-10-05/CCYY-MM-DD
BRAZ00BRA,4115014.1128,-4550641.5225,-1741444.0984,-15.947,-47.878,1106.445,TRIMBLE NETR9,GPS+GLO+GAL,5607R50135,5.56,0,2022-12-22T10:42Z,TRM57971.00,NONE,2612117300,BAM,0.008,0.000,0.000,2016-09-28T13:30Z,INTERNAL,,1995-03-03/CCYY-MM-DD
BREW00USA,-2112007.1404,-3705351.8421,4726827.1606,48.132,-119.683,239.058,SEPT POLARX5TR,GPS+GLO+GAL+BDS+QZSS,3013938,5.5.0,0,2023-02-28T02:07Z,ASH701945C_M,SCIT,CR620013703,BPA,0.0083,0.0000,0.0000,2018-08-16T22:00Z,EXTERNAL H-MASER,10 MHz and 1pps ,2018-06-07/CCYY-MM-DD
BRFT00BRA,4985393.532,-3954993.417,-428426.704,-3.877,-38.426,22.074,SEPT POLARX5,GPS+GAL+GLO,3074249,5.5.0,0,2023-02-06T18:20Z,LEIAT504,NONE,868,BPA,0.0083,0.0000,0.0000,2005-09-06,INTERNAL,5 ,2011-02-07/CCYY-MM-DD
BRMG00DEU,4245557.1,568958.1,4710200.0,47.908, 7.633,262.027,JAVAD TRE_3 DELTA,GPS+GLO+GAL+BDS+SBAS,02887,4.1.06-221128,0,2023-02-08T09:27Z,LEIAR25.R4,LEIT,726856,BPA,0.0450,0.0000,0.0000,2020-04-08T10:00Z,INTERNAL,,2020-03-05/CCYY-MM-DD
BRST00FRA,4231162.0,-332747.0,4745131.0,48.380,-4.497,65.952,TRIMBLE ALLOY,GPS+GLO+GAL+BDS+SBAS,5818R40023,5.45,0,2020-09-30T15:00Z,TRM57971.00,NONE,1441017048,BAM,2.0431,0.0000,0.0000,2012-04-19T12:00Z,INTERNAL,,1998-10-31/CCYY-MM-DD
BRUN00BRN,-2680694.374,5761268.529,549016.773, 4.971,114.952,91.069,TRIMBLE NETR9,GPS+GLO+GAL+BDS+QZSS,5423R48733,5.01,0,2015-08-22T00:00Z,JAVRINGANT_DM,SCIS,00463,BPA,0.0000,0.0000,0.0000,2014-06-04T00:00Z,INTERNAL,,2014-06-04/CCYY-MM-DD
BRUX00BEL,4027881.628,306998.537,4919498.984,50.798, 4.359,158.694,SEPT POLARX5TR,GPS+GLO+GAL+BDS+QZSS+IRNSS+SBAS,3057609,5.5.0,0,2022-10-11T08:00Z,JAVRINGANT_DM,SCIS,00464,BPA,0.4689,0.0010,0.0000,2021-04-20T08:33Z,EXTERNAL IMASER 3000,10 ,2023-01-23/CCYY-MM-DD
BSHM00ISR,4396111.1752,3080477.64191,3433499.46187,32.779,35.020,225.516,SEPT POLARX5,GPS+GLO+GAL+BDS+QZSS+IRNSS,3013570,5.4.0,0,2021-08-24T11:00Z,TRM59800.00,SCIS,4811A47089,BPA,0.00,0.00,0.00,2009-07-20T00:00Z,INTERNAL,,2009-07-20/CCYY-MM-DD
BTNG00IDN,-3674585.766,5210904.565,159093.409, 1.439,125.190,75.393,TRIMBLE NETR9,GPS,5114K74693,4.81,,2018-04-08T00:00Z,TRM59900.00,SCIS,5319361136,BPA,0.0000,0.0000,0.0000,2018-04-08T00:00Z,INTERNAL ,,
BUCU00ROU,4093760.994,2007793.667,4445129.862,44.464,26.126,143.595,LEICA GR50,GPS+GLO+GAL+BDS+SBAS,1830199,4.60/7.811,0,2022-07-29T11:05Z,LEIAR25.R4,LEIT,726369,BPA,0.0970,0.0000,0.0000,2020-10-06T10:00Z,INTERNAL,,1999-02-11/CCYY-MM-DD
BZR200ITA,4312893.06,864794.52,4603598.27,46.496,11.338,331.633,LEICA GR30,GPS+GLO+GAL+BDS,1707020,4.50/7.710,0,2021-06-16T03:31Z,LEIAR25.R4,LEIT,726507,BPA,0.0000,0.0000,0.0000,2017-10-27T06:27Z,INTERNAL,,2017-10-27/CCYY-MM-DD
CAGS00CAN,1096349.16,-4335060.66,4533255.22,45.585,-75.807,235.442,TRIMBLE NETR8,GPS,4931K62905,48.01,0,2019-03-30T21:34Z,TRM59800.00,NONE,4926353381,BPA,0.1000,0.0000,0.0000,2012-08-22T16:55Z,INTERNAL,,2000-02-02/CCYY-MM-DD
CAS100ATA,-901776.221,2409383.497,-5816748.487,-66.283,110.520,22.999,TRIMBLE ALLOY,GPS+QZSS+GLO+GAL+BDS,5950R40131,6.15,,2022-10-31T01:04Z,LEIAR25.R3,LEIT,9310002,BPA,000.0000,000.0000,000.0000,2013-12-11T03:00Z,INTERNAL,5 ,1998-01-09/(CCYY-MM-DD)
CCJ200JPN,-4490605.4013,3483894.7513,2884928.2222,27.068,142.195,104.626,TRIMBLE ALLOY,GPS+GLO+GAL+QZSS,6023R40093,6.10,5,2021-12-05T05:00Z,TRM59800.00,SCIS,5015353788,BPA,0.0,0.0,0.0,2016-06-23T00:00Z,INTERNAL,,2017-09-01
CEBR00ESP,4846664.918,-370195.2,4116929.526,40.453,-4.368,776.225,SEPT POLARX5TR,GPS+GLO+GAL+BDS+SBAS,4701366,5.4.0,0,2021-01-19T13:00Z,SEPCHOKE_B3E6,NONE,5661,BPA,0.1527,0.0000,0.0000,2019-09-19T10:00Z,EXTERNAL H-MASER,10 ,2012-12-21/CCYY-MM-DD
CEDU00AUS,-3753473.193,3912741.0282,-3347959.6952,-31.867,133.810,145.133,TRIMBLE ALLOY,GPS+GLO+GAL+BDS+QZSS,6140R40025,6.15,0,2022-12-15T03:56Z,LEIAR25.R4,NONE,727480,BPA,000.0250,000.0000,000.0000,2022-12-15T03:43Z,INTERNAL,,2020-01-15/(CCYY-MM-DD)
CGGN00NGA,6201032.5267,995277.2635,1113815.5634,10.123, 9.118,917.097,JAVAD TRE_G3TH DELTA,GPS+GLO,01713,3.6.4,0,2016-03-29T00:53Z,ASH701945B_M,NONE,CR519992105,BPA,000.1710,000.0000,000.0000,2012-06-03T12:26Z,INTERNAL,,2010-10-06/CCYY-MM-DD
CHAN00CHN,-2674377.0,3757198.0,4391503.0,43.790,125.443,271.958,ASHTECH UZ-12,GPS,UC2200511014,CQ00,5,2007-11-15T00:00Z,ASH701945C_M,NONE,16892,BPA,000.2500,000.0000,000.0000,2021-01-22T01:00Z,EXTERNAL H-MASER,10 ,2015-09-14/CCYY-MM-DD
CHIL00USA,-2478003.12,-4655349.22,3577932.2,34.333,-118.026,1567.929,TPS NET-G3A,GPS+GLO,618-01102,4.7 Feb 21 2019 p10,5,2019-03-25T19:45Z,TPSCR.G3,SCPL,383-1822,BPA,0.6440,0.0000,0.0000,2012-05-08T19:10Z,INTERNAL,,1994-09-02/(CCYY-MM-DD)
CHOF00JPN,-3946216.71,3366689.83,3698971.69,35.675,139.531,94.315,JAVAD TRE_G3TH DELTA,GPS+GLO+GAL+QZSS+IRNSS+SBAS,00534,3.7.10,0,2020-12-11T13:00Z,TRM57971.00,NONE,31187001,BAM,000.0000,000.0000,000.0000,2009-08-17T00:00Z,INTERNAL,,2010-11-29/CCYY-MM-DD
CHPG00BRA,4163476.6693,-4163821.9362,-2444511.1746,-22.682,-45.002,566.658,TRIMBLE ALLOY,GPS+GLO+GAL+BDS+SBAS,5945R40131,6.16,0,2023-03-09T12:38Z,TRM59800.00,NONE,5151354351,BPA,0.4246,0.0003,0.0002,2013-03-27T00:00Z,INTERNAL,,2013-03-27T00:00Z/CCYY-MM-DD
CHPI00BRA,4164613.89,-4162456.91,-2445028.76,-22.687,-44.985,617.826,SEPT POLARX5,GPS+GLO+GAL+BDS,3013580,5.5.0,0,2023-02-28T02:38Z,TPSCR.G3,NONE,3830153,BPA,0.0792,0.000,0.000,2018-05-03T14:30Z,INTERNAL,,2001-04-17/CCYY-MM-DD
CHTI00NZL,-4607855.9,-272375.8,-4386954.5,-43.735,-176.617,76.101,TRIMBLE ALLOY,GPS+GLO+GAL+BDS+QZSS,5921R40133,5.45,0,2020-09-22T07:52Z,TRM115000.00,NONE,1441052895,BAM,0.0020,0.0000,0.0000,2019-10-31T00:35Z,INTERNAL,,2007-12-10/CCYY-MM-DD
CHUM00KAZ,1228950.716,4508079.93,4327868.505,42.999,74.751,716.758,TRIMBLE NETRS,GPS,4549261325,1.3-2,5,2019-03-04T00:00Z,AOAD/M_T,NONE,237,BPA,0.090,0.000,0.000,2003-09-17T00:00Z,INTERNAL,,1997-10-07/CCYY-MM-DD
CHUR00CAN,-236438.7,-3307616.7,5430049.1,58.759,-94.089,-19.100,TPS NET-G3A,GPS+GLO,618-00844,4.7 Nov 23 2017 p6,5,2019-03-19T16:50Z,ASH701945E_M,NONE,CR620045037,BPA,000.1000,000.0000,000.0000,2010-09-02T00:00Z,EXTERNAL RUBIDIUM,10 ,2016-07-21
CHWK00CAN,-2215259.73,-3543996.83,4802098.77,49.157,-122.008,174.444,SEPT POLARX5,GPS+GLO+GAL+BDS,3016105,5.3.2,0,2021-03-29T00:00Z,SEPCHOKE_B3E6,SPKE,5135,BPA,0.000,0.000,0.000,2020-11-26T00:15Z,INTERNAL CLOCK STEERING,,1998-11-17/CCYY-MM-DD
CIBG00IDN,-1837002.6304,6065627.3598,-716183.2715,-6.490,106.849,169.534,TRIMBLE ALLOY,GPS+GLO+GAL+BDS+QZSS+SBAS+IRNSS,6023R40127,6.16,0,2023-03-09T10:50Z,LEIAR25.R4,NONE,10231019,BPA,0.0000,0.0000,0.0000,2019-04-24T04:19Z,INTERNAL,,2015-10-10/CCYY-MM-DD
CIT100USA,-2491490.2616,-4660803.2317,3559129.0005,34.137,-118.127,215.770,TRIMBLE NETR9,GPS+GLO+SBAS,5301K55938,5.37,5,2019-07-25T18:28Z,TRM57971.00,NONE,50001153448,BAM,0.0000,0.0000,0.0000,2013-12-17T19:35Z,INTERNAL,,1994-09-01/CCYY-MM-DD
CKIS00COK,-5583182.1381,-2054143.6114,-2292166.7567,-21.201,-159.801,18.831,TRIMBLE NETR9,GPS+GLO+GAL+BDS+QZSS,5037K70402,5.22,0,2017-04-27T00:00Z,JAVRINGANT_DM,NONE,02028,BPA,000.0015,000.0000,000.0000,2017-12-05T00:45Z,INTERNAL,,2002-02-20/(CCYY-MM-DD)
CKSV00TWN,-2956619.1898,5075902.1717,2476625.5462,22.999,120.220,59.978,TRIMBLE ALLOY,GPS+GLO+GAL+BDS+QZSS+SBAS,5922R40060,6.12,0,2021-09-16T00:00Z,TPSCR.G3,TPSH,383-0108,BPA,0.0000,0.0000,0.0000,2007-01-26T00:00Z,INTERNAL,,2007-01-26/CCYY-MM-DD
CMP900USA,-2508506.1541,-4637174.7958,3579499.9356,34.353,-118.411,1138.413,SEPT POLARX5,GPS+GLO+GAL+SBAS,3052230,5.4.0,0,2022-03-22T00:23Z,TWIVC6150,SCIS,VC6150L1907310002,BPA,0.1265,0.0000,0.0000,2022-03-22T00:23Z,INTERNAL,,1995-06-22/(CCYY-MM-DD)
CMUM00THA,-938078.387,5968373.965,2038404.323,18.761,98.932,309.368,TRIMBLE NETR9,GPS+GLO+GAL+BDS+QZSS,5423R48734,5.37,0,2019-04-17T04:53Z,JAV_GRANT-G3T,NONE,01320,BAM,0.0000,0.0000,0.0000,2014-02-18T00:00Z,INTERNAL,,2014-02-18/CCYY-MM-DD
CNMR00USA,-5087757.849,3465028.937,1664653.754,15.230,145.743,64.798,TRIMBLE NETR9,GPS+GLO+GAL,5835R50375,5.48,0,2021-05-21T21:25Z,TRM57971.00,NONE,1441004456,BAM,0.0000,0.0000,0.0000,2022-06-13T03:00Z,INTERNAL,,2003-08-07/CCYY-MM-DD
COCO00AUS,-741949.8528,6190961.6634,-1337768.7328,-12.188,96.834,-34.817,SEPT POLARX5,GPS+QZSS+GAL+BDS+GLO+IRNSS,3047905,5.5.0,0,2022-10-31T00:03Z,LEIAR25.R4,NONE,726831,BPA,000.0065,000.0000,000.0000,2021-08-25T00:00Z,INTERNAL,,2009-04-16/(CCYY-MM-DD)
CORD00ARG,2345503.9452,-4910842.9601,-3316365.5474,-31.528,-64.470,747.481,SEPT POLARX5,GPS+GLO+GAL+BDS,3025646,5.5.0,0,2023-02-28T04:44Z,TPSCR.G3,NONE,383-0362,BPA,0.0922,0.0000,0.0000,2013-08-28T00:00Z,INTERNAL,,1999-07-27/CCYY-MM-DD
COSO00USA,-2411148.2861,-4571430.2322,3727461.4502,35.982,-117.809,1455.582,SEPT POLARX5,GPS+GLO+GAL+SBAS,3012249,5.3.0,0,2019-12-12T21:37Z,TWIVC6150,SCIS,VC6150L1907310007,BPA,0.2430,0.0000,0.0000,2019-12-12T21:37Z,INTERNAL,,1995-08-16/(CCYY-MM-DD)
COTE00ATA,-1285757.4165,417822.4915,-6214230.8473,-77.806,161.998,1878.554,TRIMBLE NETR9,GPS+GLO,5034K69672,5.22,0,2018-11-06T04:28Z,TRM59800.00,SCIS,4852A62823,BPA,0.0000,0.0000,0.0000,2017-01-02T13:21Z,INTERNAL,,2008-01-29/CCYY-MM-DD
COYQ00CHL,1391587.0,-4255574.0,-4527926.0,-45.514,-71.892,476.277,TRIMBLE NETR9,GPS,5250K54757,5.01,3,2017-06-01T20:50Z,ASH700936D_M,SNOW,12479,BPA,0.0000,0.0000,0.0000,1999-01-01T00:00Z,INTERNAL,,1999-01-01/CCYY-MM-DD
CPNM00THA,-1020874.496,6183763.086,1179096.215,10.725,99.374, 9.545,TRIMBLE NETR9,GPS+GLO+GAL+BDS+QZSS,5426R48963,5.37,0,2019-04-17T05:01Z,JAVRINGANT_DM,SCIS,00469,BPA,0.0000,0.0000,0.0000,2013-04-04T00:00Z,INTERNAL,,2013-04-04/CCYY-MM-DD
CPVG00CPV,5626883.4267,-2380932.5096,1824483.8747,16.732,-22.935,94.494,TRIMBLE ALLOY,GPS+GLO+GAL+BDS+SBAS,6023R40120,6.16,0,2023-03-09T12:36Z,TRM59800.00,NONE,5138354328,BPA,0.4300,0.0000,0.0000,2013-10-22T00:00Z,INTERNAL,,2013-10-22/CCYY-MM-DD
CRFP00USA,-2410446.7968,-4710490.3879,3550422.4952,34.039,-117.100,689.238,TRIMBLE NETR9,GPS+GLO+SBAS,5251K41042,5.37,5,2021-02-25T00:00Z,TRM57971.00,NONE,5000115161,BAM,0.0355,0.0000,0.0000,2013-12-12T21:55Z,INTERNAL,,1994-06-15/CCYY-MM-DD
CRO100VIR,2607771.494,-5488076.997,1932768.0602,17.757,-64.584,-31.092,SEPT POLARX5TR,GPS+GLO+GAL+BDS,3222540,5.5.0,0,2023-02-28T05:01Z,JAVRINGANT_DM,SCIS,00843,BPA,0.6435,0.000,0.000,2015-09-24T17:00Z,EXTERNAL H-MASER,10 ,2021-03-12/CCYY-MM-DD
CUIB00BRA,3430711.4,-5099641.5,-1699432.9,-15.555,-56.070,237.785,SEPT POLARX5S,GPS+GLO+GAL+BDS+SBAS,4601379,5.5.0,0,2023-02-28T15:15Z,SEPCHOKE_B3E6,SPKE,5629,BPA,0.0080,0.0000,0.0000,2020-02-13T18:00Z,INTERNAL,,1997-06-18
CUSV00THA,-1132913.7678,6092530.5657,1504633.5192,13.736,100.534,76.463,JAVAD TRE_3 DELTA,GPS+GLO+GAL+BDS+QZSS,01926,4.1.01,0,2021-07-21T01:43Z,JAVRINGANT_DM,NONE,00918,BPA,0.00,0.00,0.00,2015-06-15T01:00Z,INTERNAL,,2008-05-12/CCYY-MM-DD
CUT000AUS,-2364337.2699,4870285.5624,-3360809.8398,-32.004,115.895,24.403,TRIMBLE NETR9,GPS+GLO+GAL+BDS+QZSS+SBAS,5023K67889,5.45,0,2020-04-30T03:30Z,TRM59800.00,SCIS,4928353386,BPA,0.0000,0.0000,0.0000,2012-02-02T00:00Z,INTERNAL,,2010-07-29/CCYY-MM-DD
CUUT00THA,-1132915.824,6092526.351,1504641.505,13.736,100.534,74.699,TRIMBLE NETR9,GPS+GLO+GAL+BDS+QZSS+SBAS,5427R49036,5.43,0,2019-10-03T17:00Z,TRM57971.00,NONE,5000120293,BAM,0.000,0.000,0.000,2015-01-13T04:27Z,INTERNAL,,2015-01-13/CCYY-MM-DD
CYNE00GUF,3880933.0,-5033206.0,532565.0, 4.822,-52.365,-22.414,SEPT POLARX5,GPS+GLO+GAL+BDS+SBAS,3047002,5.3.2,0,2020-02-07T00:00Z,TRM115000.00,NONE,1551000367,BAM,0.00,0.00,0.00,2019-10-23T00:00Z,INTERNAL,,2019-10-23/CCYY-MM-DD
CZTG00ATF,2719994.82,3463392.63,-4598612.94,-46.432,51.855,203.222,TRIMBLE ALLOY,GPS+GLO+GAL+BDS+QZSS+SBAS,5950R40228,6.05,0,2021-06-22T00:00Z,LEIAR20,LEIM,16247017,BAM,0.4400,0.0000,0.0000,2014-03-14T12:00Z,INTERNAL,,2014-03-14/CCYY-MM-DD
DAE200KOR,-3120042.274,4084614.722,3764026.818,36.399,127.374,117.244,TRIMBLE NETR9,GPS+GLO+GAL+BDS+QZSS,5423R48783,5.37,0,2019-04-18T03:27Z,TRM59800.00,SCIS,4923363230,BPA,0.0000,0.0000,0.0000,2014-04-22T00:00Z,EXTERNAL CESIUM,10,2010-09-15/CCYY-MM-DD
DAEJ00KOR,-3120041.821,4084615.221,3764027.013,36.399,127.374,117.458,TRIMBLE NETR9,GPS+GLO+GAL+BDS+QZSS,5412K48145,5.44,5,2020-03-31T05:00Z,TRM59800.00,SCIS,4923363230,BPA,0.0,0.0,0.0,2011-01-12T12:00Z,EXTERNAL CESIUM,10,2010-09-15/CCYY-MM-DD
DAKR00SEN,5886533.48,-1849181.6,1610300.44,14.721,-17.439,52.201,TPS NET-G3A,GPS+GLO,618-01403,4.7 Nov 23 2017 p6,5,2019-03-27T15:54Z,TPSCR.G3,NONE,383-2123,BPA,000.0000,000.0000,000.0000,2011-08-08T00:00Z,INTERNAL,,2011-08-08
DARW00AUS,-4091359.6055,4684606.4197,-1408579.1195,-12.844,131.133,125.502,SEPT POLARX5,GPS+BDS+IRNSS+GLO+GAL+QZSS,3070967,5.5.0,,2022-10-31T03:31Z,JAVRINGANT_DM,NONE,00687,BPA,000.0000,000.0000,000.0000,2017-07-05T00:00Z,INTERNAL,,2008-02-26/(CCYY-MM-DD)
DAV100ATA,486854.4996,2285099.3657,-5914955.7712,-68.577,77.973,44.953,SEPT POLARX5,GPS+GLO+GAL+BDS+IRNSS+QZSS,3012255,5.5.0,0,2022-11-01T00:53Z,LEIAR25.R3,LEIT,09310018,BPA,000.0000,000.0000,000.0000,2011-02-21T00:00Z,INTERNAL,5 ,2009-01-07/(CCYY-MM-DD)
DEAR00ZAF,5017617.2841,2233214.7864,-3234696.1991,-30.665,23.993,1322.122,TRIMBLE ALLOY,GPS+GLO,6048R40089,Nav 5.44 / Boot 5.44,5,2021-05-09T00:00Z,ASH701941.B,SCIS,CRL1999100121,BPA,0.0,0.0,0.0,2000-07-01T00:00Z,INTERNAL,,
DGAR00GBR,1916269.343,6029977.689,-801719.821,-7.270,72.370,-64.345,SEPT POLARX5,GPS+GLO+GAL+BDS+QZSS+IRNSS,3018561,5.5.0,0,2023-03-02T17:48Z,ASH701945E_M,NONE,CR620024214,BPA,0.0814,0.0000,0.0000,2004-05-18T00:00Z,INTERNAL,,1996-04-20/CCYY-MM-DD
DHLG00USA,-2319099.26,-4799846.5,3490090.45,33.390,-115.788,-82.630,TPS NET-G3A,GPS+GLO,618-01037,4.7p6,5,2019-03-26T00:00Z,TPSCR.G3,SCIS,383-1895,BPA,0.1224,0.0000,0.0000,2012-06-21T22:43Z,INTERNAL,,1996-04-24/(CCYY-MM-DD)
DJIG00DJI,4583086.1415,4250982.5036,1266243.0645,11.526,42.847,711.812,SEPT POLARX5,GPS+GLO+GAL+BDS+SBAS+IRNSS,3052370,5.5.0,0,2022-11-30T15:08Z,TRM59800.00,NONE,5037353965,BPA,  0.4404,  0.0015,  0.0009,2016-08-24T13:15Z,INTERNAL,,2013-12-11/CCYY-MM-DD
DLF100NLD,3924697.942,301124.893,5001905.154,51.986, 4.387,76.283,TRIMBLE NETR9,GPS+GLO+GAL+BDS+QZSS+SBAS,5039K70764,5.45,0,2020-05-16T15:15Z,LEIAR25.R3,LEIT,10030006,BPA,0.0000,0.0000,0.0000,2011-04-15T10:00Z,EXTERNAL CESIUM,10 ,2011-06-22/CCYY-MM-DD
DLTV00VNM,-1978879.097,5920511.651,1311808.34,11.945,108.482,1585.694,TRIMBLE NETR9,GPS+GLO+GAL+BDS+QZSS,5423R48782,5.01,0,2015-11-08T00:00Z,JAVRINGANT_DM,SCIS,00450,BPA,0.0000,0.0000,0.0000,2014-12-16T00:00Z,INTERNAL,,2014-12-16/CCYY-MM-DD
DRAG00ISR,4432980.662,3149432.093,3322110.441,31.593,35.392,32.225,JAVAD TRE_3 DELTA,GPS+GLO,02631,3.6.14,0,2019-01-24,ASH700936D_M,SNOW,CR14346,BPA,0.0000,0.0000,0.0000,2000-02-07T00:00Z,INTERNAL,,2000-02-07/CCYY-MM-DD
DRAO00CAN,-2059164.682,-3621108.388,4814432.366,49.323,-119.625,542.291,SEPT POLARX5,GPS+GLO+GAL,3022792,5.2.0,5,2019-05-31T05:00Z,TWIVC6050,SCIS,710152202004170097,BPA,0.100,0.000,0.000,2021-09-02T22:45Z,EXTERNAL H-MASER,5 ,2019-05-31/CCYY-MM-DD
DUBO00CAN,-417603.6,-4064529.8,4881432.16,50.259,-95.866,245.695,SEPT POLARX5,GPS+GLO+GAL,3015989,5.2.0,5,2019-02-07T00:10Z,AOAD/M_T,NONE,464,BPA,000.1000,000.0000,000.0000,2015-10-23T20:22Z,EXTERNAL RUBIDIUM SYMMETRICOM,10 ,2014-03-26
DUMG00ATA,-1940884.0,1628468.0,-5833720.0,-66.665,140.002,-2.939,LEICA GR25,GPS+GLO+GAL+BDS+QZSS+SBAS,1831465,4.31/6.525,0,2019-01-09T00:00Z,LEIAR25.R4,LEIT,726468,BPA,0.4278,-0.0005,0.0003,2017-01-17T00:00Z,INTERNAL,,2017-01-17T00:00Z
DUND00NZL,-4388121.17,726671.05,-4556535.63,-45.884,170.597,389.288,TRIMBLE ALLOY,GPS+GLO+GAL+BDS+QZSS,5920R40086,5.45,0,2020-09-22T08:45Z,TRM115000.00,NONE,1551016666,BAM,0.0020,0.0000,0.0000,2019-10-01T00:07Z,INTERNAL,,2005-08-24/CCYY-MM-DD
DYNG00GRC,4595220.016,2039434.081,3912626.007,38.079,23.932,510.995,SEPT POLARX5,GPS+GLO+GAL+BDS+SBAS+IRNSS,3034615,5.5.0,0,2022-11-30T14:26Z,TRM59800.00,NONE,5406354930,BPA,2.0180,0.0000,0.0000,2015-09-25T10:00Z,INTERNAL,,2011-05-12/CCYY-MM-DD
EBRE00ESP,4833520.0,41536.0,4147461.0,40.821, 0.492,107.745,LEICA GR50,GPS+GLO+GAL+BDS,1831701,4.61/7.811,0,2022-12-14T14:12Z,LEIAR25.R4,NONE,726359,BPA,0.0770,0.0000,0.0000,2016-12-14T11:07Z,INTERNAL,,1994-05-23/CCYY-MM-DD
EIL300USA,-2296304.083,-1484805.898,5743078.376,64.688,-147.113,177.682,NOV OEM6,GPS,NR023,D28CBA70,0,2021-10-25T00:00Z,TPSCR.G5,TPSH,762-11832,BPA,0.0000,0.0000,0.0000,2015-05-27T00:00Z,EXTERNAL CESIUM /RCVR 1,5 ,2015-06-15/CCYY-MM-DD
EIL400USA,-2296304.083,-1484805.898,5743078.376,64.688,-147.113,177.682,NOV OEM6,GPS,NR050,D28CBA70,0,2021-10-25T00:00Z,TPSCR.G5,TPSH,762-11832,BPA,0.0000,0.0000,0.0000,2015-05-27T00:00Z,EXTERNAL CESIUM /RCVR 2,5 ,2015-06-15/CCYY-MM-DD
ENAO00PRT,4375732.1533,-2329166.8136,4000238.2806,39.091,-28.026,91.974,JAVAD TRE_3,GPS+GLO+GAL+BDS+SBAS,4171758,4.2.01-220630,0,2023-02-03T11:30Z,JAVRINGANT_G5T,NONE,3222C,BAM,0.1206,0.0000,0.0000,2019-07-23T16:30Z,INTERNAL,,2019-07-23/CCYY-MM-DD
EPRT00USA,1768544.556,-4164839.445,4480190.419,44.909,-66.992,30.789,LEICA GR50,GPS+GLO+GAL,1870619,4.30/7.402,0,2019-02-27T21:42Z,LEIAR20,LEIM,20251001,BAM,0.0000,0.0000,0.0000,2018-05-09T22:14Z,INTERNAL,,1998-10-02/CCYY-MM-DD
ESCU00CAN,1852954.53,-3937498.76,4647314.64,47.073,-64.799,-15.592,TRIMBLE NETR9,GPS,5238K52576,5.33,0,2020-08-19T17:30Z,ASH701945E_M,NONE,CR6200323004,BPA,0.1000,0.0000,0.0000,2016-07-10T23:00Z,INTERNAL,,2004-12-09/CCYY-MM-DD
FAA100PYF,-5247393.111,-3076867.223,-1911521.528,-17.555,-149.614,12.543,SEPT POLARX5,GPS+GLO+GAL+BDS+QZSS+SBAS,4503018,5.4.0,0,2021-01-19T12:00Z,LEIAR25.R4,NONE,725235,BPA,000.1262,000.0000,000.0000,2012-12-05T00:00Z,INTERNAL ,,
FAIR00USA,-2281621.7717,-1453595.9493,5756961.9444,64.978,-147.499,319.623,SEPT POLARX5,GPS+GLO+GAL+BDS+QZSS,3025777,5.5.0,0,2023-03-02T18:09Z,ASH701945G_M,JPLA,CR5200348003,BPA,0.0863,0.0000,0.0000,2016-08-26T21:30Z,INTERNAL,,2005-12-20/CCYY-MM-DD
FALK00FLK,2106811.344,-3355170.6666,-4981786.3348,-51.694,-57.874,51.275,SEPT POLARX5,GPS+GLO+GAL+BDS,3013579,5.5.0,0,2023-03-02T18:35Z,ASH701945E_M,SCIT,CR6200539006,BPA,0.0083,0.0000,0.0000,2008-07-21T00:00Z,INTERNAL,,2008-07-21/CCYY-MM-DD
FFMJ00DEU,4053455.7,617729.9,4869395.9,50.091, 8.665,178.696,JAVAD TRE_3 DELTA,GPS+GLO+GAL+BDS+SBAS,02884,4.1.06-221128,0,2023-02-08T09:08Z,LEIAR25.R3,LEIT,09050002,BPA,0.0450,0.0000,0.0000,2019-09-04T10:53Z,INTERNAL,,2002-02-18/CCYY-MM-DD
FLIN00CAN,-766174.46,-3611375.32,5184056.22,54.726,-101.978,311.932,SEPT POLARX5,GPS+GLO+GAL,3024870,5.2.0,5,2020-02-18T15:53Z,NOV750.R4,NOVS,9470003,BPA,000.1500,000.0000,000.0000,2018-08-30T15:20Z,INTERNAL,,1996-06-05
FLRS00PRT,4221530.01,-2549242.33,4031397.8,39.454,-31.126,80.286,TRIMBLE ALLOY,GPS+GLO+GAL,5923R40189,6.16,0,2022-11-09T12:59Z,TRM159900.00,NONE,5925338547,BPA,0.0000,0.0000,0.0000,2021-10-20T15:45Z,INTERNAL,,2008-04-09/CCYY-MM-DD
FRDN00CAN,1760543.42,-4080069.4,4560178.6,45.933,-66.660,96.379,SEPT POLARX5,GPS+GLO+GAL,3062293,5.3.2,5,2022-06-30T17:38Z,TPSCR.G3,NONE,383-0933,BPA,000.1000,000.0000,000.0000,2016-08-11T00:00Z,INTERNAL,,2009-11-29
FTNA00WLF,-6178322.4459,-202694.9925,-1566024.4684,-14.308,-178.121,85.262,TRIMBLE ALLOY,GPS+GLO+GAL+BDS+QZSS+SBAS,6023R40130,6.16,0,2023-03-09T13:06Z,TRM59800.00,NONE,5112364069,BPA,0.0000,0.0000,0.0000,2012-05-20T08:00Z,INTERNAL,,2012-05-20/CCYY-MM-DD
FUNC00PRT,5143339.43,-1563412.87,3421191.44,32.648,-16.908,78.917,TRIMBLE ALLOY,GPS+GLO+GAL,5923R40269,6.16,0,2022-11-09T15:37Z,TRM159900.00,NONE,5925338548,BPA,0.0000,0.0000,0.0000,2021-01-23T09:18Z,INTERNAL,,2006-07-21/CCYY-MM-DD
GAMB00PYF,-4147126.8085,-4152222.1446,-2490033.108,-23.130,-134.965,81.068,TRIMBLE NETR9,GPS+GLO+GAL+BDS+SBAS,5025K68523,5.56,0,2023-03-21T17:07Z,TRM59800.00,NONE,5406354932,BPA,0.0000,0.0000,0.0000,2014-10-08T22:10Z,INTERNAL,,2011-08-04/CCYY-MM-DD
GAMG00KOR,-3191598.0,4096876.0,3691823.0,35.590,127.920,898.703,SEPT POLARX5TR,GPS+GLO+GAL+BDS+QZSS+SBAS+IRNSS,3022330,5.5.0,0,2022-11-15T10:04Z,LEIAR25.R4,LEIT,726358,BPA,2.0340,0.0000,0.0000,2016-07-12T00:00Z,INTERNAL,,2016-07-12/CCYY-MM-DD
GANP00SVK,3929181.5,1455236.8,4793653.9,49.035,20.323,746.453,TRIMBLE ALLOY,GPS+GLO+GAL+BDS+QZSS+IRNSS+SBAS,5813R40021,6.16,0,2022-12-13T09:53Z,TRM59800.00,SCIS,5620361622,BPA,0.3830,0.0000,0.0000,2017-02-06T10:40Z,INTERNAL,,2002-09-04/CCYY-MM-DD
GCGO00USA,-2281623.7799,-1453585.627,5756963.7427,64.978,-147.499,319.623,JAVAD TRE_3 DELTA,GPS+GLO+GAL+BDS+QZSS,02216,4.1.01,0,2021-07-27T01:06Z,JAVRINGANT_DM,SCIS,00981,BPA,0.0083,0.000,0.000,2016-08-26T00:00Z,INTERNAL,,2016-08-26/CCYY-MM-DD
GENO00ITA,4507890.272,707618.974,4441603.008,44.419, 8.921,153.878,LEICA GR30,GPS+GLO+GAL+BDS+SBAS,1705430,4.35/7.504,0,2020-04-17T15:45Z,LEIAR20,NONE,19311020,BAM,0.0000,0.0000,0.0000,2018-03-06T15:45Z,INTERNAL,,1998-07-23/CCYY-MM-DD
GLPS00ECU,-33801.259,-6377516.5276,-82154.3037,-0.743,-90.304, 2.188,SEPT POLARX5,GPS+GLO+GAL+BDS,3013574,5.5.0,0,2023-03-02T19:08Z,ASH701945B_M,SCIT,CR519992104,BPA,0.0083,0.0000,0.0000,2012-12-06T21:45Z,INTERNAL,,2003-01-06/CCYY-MM-DD
GLSV00UKR,3512889.29,2068980.654,4888903.261,50.364,30.497,227.227,TRIMBLE NETR9,GPS+GLO+GAL+BDS+QZSS,5821R50277,5.45,0,2020-05-07T17:40Z,TRM115000.00,NONE,1551038935,BAM,0.0000,0.0000,0.0000,2019-06-24T08:05Z,INTERNAL,,2008-11-04/CCYY-MM-DD
GODE00USA,1130773.718,-4831253.581,3994200.422,39.022,-76.827,14.927,SEPT POLARX5TR,GPS+GLO+GAL+BDS,3013928,5.5.0,0,2023-03-02T20:21Z,AOAD/M_T,JPLA,129,BPA,0.0614,0.0000,0.0000,2013-01-30T18:15Z,EXTERNAL H-MASER,10MHz and 1pps,
GODN00USA,1130760.8757,-4831298.688,3994155.1861,39.021,-76.827,18.294,JAVAD TRE_3 DELTA,GPS+GLO+GAL+BDS,02128,4.1.01,0,2021-07-22T17:21Z,TPSCR.G3,SCIS,383-0151,BPA,0.0083,0.0000,0.0000,2012-01-14T00:00Z,EXTERNAL H2 Maser,5,
GODS00USA,1130752.3046,-4831349.1223,3994098.9504,39.021,-76.827,19.523,JAVAD TRE_3 DELTA,GPS+GLO+GAL+BDS,02704,4.1.01,0,2021-07-22T17:39Z,JAVRINGANT_DM,SCIS,02083,BPA,0.0083,0.0000,0.0000,2020-09-03T00:00Z,EXTERNAL H2 Maser,10,
GODZ00USA,1130773.867,-4831253.583,3994200.409,39.022,-76.827,14.947,JPS EGGDT,GPS+GLO,LT2078,2.7.0,0.0,2008-06-27T14:54Z,AOAD/M_T,JPLA,129,BPA,0.0614,0.0000,0.0000,2013-01-30T18:15Z,EXTERNAL H-MASER,5 ,2011-03-02T18:10Z/CCYY-MM-DD
GOL200USA,-2353614.316,-4641385.324,3676976.407,35.425,-116.889,987.061,ASHTECH UZ-12,GPS,UC2200524002,CQ00,4,2006-09-27T00:00Z,AOAD/M_T,NONE,401-B,BPA,0.0254,0.0000,0.0000,2011-09-13,EXTERNAL H-MASER,5 ,
GOLD00USA,-2353614.316,-4641385.3523,3676976.434,35.425,-116.889,987.097,JAVAD TRE_G3TH DELTA,GPS+GLO+GAL+QZSS,01538,4.1.01,0,2021-07-15T18:16Z,AOAD/M_T,NONE,401-B,BPA,0.0254,0.0000,0.0000,2011-09-13,EXTERNAL H-Maser ,5,
GOP600CZE,3979319.62,1050311.94,4857064.38,49.914,14.786,593.033,SEPT POLARX5,GPS+GLO+GAL+BDS+QZSS+IRNSS+SBAS,3023088,5.4.0,0,2021-02-08T13:42Z,SEPCHOKE_B3E6,SPKE,5287,BPA,0.0653,0.0000,0.0000,2019-04-09T07:10Z,EXTERNAL CESIUM,10 ,2021-09-01/CCYY-MM-DD
GOP700CZE,3979319.64,1050311.92,4857064.37,49.914,14.786,593.035,TRIMBLE NETR9,GPS+GLO+GAL+BDS+QZSS,49084,5.37,0,2019-04-23T14:49Z,SEPCHOKE_B3E6,SPKE,5287,BPA,0.0653,0.0000,0.0000,2019-04-09T07:10Z,EXTERNAL CESIUM,10 ,2021-09-01/CCYY-MM-DD
GOPE00CZE,3979316.134,1050312.478,4857067.108,49.914,14.786,593.038,TRIMBLE ALLOY,GPS+GLO+GAL+BDS+IRNSS+SBAS,40016,5.45,0,2020-09-30T16:48Z,TPSCR.G3,TPSH,30161,BPA,0.1114,0.0000,0.0000,2018-07-17T19:08Z,EXTERNAL CESIUM,10 ,2021-09-01/CCYY-MM-DD
GRAC00FRA,4581708.63,556132.23,4389340.93,43.754, 6.921,1320.227,LEICA GR50,GPS+GLO+GAL+BDS+SBAS,1834679,4.51,0,2022-02-11T11:00Z,TRM57971.00,NONE,5000113989,BAM,0.0500,0.0000,0.0000,2015-03-10T13:00Z,INTERNAL,,2000-04-01/CCYY-MM-DD
GRAS00FRA,4581690.811,556114.972,4389360.88,43.755, 6.921,1319.745,TRIMBLE NETR9,GPS+GLO+GAL+BDS+SBAS,5340K46122,5.56,0,2023-03-09T09:55Z,ASH701945E_M,NONE,CR520024222,BPA,0.0350,0.0000,0.0000,2004-10-21T09:00Z,INTERNAL,,2021-10-06/CCYY-MM-DD
GRAZ00AUT,4194424.124,1162702.46,4647245.193,47.067,15.493,538.718,SEPT POLARX5,GPS+GLO+GAL+BDS,4501501,5.5.0,0,2022-09-20T06:19Z,LEIAR25.R4,LEIT,726444,BPA,1.9640,0.0000,0.0000,2017-11-23T09:42Z,INTERNAL,,2005-03-17/CCYY-MM-DD
GUAM00GUM,-5071312.6574,3568363.6347,1488904.402,13.589,144.868,202.317,SEPT POLARX5,GPS+GLO+GAL+BDS+QZSS,3025501,5.5.0,0,2023-03-06T21:26Z,JAVRINGANT_DM,SCIS,00842,BPA,0.6229,0.000,0.000,2019-03-07T00:58Z,INTERNAL,,1995-01-20/CCYY-MM-DD
GUAT00GTM,-56063.582,-6174978.67,1596665.267,14.590,-90.520,1520.277,LEICA GRX1200GGPRO,GPS+GLO,355686,8.20/3.055,0,2014-08-13T22:26Z,LEIAR25.R3,LEIT,10190009,BPA,0.0000,0.0000,0.0000,2012-06-12,INTERNAL,,2000-07-28/CCYY-MM-DD
GUUG00USA,-5070465.249,3576460.234,1472093.785,13.433,144.803,135.139,TRIMBLE ALLOY,GPS+GLO+GAL,6026R40024,NP 6.14 / SP 5.54,0,2022-08-10T00:02Z,LEIAR20,LEIM,20251006,BAM,0.0000,0.0000,0.0000,2021-09-23T00:11Z,INTERNAL,,2003-08-27/CCYY-MM-DD
HAL100USA,-5466017.9454,-2404394.6546,2242210.2481,20.707,-156.256,3073.251,SEPT POLARX5,GPS+GLO+GAL+BDS+QZSS,3025547,5.4.0,0,2021-02-02T23:36Z,JAVRINGANT_DM,SCIS,00982,BPA,0.0083,0,0,2015-02-11T00:00Z,INTERNAL,,2015-02-11/CCYY-MM-DD
HAMD00IRN,3469898.0183,3926741.412,3626961.1469,34.869,48.534,1751.356,TRIMBLE NETR9,GPS+GLO,5044K71333,4.42,10,2011-05-18T00:00Z,TRM57971.00,SCIT,1441036425,BAM,0.000,0.000,0.000,2011-05-18,INTERNAL,,2004-03-17/CCYY-MM-DD
HARB00ZAF,5084657.615,2670325.2503,-2768481.0274,-25.887,27.707,1558.489,SEPT POLARX5TR,GPS+GLO+GAL+BDS+SBAS+IRNSS,3022653,5.5.0,0,2022-12-01T13:06Z,TRM59800.00,NONE,5210354435,BPA,3.0520,0.0000,0.0000,2021-01-22T12:15Z,EXTERNAL CESIUM,10 ,2013-10-28T08:07Z/CCYY-MM-DD
HERS00GBR,4033471.33,23667.86,4924300.35,50.867, 0.336,76.927,SEPT POLARX5TR,GPS+GLO+GAL+BDS+SBAS,3025419,5.4.0,0,2021-02-08T13:45Z,LEIAR25.R3,NONE,10250002,BPA,0.0096,0.0000,0.0000,2010-08-19T12:00Z,EXTERNAL H-MASER,10 ,2022-02-03/CCYY-MM-DD
HERT00GBR,4033461.038,23537.662,4924318.165,50.867, 0.334,83.770,LEICA GRX1200GGPRO,GPS+GLO,355316,7.80/3.055,0,2015-09-18T15:00Z,LEIAT504GG,NONE,200429,BPA,0.0000,0.0000,0.0000,2015-03-03T12:00Z,INTERNAL,,2003-03-12/CCYY-MM-DD
HKSL00HKG,-2393382.414,5393861.187,2412592.401,22.372,113.928,95.712,LEICA GR50,GPS+GLO+GAL+BDS,1870250,4.52/7.711,0,2022-06-27T03:27Z,LEIAR25.R4,LEIT,725194,BPA,000.0083,000.0000,000.0000,2011-09-07T00:00Z,INTERNAL,,2000-10-07/(CCYY-MM-DD)
HKWS00HKG,-2430579.004,5374285.676,2418956.331,22.434,114.335,64.197,LEICA GR50,GPS+GLO+GAL+BDS,1870257,4.52/7.711,0,2022-06-27T03:17Z,LEIAR25.R4,LEIT,725198,BPA,000.0083,000.0000,000.0000,2011-09-07T00:00Z,INTERNAL,,2004-07-01/(CCYY-MM-DD)
HLFX00CAN,2018905.8,-4069070.52,4462415.41,44.684,-63.611, 3.546,SEPT POLARX5,GPS+GLO+GAL,3046549,5.3.2,5,2022-07-15T14:33Z,TPSCR.G3,NONE,383-0474,BPA,000.1000,000.0000,000.0000,2015-07-23T19:00Z,EXTERNAL RUBIDIUM,10 ,2015-03-02
HNLC00USA,-5506799.0,-2240050.0,2302720.0,21.303,-157.865,22.610,TRIMBLE NETR9,GPS,5114K74682,5.37,,2020-12-11T00:00Z,ASH700936D_M,SNOW,CR14263,BPA,0.0000,,,1997-06-19T02:23Z,INTERNAL,,1997-06-19/CCYY-MM-DD
HNPT00USA,1196626.343,-4846358.5,3956723.115,38.589,-76.130,-27.545,LEICA GR50,GPS+GLO+GAL,1870596,4.30/7.402,0,2021-03-22T16:43Z,LEIAX1202GG,NONE,06300058,BAM,0.0000,0.0000,0.0000,2007-06-14,INTERNAL,,1995-12-13/CCYY-MM-DD
HNUS00ZAF,4973168.8045,1734085.3905,-3585434.1455,-34.425,19.223,63.459,TRIMBLE ALLOY,GPS+GLO,5947R40066,Nav 5.43 / Boot 5.43,5,2020-10-13T09:40Z,ASH701941.B,SCIS,CRL1999100126,BPA,0.0,0.0,0.0,1999-07-08T00:00Z,INTERNAL,,
HOB200AUS,-3950072.2497,2522415.3618,-4311637.4022,-42.805,147.439,41.459,SEPT POLARX5,GPS+GLO+GAL+BDS+IRNSS+QZSS,3012296,5.5.0,0,2022-11-01T02:43Z,LEIAR25.R4,NONE,726829,BPA,000.0250,000.0000,000.0000,2021-12-17T00:00Z,EXTERNAL H-MASER,10 ,2023-03-27/(CCYY-MM-DD)
HOFN00ISL,2679689.848,-727951.343,5722788.898,64.267,-15.198,82.741,LEICA GR50,GPS+GLO+GAL+BDS+IRNSS+SBAS,1870639,4.50/7.710,0,2021-05-19T10:30Z,LEIAR25.R4,LEIT,725283,BPA,0.0319,0.0000,0.0000,2013-05-05T12:00Z,INTERNAL,,1997-05-27/CCYY-MM-DD
HOLB00CAN,-2503040.424,-3188233.325,4908701.543,50.640,-128.135,560.021,SEPT POLARX5,GPS+GLO+GAL+BDS,3016155,5.3.2,0,2021-03-29T00:00Z,SEPCHOKE_B3E6,SPKE,5130,BPA,0.0821,0.0,0.0,2017-10-26T20:10Z,INTERNAL RECEIVER CLOCK,n/a ,2001-03-21/CCYY-MM-DD
HOLM00CAN,-983063.87,-1867634.52,5998678.91,70.736,-117.761,39.951,ASHTECH UZ-12,GPS,ZR520020405,CK00,0,2010-12-07T23:40Z,ASH701945D_M,NONE,CR520020905,BPA,0.1000,0.0000,0.0000,2002-08-09,INTERNAL,,2001-08-28/CCYY-MM-DD
HOLP00USA,-2500946.0962,-4670472.9515,3539500.5469,33.925,-118.168,-6.290,SEPT POLARX5,GPS+GLO+GAL+SBAS,3052431,5.3.2,0,2021-06-23T17:16Z,TWIVC6150,SCIS,VC6150L1907310006,BPA,0.1310,0.0000,0.0000,2021-06-23T17:16Z,INTERNAL,,1995-04-05/(CCYY-MM-DD)
HRAG00ZAF,5085418.18,2668226.51,-2768758.21,-25.890,27.685,1407.788,JAVAD TRE_G3TH DELTA,GPS+GLO+GAL+IRNSS+SBAS,00394,3.7.10,0,2020-12-11T13:25Z,LEIAR25.R3,LEIT,09310005,BPA,000.1280,000.0000,000.0000,2018-09-13T13:30Z,EXTERNAL H-MASER,10 ,2018-08-01/CCYY-MM-DD
HRAO00ZAF,5085352.597,2668395.992,-2768731.551,-25.890,27.687,1414.744,SEPT POLARX5TR,GPS+GLO+GAL+BDS+SBAS+IRNSS,3222770,5.5.0,0,2023-03-06T21:42Z,ASH701945E_M,NONE,CR6200610005,BPA,0.0814,0.0000,0.0000,2021-07-27T00:00Z,EXTERNAL H-MASER,10 ,2021-07-03/CCYY-MM-DD
HUEG00DEU,4251963.3,567043.8,4704708.7,47.834, 7.596,278.745,JAVAD TRE_3L DELTA,GPS+GLO+GAL+BDS+SBAS,04322,4.1.06-221128,0,2023-02-08T09:41Z,LEIAR25.R4,LEIT,726365,BPA,0.0000,0.0000,0.0000,2019-11-14T13:30Z,INTERNAL,,2002-02-18/CCYY-MM-DD
HYDE00IND,1208444.8595,5966806.0568,1897076.6227,17.417,78.551,442.110,LEICA GRX1200GGPRO,GPS+GLO,355192,8.51/3.055,5,2014-09-27T09:27Z,LEIAT504GG,NONE,200348,BPA,0.000,0.000,0.000,2007-11-26T00:00Z,INTERNAL,,1995-08-20
IENG00ITA,4476537.4,600431.46,4488761.34,45.015, 7.639,317.049,SEPT POLARX4TR,GPS+GLO+GAL+BDS+SBAS,3102220,2.9.6-patch2,0,2019-07-19T11:30Z,SEPCHOKE_MC,NONE,5261,BAM,0.0000,0.0000,0.0000,2019-04-11T07:05Z,EXTERNAL H-MASER,10 ,2018-04-10/CCYY-MM-DD
IISC00IND,1337936.455,6070317.1261,1427876.7852,13.021,77.570,844.117,SEPT POLARX5,GPS+GLO+GAL+BDS+QZSS+IRNSS,3013572,5.5.0,0,2023-03-06T22:01Z,ASH701945E_M,NONE,CR6200548032,BPA,0.078,0.000,0.000,2008-07-10T00:00Z,INTERNAL,,1995-10-01/CCYY-MM-DD
IITK00IND,968880.6487,5628037.6499,2830900.7294,26.521,80.232,72.106,TRIMBLE ALLOY,GPS+GLO+GAL+BDS+QZSS+IRNSS,6006R44002,6.16,0,2023-01-10T05:51Z,TRM159900.00,SCIS,5842338432,BPA,000.3080,000.0000,000.0000,2021-03-31T23:56Z,N/A,N/A,N/A
INEG00MEX,-1260435.67,-5788547.37,2360340.12,21.856,-102.284,1888.498,TRIMBLE ALLOY,GPS+GLO+GAL+BDS,6042R40097,5.44,10,2021-05-17T16:00Z,TRM115000.00,NONE,60413G0087,BAM,0.0670,0.0000,0.0000,2021-05-17T16:00Z,INTERNAL,,1993-02-19/CCYY-MM-DD
INVK00CAN,-1628432.02,-1714393.06,5903844.73,68.306,-133.527,46.813,TRIMBLE NETR9,GPS,5238K52603,5.22,0,2017-11-17T20:27Z,ASH701945C_M,SCIS,CR620010805,BPA,0.1000,0.0000,0.0000,2003-08-21T15:30Z,INTERNAL,,2001-07-22/CCYY-MM-DD
IQAL00CAN,1036001.02,-2631455.56,5697819.69,63.756,-68.510,92.142,TPS NET-G3A,GPS+GLO,618-00821,4.7 Nov 23 2017 p6,5,2019-03-22T14:29Z,TPSCR.G3,NONE,383-0408,BPA,000.0500,000.0000,000.0000,2009-09-26T00:00Z,INTERNAL,10,2013-08-19
IQQE00CHL,2034208.0,-5629172.0,-2196142.0,-20.274,-70.132,39.003,TRIMBLE NETR9,GPS,5302K56728,5.03,3,2021-08-08T00:00Z,ASH700936D_M,SNOW,12470,BPA,0.0000,0.0000,0.0000,2002-01-01T00:01Z,INTERNAL ,,
IRKJ00RUS,-968328.35,3794426.541,5018167.196,52.219,104.316,502.409,JPS LEGACY,GPS+GLO,00517,2.6.0 OCT 24 2007,0,2007-10-31,JPSREGANT_SD_E1,NONE,RA0225,BPA,0.1280,0.0000,0.0000,2001-07-24T00:00Z,EXTERNAL H-MASER,5,2019-01-27/CCYY-MM-DD
IRKM00RUS,-968332.3889,3794425.4087,5018167.7058,52.219,104.316,502.752,JAVAD TRE_G3TH DELTA,GPS+GLO,01337,3.6.16 Jan 21 2020,0,2020-07-13T09:00Z,AOAD/M_T,NONE,178,BPA,0.128,0.0000,0.0000,1995-09-16T00:00Z,EXTERNAL H-MASER,5 ,2013-03-01/CCYY-MM-DD
ISBA00IRQ,3808364.974,3734430.116,3485693.39,33.341,44.438,72.791,TRIMBLE NETR5,GPS+GLO,4808K53532,4.41,0,2020-05-20,TRM57971.00,NONE,30763366,BAM,0.0000,0.0000,0.0000,2011-10-05,INTERNAL,,2008-03-01/CCYY-MM-DD
ISHI00JPN,-3959648.7541,3296836.3371,3747005.5756,36.209,140.219,156.249,TRIMBLE ALLOY,GPS+GLO+GAL+QZSS,6041R40038,6.15,5,2022-09-14T10:00Z,TRM59800.00,SCIS,5204354380,BPA,0.0,0.0,0.0,2016-04-25,EXTERNAL H-MASER,10 ,2017-06-05
ISPA00CHL,-1881703.507,-5359979.772,-2890599.259,-27.125,-109.344,112.906,ASHTECH UZ-12,GPS,UC2200524015,CQ00,0,2007-06-03T06:00Z,ASH701945E_M,SCIT,CR620024321,BPA,0.0083,0.0000,0.0000,2012-10-05T00:00Z,INTERNAL,,2004-02-13/(CCYY-MM-DD)
ISTA00TUR,4208830.46,2334850.14,4171267.18,41.104,29.019,147.665,LEICA GR25,GPS+GLO+GAL+BDS+SBAS,1831540,4.50/6.713,0,2021-05-26T08:05Z,LEIAR25.R4,LEIT,726339,BPA,0.0610,0.0000,0.0000,2016-05-09T07:00Z,INTERNAL,,1999-12-11/CCYY-MM-DD
IZMI00TUR,4456584.236,2278765.506,3939930.889,38.395,27.082,75.322,TRIMBLE ALLOY,GPS+GLO+GAL+BDS+QZSS+SBAS,6113R40012,Nav 6.14 / Boot 5.54,0,2022-10-19T16:02Z,TRM115000.00,NONE,61083G0056,BAM,0.0870,0.0000,0.0000,2022-10-19T16:00Z,INTERNAL,,2008-08-10/CCYY-MM-DD
JCTW00ZAF,5023564.462,1677795.751,-3542025.865,-33.951,18.469,84.013,TRIMBLE NETR9,GPS+GLO+GAL+BDS,5427R49022,5.01,0,2015-08-28T00:00Z,TRM59800.00,SCIS,31053932,BPA,0.0000,0.0000,0.0000,2014-02-18T00:00Z,INTERNAL,,2014-02-18/CCYY-MM-DD
JDPR00IND,1671950.8578,5476891.3303,2799675.5722,26.206,73.024,167.703,TRIMBLE ALLOY,GPS+GLO+GAL+QZSS+IRNSS+BDS+SBAS,5944R40006,6.10,5,2022-12-06T07:00Z,TWIVC6050,SCIT,710152,BPA,000.1400,000.0000,000.0000,2022-12-06T13:00Z,N/A,N/A,N/A
JFNG00CHN,-2279828.8292,5004706.5483,3219777.4684,30.516,114.491,71.739,TRIMBLE ALLOY,GPS+GLO+GAL+BDS+QZSS+SBAS+IRNSS,5945R40123,6.16,0,2023-03-09T14:27Z,TRM59800.00,NONE,5116354160,BPA,0.0000,0.0000,0.0000,2012-10-10T00:00Z,INTERNAL,,2012-10-10/CCYY-MM-DD
JNAV00VNM,-1626346.47,5730605.79,2271881.48,21.005,105.844,35.275,TRIMBLE NETR9,GPS+GLO+GAL+BDS+QZSS,5426R48968,5.01,0,2015-10-29T00:00Z,JAVRINGANT_DM,SCIS,00489,BPA,0.0000,0.0000,0.0000,2014-05-13T00:00Z,INTERNAL,,2014-05-13T00:00Z/CCYY-MM-DD
JOG200IDN,-2200208.0871,5924895.6273,-855929.2334,-7.764,110.372,174.776,JAVAD TRE_G3TH DELTA,GPS+GLO+GAL+QZSS,212,4.2.01-220630,0,2023-01-13T13:28Z,JAV_RINGANT_G3T,NONE,323,BAM,0.1206,0.0000,0.0000,2013-02-06T00:00Z,INTERNAL,,2004-12-08/CCYY-MM-DD
JOZ200POL,3664881.0,1409190.0,5009618.0,52.098,21.032,152.696,TRIMBLE NETR9,GPS+GLO+GAL+BDS+QZSS,5541R50016,5.50,0,2021-07-30T12:00Z,TRM59800.00,NONE,5516356133,BPA,0.0000,0.0000,0.0000,2019-03-22T15:30Z,INTERNAL,,2008-03-14/CCYY-MM-DD
JOZE00POL,3664940.5,1409153.59,5009571.17,52.097,21.032,141.834,SEPT POLARX5,GPS+GLO+GAL+BDS+QZSS+IRNSS+SBAS,3234281,5.4.0,0,2021-07-30T13:02Z,SEPCHOKE_B3E6,NONE,5081,BPA,0.1980,0.0000,0.0000,2018-10-25T16:49Z,INTERNAL,,2005-07-01/CCYY-MM-DD
JPLM00USA,-2493304.6796,-4655215.1032,3565497.5918,34.205,-118.173,424.456,SEPT POLARX5,GPS+GLO+GAL+BDS,3025665,5.5.0,0,2023-03-06T22:20Z,AOAD/M_T,NONE,422,BPA,0.061,0.0000,0.0000,1994-06-14T00:00Z,EXTERNAL RUBIDIUM,10,2018-11-30/CCYY-MM-DD
JPRE00ZAF,5064032.232,2724721.054,-2752950.721,-25.732,28.283,1387.738,TRIMBLE NETR9,GPS+GLO+GAL+BDS,5426R48954,5.01,0,2015-12-04T00:00Z,TRM59800.00,SCIS,5037353945,BPA,0.0000,0.0000,0.0000,2015-12-04T00:00Z,INTERNAL,,2015-12-04/CCYY-MM-DD
KARR00AUS,-2713833.2625,5303935.1096,-2269513.7461,-20.981,117.097,109.541,SEPT POLARX5,GPS+GLO+GAL+BDS+QZSS+IRNSS,3070945,5.5.0,0,2022-10-31T23:27Z,TRM59800.00,NONE,5038353985,BPA,000.0005,000.0000,000.0000,2013-09-11T00:00Z,INTERNAL,,1994-07-14/(CCYY-MM-DD)
KAT100AUS,-4147413.8169,4581462.5899,-1573359.0814,-14.376,132.153,184.694,SEPT POLARX5,GPS+GLO+GAL+BDS+IRNSS,3012263,5.5.0,0,2022-11-01T02:33Z,LEIAR25.R3,LEIT,09310015,BPA,000.0000,000.0000,000.0000,2010-03-13T00:00Z,INTERNAL,,2019-01-11/(CCYY-MM-DD)
KERG00ATF,1406337.0,3918161.0,-4816167.0,-49.351,70.256,73.049,TRIMBLE ALLOY,GPS+GLO+GAL+BDS+QZSS+SBAS,6139R40155,6.16,0,2023-03-15T05:00Z,ASH701945E_M,SNOW,CR6200539022,BPA,0.4200,0.0000,0.0000,2008-09-05T11:40Z,INTERNAL,,2011-01-24/CCYY-MM-DD
KHAR00UKR,3312984.369,2428203.401,4863307.795,50.005,36.239,201.447,NOV OEMV3,GPS+GLO,00009,3.906,0,2015-07-20T09:50Z,NOV702GG,NONE,70119,BAM,0.0000,0.0000,0.0000,2015-03-23T12:30Z,INTERNAL,,2008-11-12/CCYY-MM-DD
KIR000SWE,2248123.504,865686.533,5886425.594,67.878,21.060,498.413,SEPT POLARX5,GPS+GLO+GAL+BDS+QZSS+SBAS,3025768,5.5.0,0,2022-12-08T10:00Z,JNSCR_C146-22-1,OSOD,00368,BPA,0.0710,0.0000,0.0000,2016-08-23T08:00Z,INTERNAL,,2003-08-19/CCYY-MM-DD
KIR800SWE,2248127.371,865685.468,5886424.301,67.878,21.060,498.430,TRIMBLE ALLOY,GPS+GLO+GAL+BDS+QZSS+SBAS,5818R40021,6.15,0,2022-12-07T15:00Z,LEIAR25.R3,LEIT,09030016,BPA,0.0030,0.0000,0.0000,2011-08-12,INTERNAL,,2018-08-02/CCYY-MM-DD
KIRI00KIR,-6327822.4922,785604.1018,149769.0463, 1.355,172.923,36.590,SEPT POLARX5,GPS+GLO+GAL+BDS+QZSS+IRNSS,3022354,5.5.0,0,2022-11-01T02:12Z,TRM59800.00,NONE,5421355010,BPA,000.0038,000.0000,000.0000,2015-04-28T00:00Z,INTERNAL,,2002-08-03/(CCYY-MM-DD)
KIRU00SWE,2251420.999,862817.095,5885476.564,67.857,20.968,391.348,SEPT POLARX5,GPS+GLO+GAL+BDS+QZSS+SBAS,4503030,5.4.0,0,2021-01-19T13:00Z,SEPCHOKE_B3E6,SPKE,5651,BPA,0.0620,0.0000,0.0000,2019-11-12T11:30Z,EXTERNAL CESIUM,10 ,2013-02-19/CCYY-MM-DD
KIT300UZB,1944944.8306,4556652.418,4004326.1235,39.135,66.885,623.025,SEPT ASTERX4,GPS+GLO+GAL+BDS+QZSS+IRNSS+SBAS,3047011,4.8.2,0,2021-01-20T11:24Z,SEPCHOKE_B3E6,NONE,5478,BPA,0.1206,0.0000,0.0000,2020-08-28T06:00Z,INTERNAL,,1994-10-14/CCYY-MM-DD
KITG00UZB,1944879.726,4556783.77,4004205.937,39.133,66.887,621.054,SEPT POLARX5,GPS+GLO+GAL+BDS+QZSS+SBAS+IRNSS,3022483,5.5.0,0,2022-12-12T14:44Z,TRM59800.00,SCIS,5225354540,BPA,2.0374,0.0003,0.0000,2016-06-18T00:00Z,INTERNAL,,2016-06-18/CCYY-MM-DD
KMNM00TWN,-2761837.8555,5110347.1476,2625150.8677,24.464,118.389,49.493,TRIMBLE ALLOY,GPS+GLO+GAL+BDS+QZSS+SBAS,5922R40059,6.12,0,2021-09-16T00:00Z,TPSCR3_GGD,CONE,217-03333,BPA,0.0000,0.0000,0.0000,2009-01-01T00:00Z,INTERNAL,,1996-01-01/CCYY-MM-DD
KOKB00USA,-5543838.3609,-2054586.6103,2387810.1225,22.126,-159.665,1167.930,SEPT POLARX5TR,GPS+GLO+GAL+BDS+QZSS,3013927,5.5.0,0,2023-03-06T22:44Z,ASH701945G_M,NONE,CR6200342010,BPA,0.0614,0.000,0.000,2021-03-25T00:00Z,EXTERNAL H-MASER,10 ,2019-03-29/CCYY-MM-DD
KOKV00USA,-5543838.3609,-2054586.6103,2387810.1225,22.126,-159.665,1167.930,JAVAD TRE_G3TH DELTA,GPS+GLO+BDS+QZSS,01517,4.1.01,0,2021-07-29T22:31Z,ASH701945G_M,NONE,CR6200342010,BPA,0.0614,0.000,0.000,2021-03-25T00:00Z,EXTERNAL H-MASER,5 ,2007-07-18/CCYY-MM-DD
KOS100NLD,3899613.948,397361.592,5014738.666,52.173, 5.818,105.235,SEPT POLARX5E,GPS+GLO+GAL+BDS+QZSS+IRNSS+SBAS,3048419,5.5.0,0,2022-12-06T14:17Z,LEIAR25.R3,LEIT,10050009,BPA,0.1300,0.0000,0.0000,2013-05-23T00:00Z,INTERNAL,,2013-06-27/CCYY-MM-DD
KOUC00NCL,-5751222.662,1617967.645,-2225744.218,-20.559,164.287,84.580,TRIMBLE NETR9,GPS+GLO+QZSS+GAL+BDS,5341K46249,Nav  5.50,0,2022-01-24T02:38Z,TRM57971.00,TZGD,1440921127,BAM,0.0000,0.0000,0.0000,2009-11-17T00:00Z,INTERNAL,,1996-04-22/CCYY-MM-DD
KOUG00GUF,3855263.0,-5049731.0,563040.0, 5.098,-52.640,106.614,SEPT POLARX5TR,GPS+GLO+GAL+BDS+SBAS,3022503,5.5.0,0,2022-11-30T14:30Z,LEIAR25.R3,LEIT,10180007,BPA,0.0000,0.0000,0.0000,2013-03-25T14:37Z,EXTERNAL CESIUM,10 ,
KOUR00GUF,3839591.447,-5059567.538,579956.867, 5.252,-52.806,-25.362,SEPT POLARX5TR,GPS+GLO+GAL+BDS+QZSS,4701571,5.5.0,0,2023-03-30T18:04Z,SEPCHOKE_B3E6,NONE,5653,BPA,0.0950,0.0000,0.0000,2019-10-09T20:00Z,EXTERNAL H-MASER,10 ,2012-11-20/CCYY-MM-DD
KRGG00ATF,1406336.2099,3918154.6213,-4816172.8453,-49.352,70.256,73.400,TRIMBLE ALLOY,GPS+GLO+GAL+BDS+QZSS+SBAS+IRNSS,5829R40084,6.16,0,2023-03-15T05:18Z,LEIAR25.R4,LEIT,10301029,BPA,  1.0332,  0.0004,  0.0034,2017-02-02T10:58Z,INTERNAL,,2012-03-27/CCYY-MM-DD
KRS100TUR,3542999.668,3314720.171,4129002.589,40.588,43.093,1812.124,TRIMBLE NETR5,GPS+GLO+SBAS,4737K07082,Nav 4.48 / Boot 4.18,0,2018-10-17T11:00Z,TRM55971.00,TZGD,30569131,BAM,0.0870,0.0000,0.0000,2008-09-27T00:00Z,INTERNAL,,2008-09-27/CCYY-MM-DD
KSU100USA,-570504.689,-4923591.018,4001208.4839,39.101,-96.609,326.013,SEPT POLARX5,GPS+GLO+GAL+BDS,3069557,5.5.0,0,2022-12-01T15:43Z,TRM59800.99,SCIT,4622A15590,BPA,0.0083,0,0,2021-03-18T18:03Z,INTERNAL,,2006-06-28/CCYY-MM-DD
KUJ200CAN,773263.38,-3557025.2,5219841.77,55.290,-77.735, 9.074,SEPT POLARX5,GPS+GLO+GAL,3046412,5.2.0,5,2019-06-14T00:00Z,AOAD/M_T_RFI_T,NONE,285,BPA,000.0500,000.0000,000.0000,2019-06-14T00:00Z,INTERNAL,10 ,2019-06-14
KZN200RUS,2352345.7,2717466.1,5251458.5,55.791,49.119,94.113,TRIMBLE ALLOY,GPS+GLO+GAL+BDS+QZSS+SBAS+IRNSS,5923R40152,6.10,0,2021-06-08T06:43Z,TRM59800.00,SCIS,5106354023,BPA,0.0750,,,2012-02-24T00:00Z,INTERNAL ,,
LAE100PNG,-5312857.053,3451108.016,-736322.743,-6.674,146.993,140.728,ASHTECH UZ-12,GPS,ZR520021114,ZC000A16,5,2013-09-01T00:00Z,ASH700936A_M,NONE,12486,BPA,0.011,0.000,0.000,1997-07-28T00:00Z,INTERNAL ,,
LAMA00POL,3524523.0,1329693.0,5129846.0,53.892,20.670,187.090,LEICA GR50,GPS+GLO+GAL+BDS+QZSS+SBAS,1870222,4.50/7.710,0,2022-02-17T13:00Z,LEIAR20,LEIM,794207,BAM,0.0600,0.0000,0.0000,2022-02-17T13:00Z,INTERNAL,,2001-07-24/CCYY-MM-DD
LAUT00FJI,-6075194.5,270924.0,-1917189.6,-17.609,177.447,90.074,SEPT POLARX5,GPS+BDS+GLO+QZSS+GAL+IRNSS,3025125,5.5.0,0,2022-11-01T03:25Z,JAVRINGANT_DM,NONE,00682,BPA,000.0015,000.0000,000.0000,2017-03-17T00:00Z,INTERNAL,,2001-11-23/(CCYY-MM-DD)
LBCH00USA,-2507798.7984,-4676369.6918,3526890.8008,33.788,-118.203,-27.167,SEPT POLARX5,GPS+GLO+GAL+SBAS,3052346,5.3.2,0,2020-07-25T00:46Z,TWIVC6150,SCIS,VC6150L1909270024,BPA,0.0000,0.0000,0.0000,2019-11-07T23:00Z,INTERNAL,,1994-07-25/(CCYY-MM-DD)
LCK300IND,894676.3053,5620593.4735,2869571.0496,26.912,80.956,64.576,TRIMBLE ALLOY,GPS+GLO+GAL+BDS+QZSS+SBAS+IRNSS,5945R40016,5.43,5,2020-08-24T17:30Z,LEIAR25.R3,LEIT,09380001,BPA,0.1000,0.0000,0.0000,2014-08-20T11:24Z,EXTERNAL PASSIVE HYDROGEN MASER,10 ,2018-06-28/CCYY-MM-DD
LCK400IND,894678.4718,5620595.0084,2869567.4303,26.912,80.956,64.594,TRIMBLE ALLOY,GPS+GLO+GAL+BDS+QZSS+SBAS+IRNSS,5944R40019,5.43,5,2020-08-24T16:40Z,LEIAR25.R3,LEIT,09440006,BPA,0.1000,0.0000,0.0000,2014-08-20T11:23Z,EXTERNAL Passive Hydrogen Maser,10,
LEIJ00DEU,3898736.2,855345.5,4958372.6,51.354,12.374,178.861,JAVAD TRE_3 DELTA,GPS+GLO+GAL+BDS+SBAS,02882,4.1.06-221128,0,2023-02-08T09:03Z,LEIAR25.R4,LEIT,10211018,BPA,0.0450,0.0000,0.0000,2019-08-12T07:50Z,INTERNAL,,1997-03-21/CCYY-MM-DD
LHAZ00CHN,-106943.5,5549296.14,3139212.6,29.657,91.104,3646.671,LEICA GR25,GPS+GLO+GAL+BDS+SBAS,1831026,4.50/6.713,0,2021-05-21T11:15Z,LEIAR25.R4,LEIT,08430006,BPA,000.1330,000.0000,000.0000,2016-03-16T12:00Z,INTERNAL,,1999-09-22/CCYY-MM-DD
LICC00GBR,3978703.569,-12141.038,4968417.218,51.500,-0.175,89.084,CHC P5E,GPS+GLO+GAL+BDS+SBAS,1052947,1.2.5RUS,0,2020-01-08,CHCC220GR2,CHCD,2004010012,BPA,0.1050,0.0000,0.0000,2019-09-10,INTERNAL,,2020-01-08/CCYY-MM-DD
LLAG00ESP,5384906.53,-1576770.73,3023828.01,28.482,-16.321,623.236,SEPT POLARX5S,GPS+GLO+GAL+BDS+IRNSS+SBAS,3055138,5.5.0,0,2022-09-19T15:10Z,TRM57971.00,NONE,31050629,BAM,000.0000,000.0000,000.0000,2010-05-27T07:30Z,INTERNAL,,2010-05-27/CCYY-MM-DD
LMMF00MTQ,2993387.952,-5399363.731,1596748.042,14.595,-60.996,-26.566,TRIMBLE ALLOY,GPS+GLO+GAL+BDS+SBAS,5813R40029,5.45,0,2020-09-30T15:30Z,TRM57971.00,NONE,5311118262,BAM,0.00,0.00,0.00,2013-06-24T13:00Z,INTERNAL,,2008-07-11/CCYY-MM-DD
LPAL00ESP,5326648.0,-1719828.0,3052056.0,28.764,-17.894,2207.444,LEICA GR50,GPS+GLO+GAL+BDS,1871515,4.61/7.811,0,2022-11-23T12:00Z,LEIAR20,LEIM,24238037,BAM,0.0771,0.0000,0.0000,2022-04-05T12:01Z,INTERNAL,,2001-05-17/CCYY-MM-DD
LPGS00ARG,2780102.9896,-4437418.9149,-3629404.5253,-34.907,-57.932,30.286,JAVAD TRE_3,GPS+GLO+GAL+BDS,02074,4.2.01-220630,0,2023-01-17T14:11Z,JAV_RINGANT_G3T,NONE,349,BAM,0.0690,0.0000,0.0000,2021-05-12T15:45Z,INTERNAL,,2012-03-15/CCYY-MM-DD
LROC00FRA,4424632.8,-94175.5,4577543.9,46.159,-1.219,58.323,LEICA GR25,GPS+GLO+GAL+SBAS,1831181,4.31.101,0,2019-04-17T09:37Z,ASH701945B_M,NONE,CR620013801,BPA,0.0000,0.0000,0.0000,2001-11-23T00:00Z,INTERNAL,,2001-11-23/CCYY-MM-DD
M0SE00ITA,4642432.5,1028629.4,4236854.2,41.893,12.493,120.979,LEICA GR25,GPS+GLO+GAL+BDS+SBAS,1830126,4.20/6.712,0,2020-03-23T16:00Z,LEIAR25.R4,LEIT,725219,BPA,0.0000,0.0000,0.0000,2012-04-13,EXTERNAL RUBIDIUM,10 ,2012-04-13/CCYY-MM-DD
MAC100AUS,-3464038.4875,1334172.7432,-5169224.4229,-54.500,158.936,-6.259,SEPT POLARX5,GPS+GLO+GAL+BDS+QZSS+IRNSS,3012260,5.5.0,0,2022-11-01T02:27Z,JAVRINGANT_DM,SCIS,01514,BPA,000.0530,000.0000,000.0000,2016-11-29T04:00Z,INTERNAL,,1995-06-27/(CCYY-MM-DD)
MAD200ESP,4849202.3989,-360328.9943,4114913.1884,40.429,-4.250,829.885,ASHTECH Z-XII3T,GPS,RT920041504,1L01-1D04,4,2004-11-29T22:50Z,AOAD/M_T,NONE,451-U,BPA,0.0254,0.0000,0.0000,2003-11-11T13:30Z,EXTERNAL H-MASER,5 ,
MADR00ESP,4849202.394,-360328.9929,4114913.1862,40.429,-4.250,829.879,JAVAD TRE_G3TH DELTA,GPS+GLO+GAL,01326,4.1.01,0,2021-09-28T00:00Z,AOAD/M_T,NONE,451-U,BPA,0.0254,0.0000,0.0000,2003-11-11T13:30Z,EXTERNAL H-MASER,5 ,2014-01-29/CCYY-MM-DD
MAG000RUS,-2825810.152,1581233.0113,5477005.6213,59.576,150.770,362.368,ASHTECH Z-XII3,GPS,LP020002502,NAV CD00  CH 1D02,,2011-07-06T00:00Z,ASH700936D_M,JPLA,13078,BPA,0.0800,,,1997-11-12,INTERNAL,,1997-11-12/CCYY-MM-DD
MAJU00MHL,-6257572.5057,950332.3662,785215.1556, 7.119,171.365,34.252,SEPT POLARX4TR,GPS+GLO+GAL+BDS+QZSS,3007661,2.9.6,0,2017-04-27T00:00Z,JAVRINGANT_DM,NONE,01513,BPA,000.0016,000.0000,000.0000,2015-06-10T00:00Z,INTERNAL,,2007-05-22/(CCYY-MM-DD)
MAL200KEN,4865385.694,4110717.189,-331137.637,-2.996,40.194,-20.507,SEPT POLARX5,GPS+GLO+GAL+BDS+SBAS,4502482,5.4.0,0,2021-01-19T12:00Z,LEIAR25.R4,NONE,725234,BPA,0.000,0.000,0.000,2013-04-04T12:00Z,INTERNAL ,,
MANA00NIC,407981.838,-6222925.713,1333528.967,12.149,-86.249,71.444,TRIMBLE NETR9,GPS,5115K74966,5.22,0,2019-04-05T21:00Z,TRM59800.99,NONE,0220191257,BPA,0.0000,0.0000,0.0000,2020-02-04T18:15Z,INTERNAL,,2000-05-13/CCYY-MM-DD
MAR600SWE,2998189.713,931451.589,5533398.473,60.595,17.259,75.818,SEPT POLARX5,GPS+GLO+GAL+BDS+IRNSS+SBAS,3025729,5.5.0,0,2022-12-08T10:00Z,JAVRINGANT_DM,OSOD,A0090304,BPA,0.0710,0.0000,0.0000,2022-09-02T07:30Z,INTERNAL,,2018-02-09/CCYY-MM-DD
MAR700SWE,2998198.758,931449.71,5533392.638,60.595,17.258,74.701,TRIMBLE ALLOY,GPS+GLO+GAL+BDS+SBAS,5813R40025,6.15,0,2022-12-07T15:00Z,LEIAR25.R3,LEIT,09040009,BPA,0.0030,0.0000,0.0000,2011-04-27,INTERNAL,,2018-02-09/CCYY-MM-DD
MARS00FRA,4630532.8,433946.1,4350142.6,43.279, 5.354,62.162,LEICA GR50,GPS+GLO+GAL+BDS+SBAS,1834684,4.51,0,2022-02-11T11:00Z,TRM57971.00,NONE,5311118232,BAM,0.0700,0.0000,0.0000,2012-09-26T13:00Z,INTERNAL,,1998-07-16/CCYY-MM-DD
MAS100ESP,5439192.263,-1522055.61,2953454.72,27.764,-15.633,197.570,SEPT POLARX5,GPS+GLO+GAL+BDS+SBAS,4503021,5.4.0,0,2021-01-19T12:00Z,LEIAR25.R4,NONE,725055,BPA,0.0330,0.0000,0.0000,2012-06-18T14:20Z,EXTERNAL CESIUM,10 ,2012-09-27/CCYY-MM-DD
MAT100ITA,4641951.507,1393053.602,4133280.821,40.649,16.705,534.947,LEICA GR30,GPS+GLO+GAL+BDS+SBAS,1705344,4.20/7.300,0,2018-07-25T08:15Z,LEIAR20,NONE,19203021,BAM,0.0000,0.0000,0.0000,2017-07-05T14:15Z,INTERNAL,,2013-12-03/CCYY-MM-DD
MATE00ITA,4641949.709,1393045.298,4133287.333,40.649,16.704,536.072,LEICA GR30,GPS+GLO+GAL+BDS+SBAS,1705404,4.35/7.504,0,2020-04-17T13:15Z,LEIAR20,NONE,19203002,BAM,0.1010,0.0000,0.0000,2017-07-04T09:30Z,EXTERNAL H_MASER,10 ,2013-12-20/CCYY-MM-DD
MATG00ITA,4641953.035,1393063.547,4133279.589,40.649,16.705,537.424,LEICA GR10,GPS+GLO+GAL+BDS+SBAS,1704171,4.31/6.713,0,2020-03-26T09:45Z,LEIAR25,NONE,9300006,BPA,0.0000,0.0000,0.0000,2012-01-30T14:00Z,INTERNAL,,2012-01-30/CCYY-MM-DD
MAUI00USA,-5466069.0,-2404328.0,2242127.0,20.707,-156.257,3062.426,TRIMBLE NETRS,GPS,4427235654,1.3-2,,2015-02-27T22:05Z,ASH700936D_M,SNOW,12610,BPA,0.0000,,,1999-01-01T00:00Z,INTERNAL,,1999-01-01/CCYY-MM-DD
MAW100ATA,1111287.138,2168911.297,-5874493.644,-67.605,62.871,59.633,SEPT POLARX5,GPS+GLO+GAL+BDS+QZSS+IRNSS,3015977,5.5.0,0,2022-11-01T03:03Z,AOAD/M_T,AUST,275,BPA,000.0035,000.0000,000.0000,1994-01-01T00:00Z,INTERNAL,,1994-01-01/(CCYY-MM-DD)
MAYG00MYT,4379104.6069,4418744.4751,-1401897.9428,-12.782,45.258,-15.947,TRIMBLE ALLOY,GPS+GLO+GAL+BDS+SBAS+IRNSS,5945R40081,6.16,0,2023-03-09T13:22Z,TRM59800.00,NONE,5316354663,BPA,3.0356,0.0000,0.0000,2013-11-21T12:00Z,INTERNAL,,2013-11-21/CCYY-MM-DD
MBAR00UGA,5482951.3876,3260442.6429,-66519.8489,-0.601,30.738,1338.053,JAVAD TRE_3 DELTA,GPS+GLO+GAL+BDS+IRNSS,02557,4.1.01,0,2021-08-02T20:00Z,ASH701945B_M,SCIS,CR519993001,BPA,0.0083,0.0000,0.0000,2001-03-20T00:00Z,INTERNAL,,2013-01-10/CCYY-MM-DD
MCHL00AUS,-4857858.9306,3018464.3696,-2814983.2242,-26.359,148.145,535.000,TRIMBLE ALLOY,GPS+BDS+GLO+QZSS+GAL,5951R40173,6.15,0,2022-10-31T03:34Z,TRM59800.00,NONE,4939353482,BPA,000.0000,000.0000,000.0000,2016-04-04T00:00Z,INTERNAL,,2014-04-09/(CCYY-MM-DD)
MCIL00JPN,-5227188.142,2551880.364,2607617.909,24.290,153.979,36.073,TRIMBLE ALLOY,GPS+GLO+GAL+QZSS,6122R40138,6.15,5,2023-03-22T16:00Z,TRM59800.80,SCIS,10404,BPA,0.0,0.0,0.0,2015-02-26T10:00Z,EXTERNAL RUBIDIUM,10 ,2008-08-25/CCYY-MM-DD
MCM400ATA,-1311703.172,310814.982,-6213255.16,-77.838,166.669,98.476,JAVAD TRE_G3TH DELTA,GPS+GLO+GAL+QZSS,01705,4.1.01,0,2021-07-15T23:54Z,AOAD/M_T,JPLA,363,BPA,0.0814,0.0000,0.0000,2012-01-24T22:45Z,INTERNAL,,2009-07-30/CCYY-MM-DD
MDO100USA,-1329998.797,-5328393.357,3236504.141,30.681,-104.015,2004.891,SEPT POLARX5,GPS+GLO+GAL+BDS,3013421,5.5.0,0,2023-03-09T20:19Z,JAVRINGANT_DM,SCIS,02134,BPA,0.6219,0.0,0.0,2019-09-26T13:24Z,INTERNAL,5 ,2017-03-23/CCYY-MM-DD
MDVJ00RUS,2845456.3,2160954.3,5265993.4,56.021,37.215,257.815,TPS NETG3,GPS+GLO,401,4.0 Mar 20 2019 p7,0,2019-04-04T09:15Z,JPSREGANT_DD_E1,NONE,RA0195,BPA,0.1660,0.0000,0.0000,2001-07-18,EXTERNAL H-MASER,5 ,2001-07-18/CCYY-MM-DD
MEDI00ITA,4461400.894,919593.443,4449504.669,44.520,11.647,50.471,LEICA GR10,GPS+GLO+GAL+BDS+SBAS,1704161,4.31/6.713,0,2020-03-26T11:10Z,LEIAR20,LEIM,18345001,BAM,0.0000,0.0000,0.0000,2018-10-17T11:30Z,EXTERNAL H-MASER,10 ,2016-09-19/CCYY-MM-DD
MELI00ESP,5205630.0,-268410.0,3663434.0,35.281,-2.952,93.899,LEICA GR10,GPS+GLO+GAL,1700514,4.00/6.713,0,2021-04-07T00:00Z,LEIAR25.R4,LEIT,725140,BPA,0.0606,0.0000,0.0000,2011-12-14T12:00Z,INTERNAL,,2011-12-14/CCYY-MM-DD
MERS00TUR,4239149.446,2886967.945,3778877.023,36.566,34.256,38.890,LEICA GR50,GPS+GLO+GAL+BDS+QZSS+SBAS,1870362,4.31/7.403,0,2018-09-20T00:00Z,LEIAR10,NONE,18245024,BAM,0.0800,0.0000,0.0000,2016-11-17T00:00Z,INTERNAL,,2000-09-12/CCYY-MM-DD
MET300FIN,2892583.975,1311799.563,5512619.854,60.217,24.395,79.624,JAVAD TRE_3 DELTA,GPS+GLO+GAL+BDS+SBAS,02877,4.1.05-220902,0,2022-11-03T06:44Z,JAVRINGANT_DM,SCIS,00742,BPA,0.0000,0.0000,0.0000,2013-08-27T12:00Z,INTERNAL,,2013-08-27/CCYY-MM-DD
METG00FIN,2890652.524,1310295.517,5513958.853,60.242,24.384,60.098,SEPT POLARX5,GPS+GLO+GAL+BDS+SBAS+IRNSS,3057616,5.5.0,0,2022-12-01T13:22Z,TRM59800.00,SCIS,5208354398,BPA,2.0352,0.0046,0.0020,2022-09-01T11:00Z,INTERNAL,,2012-07-03/CCYY-MM-DD
METS00FIN,2892570.999,1311843.28,5512634.011,60.217,24.395,95.010,JAVAD TRE_3 DELTA,GPS,02876,4.1.05-220902,0,2022-11-03T11:08Z,ASH700936C_M,NONE,11761,BPA,0.0000,0.0000,0.0000,2013-08-27T09:45Z,INTERNAL,,2014-11-05/CCYY-MM-DD
MFKG00ZAF,5185375.39,2477739.181,-2760201.1271,-25.805,25.540,1311.294,TRIMBLE ALLOY,GPS+GLO,6140R40009,Nav 5.44  Boot 5.44,5,2022-03-27T13:00Z,ASH701941.B,SCIS,CRL1999100134,BPA,0.0000,0.0000,0.0000,2001-10-08T00:00Z,INTERNAL,,2008-01-29/CCYY-MM-DD
MGUE00ARG,1823327.909,-4850352.447,-3709085.536,-35.777,-69.398,1554.141,SEPT POLARX5TR,GPS+GLO+GAL+BDS+SBAS,3025427,5.4.0,,2021-01-19T13:00Z,LEIAR25.R4,NONE,725120,BPA,0.0000,0.0000,0.0000,2012-06-21,EXTERNAL H-MASER,10 ,2013-10-28/CCYY-MM-DD
MIKL00UKR,3698554.628,2308675.267,4639770.434,46.973,31.973,95.132,LEICA GR50,GPS+GLO+GAL+BDS+QZSS,1871312,4.60/7.811,0,2022-09-15T13:32Z,LEIAR20,LEIM,23014040,BAM,0.1008,0.0000,0.0000,2021-12-09T18:37Z,INTERNAL,,2001-06-10/CCYY-MM-DD
MIZU00JPN,-3857167.6484,3108694.9138,4004041.6876,39.135,141.133,117.427,SEPT POLARX5,GPS+GLO+GAL+BDS+QZSS+IRNSS+SBAS,3051468,5.5.0,0,2023-02-10T07:45Z,SEPCHOKE_B3E6,NONE,5474,BPA,0.1206,0.0000,0.0000,2022-10-27T07:08Z,INTERNAL,,2016-02-11/CCYY-MM-DD
MKEA00USA,-5464105.317,-2495165.842,2148291.476,19.801,-155.456,3755.067,SEPT POLARX5,GPS+GLO+GAL+BDS+QZSS,3013571,5.5.0,0,2023-03-10T00:49Z,JAVRINGANT_DM,SCIS,00983,BPA,0.00,0.00,0.00,2020-01-23T21:20Z,EXTERNAL H-MASER,10,2021-11-06T22:40Z
MOBJ00RUS,2936424.674,2178374.012,5208858.3846,55.115,36.570,183.046,JPS LEGACY,GPS+GLO,MT302240425,2.6.1 Jan 10 2008,0,2009-03-25T07:00Z,JPSREGANT_SD_E1,NONE,RA0033,BPA,0.1312,0.0000,0.0000,2007-05-24T10:06Z,INTERNAL,,
MOBK00RUS,2936424.674,2178374.012,5208858.3846,55.115,36.570,183.046,JPS EGGDT,GPS+GLO,8QIGPLUCT1C,2.7.0 Mar 31 2008,0,2009-12-21T00:00Z,JPSREGANT_SD_E1,NONE,RA0033,BPA,0.1312,0.0000,0.0000,2007-05-24T10:06Z,INTERNAL,,
MOBN00RUS,2936432.14,2178364.5,5208858.18,55.115,36.570,183.066,ASHTECH UZ-12,GPS,UC120031610,CQ00,4,2013-06-26T13:30Z,ASH701945C_M,SCIS,CR520003602,BPA,0.0000,0.0000,0.0000,2000-12-18T00:00Z,INTERNAL,,2000-12-18/(CCYY-MM-DD)
MOBS00AUS,-4130636.754,2894953.14,-3890530.236,-37.829,144.975,40.989,SEPT POLARX5,GPS+QZSS+GLO+GAL+IRNSS+BDS,3062371,5.5.0,0,2022-10-31T22:04Z,JAVRINGANT_DM,NONE,02178,BPA,000.0021,000.0000,000.0000,2021-10-27T22:38Z,INTERNAL,,2002-10-29/(CCYY-MM-DD)
MOIU00KEN,5207811.3703,3685972.9487,31891.7647, 0.288,35.290,2201.932,JAVAD TRE_3 DELTA,GPS+GLO+GAL+BDS,02335,3.7.6,0,2019-08-09T21:22Z,ASH701945E_M,NONE,CR200610010,BPA,0.0083,0.0000,0.0000,2008-11-15T00:00Z,INTERNAL,,2008-11-15/CCYY-MM-DD
MONP00USA,-2386247.3,-4802359.2,3444902.34,32.892,-116.422,1842.957,TPS NET-G3A,GPS,618-01115,3.5,10,2011-07-29T22:17Z,ASH701945B_M,SCIS,CR519991751,BPA,0.1176,,,2000-03-22T22:16Z,INTERNAL,,1994-03-31/CCYY-MM-DD
MORP00GBR,3645667.9,-107277.3,5215053.5,55.213,-1.685,144.893,TRIMBLE NETR8,GPS,4843K33417,4.70,0,2014-01-20T12:00Z,AOAD/M_T,NONE,221,BPA,0.0330,0.0000,0.0000,2009-08-17T13:40Z,INTERNAL,,1996-10-31/CCYY-MM-DD
MQZG00NZL,-4580569.543,590465.441,-4384380.166,-43.703,172.655,155.125,TRIMBLE ALLOY,GPS+GLO+GAL+BDS+QZSS,5921R40154,5.45,0,2020-09-22T09:23Z,TRM115000.00,NONE,1551016679,BAM,0.0550,0.0000,0.0000,2020-01-29T22:19Z,INTERNAL,,1999-09-27/CCYY-MM-DD
MRC100USA,1092811.8197,-4877221.9707,3948968.109,38.499,-77.371,27.622,SEPT POLARX5,GPS+GLO+GAL+BDS,3016634,5.3.2,0,2020-03-12T18:47Z,SEPCHOKE_B3E6,SPKE,5150,BPA,0.0083,0.0000,0.0000,2017-07-26T00:00Z,EXTERNAL H-MASER,10,
MRL100NZL,-4749991.001,520984.518,-4210604.147,-41.576,173.741,147.652,NOV OEM6,GPS,NR036,D28CBA70,0,2021-10-08T00:00Z,TPSCR.G5,TPSH,762-11643,BPA,0.0000,0.0000,0.0000,2015-06-30T00:00Z,EXTERNAL CESIUM /RCVR 1,5 ,2019-11-22/CCYY-MM-DD
MRL200NZL,-4749991.001,520984.518,-4210604.147,-41.576,173.741,147.652,NOV OEM6,GPS,NR045,D28CBA70,0,2021-10-08T00:00Z,TPSCR.G5,TPSH,762-11643,BPA,0.0000,0.0000,0.0000,2015-06-30T00:00Z,EXTERNAL CESIUM /RCVR 2,5 ,2017-01-25/CCYY-MM-DD
MRO100AUS,-2556630.0377,5097138.2766,-2848384.7814,-26.697,116.637,354.463,TRIMBLE NETR9,GPS+QZSS+GLO+GAL+BDS,5207K82181,5.44,0,2020-04-03T05:44Z,TRM59800.00,NONE,5220354494,BPA,000.0000,000.0000,000.0000,2013-10-23T00:00Z,INTERNAL,,2013-10-23/(CCYY-MM-DD)
MSSA00JPN,-3854396.7261,3427835.9923,3741739.5228,36.140,138.352,1626.837,TRIMBLE NETR9,GPS+GLO+GAL+BDS+QZSS,5423R48740,5.45,0,2021-03-08T00:00Z,TRM59900.00,SCIS,5317361096,BPA,0.0000,0.0000,0.0000,2018-03-29T00:00Z,EXTERNAL H-MASER,10 ,2020-07-02/CCYY-MM-DD
MTKA00JPN,-3947762.7496,3364399.8789,3699428.5111,35.680,139.561,109.432,TRIMBLE NETR9,GPS+GLO,5016K66884,5.22,,2017-06-30,ASH701073.1,SNOW,CRG0118,BPA,0.0000,0.0000,0.0000,1998-10-13,INTERNAL,,
MTV100URY,2914536.977,-4349790.287,-3630033.464,-34.914,-56.176,41.138,NOV OEM6,GPS,NR021,D28CBA70,0,2021-10-20T00:00Z,TPSCR.G5,TPSH,762-11827,BPA,0.0000,0.0000,0.0000,2015-09-18T00:00Z,EXTERNAL CESIUM / RCVR1,5 ,2014-09-30/CCYY-MM-DD
MTV200URY,2914536.977,-4349790.287,-3630033.464,-34.914,-56.176,41.138,NOV OEM6,GPS,NR030,D28CBA70,0,2021-10-20T00:00Z,TPSCR.G5,TPSH,762-11827,BPA,0.0000,0.0000,0.0000,2015-09-18T00:00Z,EXTERNAL CESIUM / RCVR2,5 ,2014-09-30/CCYY-MM-DD
NABG00NOR,1201009.37,252158.016,6238022.126,78.943,11.857,43.362,TRIMBLE NETR9,GPS+GLO+GAL+BDS,5528R50039,5.52,0,2021-11-25T18:03Z,TRM59900.00,SCIS,5506362018,BPA,0.0000,0.0000,0.0000,2019-09-01T00:00Z,EXTERNAL H-MASER,10 ,2019-12-12/CCYY-MM-DD
NAIN00CAN,1671837.36,-3103474.6,5297671.08,56.537,-61.689,33.925,ASHTECH UZ-12,GPS,UC2200450006,CQ00,0,2017-11-10T15:00Z,ASH701945D_M,NONE,CR520020901,BPA,0.1000,0.0000,0.0000,2002-12-18T14:11Z,INTERNAL,,2002-12-18/CCYY-MM-DD
NANO00CAN,-2335726.73,-3451608.329,4812009.971,49.295,-124.086, 6.989,SEPT POLARX5,GPS+GLO+GAL+BDS,3016115,5.3.2,0,2021-03-29T00:00Z,SEPCHOKE_B3E6,SPKE,5149,BPA,0.0771,0.000,0.000,2018-02-14T22:38Z,INTERNAL CLOCK STEERING,,2003-01-09/CCYY-MM-DD
NAUR00NRU,-6212555.1726,1442786.6229,-61006.7968,-0.552,166.926,46.678,SEPT POLARX4TR,GPS+GLO+GAL+BDS+QZSS,3007597,2.9.6,0,2017-01-05T00:00Z,LEIAR25.R3,LEIT,10150005,BPA,000.0010,000.0000,000.0000,2011-01-10T00:00Z,INTERNAL,,2003-07-01/(CCYY-MM-DD)
NAUS00BRA,3179409.3,-5519130.6,-334110.1,-3.023,-60.055,94.186,TRIMBLE NETR9,GPS+GLO+GAL+SBAS,5547R50410,5.56,0,2022-12-21T18:08Z,TRM57971.00,NONE,2612117367,BAM,0.0080,0.0000,0.0000,2016-11-25T13:00Z,INTERNAL,,2005-10-25
NCKU00TWN,-2956913.107,5075881.93,2476417.112,22.997,120.223,98.625,TRIMBLE NETR9,GPS+GLO+GAL+BDS+QZSS,5426R48963,5.37,0,2019-04-17T04:43Z,JAVRINGANT_DM,SCIS,00475,BPA,0.0000,0.0000,0.0000,2014-05-12T00:00Z,INTERNAL,,2014-05-12/CCYY-MM-DD
NICO00CYP,4359417.88,2874117.01,3650778.27,35.141,33.396,192.145,LEICA GR50,GPS+GLO+GAL+BDS+SBAS,1830231,4.61/7.811,0,2023-02-14T14:40Z,LEIAR25.R4,LEIT,725285,BPA,0.0650,0.0000,0.0000,2013-07-16T11:00Z,INTERNAL,,1997-05-14/CCYY-MM-DD
NIST00USA,-1288398.567,-4721696.932,4078625.35,39.995,-105.263,1648.777,SEPT POLARX5TR,GPS+GLO+GAL+BDS+QZSS+SBAS,3069423,5.4.0,0.0,2022-06-15T00:00Z,NOV750.R4,NONE,NDE11330004,BPA,0.0,0.0,0.0,2022-06-17T18:00Z,EXTERNAL H-MASER,5 ,2006-05-10/CCYY-MM-DD
NIUM00NIU,-5937159.6673,-1054675.7248,-2071390.5806,-19.077,-169.927,90.527,SEPT POLARX5,GPS+GLO+GAL+BDS+QZSS+IRNSS,3025338,5.5.0,0,2022-12-13T22:03Z,TRM59800.00,NONE,534754893,BPA,000.0000,000.0000,000.0000,2014-03-13T01:30Z,INTERNAL,,2005-09-15/(CCYY-MM-DD)
NKLG00GAB,6287385.7333,1071574.6758,39132.0395, 0.354, 9.672,31.890,SEPT POLARX5,GPS+GLO+GAL+BDS+SBAS+IRNSS,3022492,5.5.0,0,2022-11-30T14:05Z,TRM59800.00,SCIS,4811A48439,BPA,  3.0430,-0.0015,-0.0025,2013-03-29T11:40Z,INTERNAL,,2010-05-05T16:00Z/CCYY-MM-DD
NLIB00USA,-130934.4493,-4762291.7386,4226854.6638,41.772,-91.575,207.467,SEPT POLARX5TR,GPS+GLO+GAL+BDS,3013995,5.5.0,0,2023-03-10T01:44Z,JAVRINGANT_DM,SCIS,00841,BPA,0.6127,0.000,0.000,2018-06-14T15:00Z,EXTERNAL H-MASER,5 ,1993-03-05/CCYY-MM-DD
NNOR00AUS,-2414151.326,4907778.436,-3270645.333,-31.049,116.193,235.248,SEPT POLARX5TR,GPS+GLO+GAL+BDS+QZSS+SBAS+IRNSS,4701267,5.4.0,0,2021-01-19T13:00Z,SEPCHOKE_B3E6,NONE,5657,BPA,0.1121,0.0000,0.0000,2019-10-25T12:45Z,EXTERNAL SLAVED CRYSTAL,10 ,2012-10-02/CCYY-MM-DD
NOT100ITA,4934528.669,1321262.251,3806479.508,36.876,14.990,126.657,LEICA GR30,GPS+GLO+GAL+BDS+SBAS,1705437,4.20/7.300,0,2018-07-26T07:00Z,LEIAR20,NONE,19203022,BAM,0.0000,0.0000,0.0000,2017-10-11T09:30Z,EXTERNAL H-MASER,5 ,2017-10-11/CCYY-MM-DD
NOVM00RUS,452261.2,3635877.47,5203453.26,55.031,82.909,150.418,JPS LEGACY,GPS+GLO,00202,2.6.0 OCT 24 2007,10,2011-08-18,JPSREGANT_SD_E1,NONE,RA0038,BPA,0.0800,0.0000,0.0000,2006-11-07,EXTERNAL H-MASER,5,2001-07-24/CCYY-MM-DD
NRC100CAN,1112777.33,-4341475.83,4522955.78,45.454,-75.624,82.907,JAVAD TRE_G3TH DELTA,GPS+GLO+GAL,1331,3.7.5p1 Jan 23 2019,5,2019-03-19T13:54Z,AOAD/M_T,NONE,171,BPA,000.0000,000.0000,000.0000,2012-09-28T15:00Z,EXTERNAL H-MASER,5,2008-01-22
NRIL00RUS,64537.2912,2253782.8543,5946363.4808,69.362,88.360,48.343,ASHTECH UZ-12,GPS,UC120031611,CQ00,,2009-10-29T12:20Z,ASH701945B_M,SCIT,CR620002607,BPA,0.0795,,,2000-09-17T00:00Z,INTERNAL,,CCYY-MM-DD/CCYY-MM-DD
NRMD00NCL,-5743537.658,1380504.26,-2397897.027,-22.228,166.485,160.792,TRIMBLE NETR9,GPS+GLO+QZSS+GAL+BDS,5329K44376,Nav  5.50,0,2021-04-13T22:30Z,TRM57971.00,TZGD,1440921240,BAM,0.0000,0.0000,0.0000,2009-10-02T00:00Z,N/A,N/A,N/A
NTUS00SGP,-1508022.0,6195580.0,148800.0, 1.346,103.680,78.867,LEICA GR50,GPS+GLO+GAL+BDS+QZSS+SBAS,1832415,4.61/7.811,0,2022-11-23T06:26Z,LEIAR20,LEIM,20288014,BAM,0.0776,0.0000,0.0000,2018-04-18T02:50Z,INTERNAL,,1997-06-26/CCYY-MM-DD
NVSK00RUS,433604.1534,3655557.747,5191288.0377,54.841,83.235,124.080,TRIMBLE R9S,GPS+GLO,5937R24658,5.44,0,2021-07-19T00:00Z,TRM57971.00,NONE,1441116772,BAM,6.1661,0.0,0.0,2016-03-16T00:00Z,INTERNAL,,2000-06-30/CCYY-MM-DD
NYA100NOR,1202434.0,252632.0,6237772.0,78.930,11.865,84.130,TRIMBLE NETR9,GPS+GLO+GAL+BDS+QZSS,5207K82137,5.52,0,2021-11-27T18:56Z,ASH701073.1,SNOW,CRG0117,BPA,0.0000,0.0000,0.0000,1999-06-02T00:40Z,INTERNAL,,2021-09-24/CCYY-MM-DD
NYA200NOR,1202379.31,252474.6543,6237786.5417,78.930,11.859,81.914,SEPT POLARX5,GPS+GLO+GAL+BDS+QZSS+IRNSS+SBAS,3051453,5.5.0,0,2023-02-16T06:15Z,JAVRINGANT_G5T,NONE,3231C,BAM,0.0000,0.0000,0.0000,2019-08-08T10:00Z,INTERNAL,,2013-06-19/CCYY-MM-DD
NYAL00NOR,1202431.0,252627.0,6237768.0,78.930,11.865,79.443,TRIMBLE NETR9,GPS+GLO+GAL+BDS+QZSS,5504R50012,5.45,0,2021-09-24T09:37Z,AOAD/M_B,DOME,R106,BCR,5.2160,0.0040,-0.0010,1993-01-01T00:00Z,INTERNAL,,2021-09-24/CCYY-MM-DD
OAFA00ARG,1984093.3,-5068867.9,-3314488.0,-31.509,-68.623,727.671,TRIMBLE NETR9,GPS+GLO+GAL+BDS,5237K52334,5.56,3,2023-03-03T12:00Z,ASH700936C_M,NONE,00140,BPA,0.0000,0.0000,0.0000,2020-12-04T12:00Z,INTERNAL ,,: 2012-02-20/CCYY-MM-DD
OAK100GBR,4011440.89,-63375.739,4941877.084,51.118,-0.905,140.081,NOV OEM6,GPS,NR040,D28CBA70,0,2021-10-15T00:00Z,TPSCR.G5,TPSH,762-11858,BPA,0.0000,0.0000,0.0000,2015-04-08T00:00Z,EXTERNAL CESIUM / RCVR 1,5 ,2018-07-17/CCYY-MM-DD
OAK200GBR,4011440.89,-63375.739,4941877.084,51.118,-0.905,140.081,NOV OEM6,GPS,NR041,D28CBA70,0,2021-10-15T00:00Z,TPSCR.G5,TPSH,762-11858,BPA,0.0000,0.0000,0.0000,2015-04-08T00:00Z,EXTERNAL CESIUM / RCVR 2,5 ,2019-09-05/CCYY-MM-DD
OBE400DEU,4186704.43,834903.583,4723664.857,48.085,11.278,650.987,SEPT ASTERX4,GPS+GLO+GAL+BDS+QZSS+IRNSS+SBAS,3046419,4.8.2,0,2021-11-17T13:00Z,SEPCHOKE_B3E6,NONE,5612,BPA,0.0700,0.0000,0.0000,2021-04-30T10:00Z,INTERNAL,,2012-09-28/CCYY-MM-DD
OHI200ATA,1525811.8,-2432479.1,-5676166.0,-63.321,-57.901,33.594,JAVAD TRE_G3TH DELTA,GPS+GLO+GAL+SBAS,3VOLU2Z8ZA2O83VVUCMB,4.1.01-210527,0,2021-06-02T15:30Z,LEIAR25.R4,LEIT,725307,BPA,000.0728,000.0000,000.0000,2017-02-27T11:40Z,EXTERNAL H-Maser,5,
OHI300ATA,1525808.9,-2432478.5,-5676166.0,-63.321,-57.901,32.674,LEICA GR50,GPS+GLO+GAL+BDS+SBAS,1830508,4.50/7.710,0,2021-05-19T09:15Z,LEIAR25.R4,LEIT,725282,BPA,000.0660,000.0000,000.0000,2013-09-28T16:00Z,EXTERNAL H-Maser,5,
ONS100SWE,3370667.198,711818.723,5349787.879,57.395,11.925,44.858,TRIMBLE ALLOY,GPS+GLO+GAL+BDS+SBAS,5841R40051,6.15,0,2022-12-07T15:00Z,LEIAR25.R3,LEIT,08520002,BPA,0.0030,0.0000,0.0000,2012-01-28,EXTERNAL H-MASER,10 ,2013-05-29/CCYY-MM-DD
ONSA00SWE,3370658.832,711876.939,5349786.745,57.395,11.926,45.974,SEPT POLARX5TR,GPS+GLO+GAL+BDS+SBAS,3046506,5.5.0,0,2022-12-08T10:00Z,AOAD/M_B,OSOD,020,BCR,0.9950,0.0000,0.0000,2013-11-06T13:05Z,EXTERNAL H-MASER,10 ,2019-04-02/CCYY-MM-DD
OP7100FRA,4202779.735,171370.766,4778660.65,48.836, 2.335,124.987,SEPT POLARX5TR,GPS+GLO+GAL+BDS+SBAS,3083499,5.5.0,5,2022-11-27T00:00Z,LEIAR25.R4,LEIT,725498,BPA,0.0000,0.0000,0.0000,2016-10-18T00:00Z,EXTERNAL UTC(OP),1 PPS and 10 ,2022-11-27/CCYY-MM-DD
OPMT00FRA,4202777.3831,171367.9881,4778660.1844,48.836, 2.335,123.015,ASHTECH Z-XII3T,GPS,02942,1L01-1D04,5,2001-07-01T00:00Z,3S-02-TSADM,NONE,00019,TOP,000.0000,000.0000,000.0000,2001-07-01T00:00Z,EXTERNAL UTC(OP),1 PPS and 20 ,2015-08-26/CCYY-MM-DD
ORID00MKD,4498451.81,1708266.83,4173591.78,41.127,20.794,773.417,LEICA GR30,GPS+GLO+GAL+BDS+SBAS,1707176,4.51/7.710,0,2021-11-30T12:25Z,LEIAR25.R4,LEIT,726371,BPA,0.0310,0.0000,0.0000,2020-02-18T11:05Z,INTERNAL,,2000-07-20/CCYY-MM-DD
OSN300KOR,-3068340.81,4066863.981,3824757.006,37.083,127.034,64.863,NOV OEM6,GPS,NR046,D28CBA70,0,2021-09-17T00:00Z,TPSCR.G5,TPSH,762-11526,BPA,0.0000,0.0000,0.0000,2014-08-15T00:00Z,EXTERNAL CESIUM /RCVR1,5 ,2019-08-06/CCYY-MM-DD
OSN400KOR,-3068340.81,4066863.981,3824757.006,37.083,127.034,64.863,NOV OEM6,GPS,NR047,D28CBA70,0,2021-09-17T00:00Z,TPSCR.G5,TPSH,762-11526,BPA,0.0000,0.0000,0.0000,2014-08-15T00:00Z,EXTERNAL CESIUM /RCVR2,5 ,2021-01-08/CCYY-MM-DD
OUS200NZL,-4387890.8367,733420.3903,-4555176.3706,-45.869,170.511,26.545,SEPT POLARX5,GPS+GLO+GAL+BDS+QZSS+IRNSS+SBAS,3051459,5.5.0,0,2023-02-16T06:15Z,SEPCHOKE_B3E6,NONE,5395,BPA,0.0711,0.0000,0.0000,2019-09-25T08:30Z,INTERNAL,,2006-06-19/CCYY-MM-DD
OWMG00NZL,-4584394.1059,-290931.9957,-4410048.0233,-44.024,-176.369,22.027,TRIMBLE ALLOY,GPS+GLO+GAL+BDS+QZSS+SBAS,5945R40043,6.16,0,2023-03-09T13:24Z,TRM59800.00,NONE,5406354937,BPA,2.0352,0.0004,0.0003,2016-03-01T00:00Z,INTERNAL,,2016-03-01/CCYY-MM-DD
P04300USA,-1128701.5937,-4465270.5852,4399615.9675,43.881,-104.186,1491.360,SEPT POLARX5,GPS+GLO+GAL+BDS+QZSS,3046614,5.5.0,0,2022-11-16T18:43Z,TRM59800.99,SCIT,0220066597,BPA,0.0083,0,0,2020-06-03T19:01Z,INTERNAL,,2006-02-13/CCYY-MM-DD
P05100USA,-1416838.9163,-4223178.9758,4551064.1022,45.807,-108.546,1081.527,SEPT POLARX5,GPS+GLO+GAL+BDS+QZSS,3035045,5.5.0,0,2022-11-16T18:42Z,TRM59800.00,SCIT,5034353890,BPA,0.0083,0,0,2019-02-07T21:22Z,INTERNAL,,2005-10-11/CCYY-MM-DD
P05300USA,-1283559.1005,-4015770.3241,4771131.6324,48.726,-107.725,815.419,SEPT POLARX5,GPS+GLO+GAL+BDS+QZSS,3053850,5.5.0,0,2022-11-16T18:42Z,TRM59800.99,SCIT,4822A53917,BPA,0.0083,0,0,2019-11-08T18:44Z,INTERNAL,,2007-04-18/CCYY-MM-DD
P38900USA,-2347407.3618,-3968720.2532,4394008.5091,43.812,-120.603,1398.318,SEPT POLARX5,GPS+GLO+GAL+BDS+QZSS,3013165,5.5.0,0,2023-01-25T18:03Z,TRM59800.80,SCIT,0220356904,BPA,0.0083,0,0,2016-07-19T20:22Z,INTERNAL,,2007-10-27/CCYY-MM-DD
P77900USA,647472.8123,-5177938.9848,3656703.6083,35.202,-82.872,880.506,SEPT POLARX5,GPS+GLO+GAL+BDS+SBAS,3075032,5.5.0,0,2022-11-15T23:06Z,TRM59800.00,SCIT,5211354451,BPA,0.0083,0,0,2013-01-08T18:00Z,INTERNAL,,2008-04-21/CCYY-MM-DD
P80200USA,-810033.1477,-4318611.4126,4608498.8926,46.558,-100.623,573.530,SEPT POLARX5,GPS+GLO+GAL+BDS+QZSS,3012344,5.5.0,0,2022-11-10T02:02Z,TRM59800.80,SCIT,0220379534,BPA,0.0083,0,0,2016-11-03T13:49Z,INTERNAL,,2012-10-19/CCYY-MM-DD
PADO00ITA,4388882.41,924567.03,4519588.45,45.411,11.896,65.126,STONEX SC2200,GPS+GLO+GAL+BDS+IRNSS+SBAS,SC22A9071007E,2.12-210201-STX,0,2021-03-11T09:15Z,STXSA1500,STXG,C18119000473,BAM,0.0000,0.0000,0.0000,2020-11-23T09:35Z,INTERNAL,,2001-11-21/CCYY-MM-DD
PALM00ATA,1192671.992,-2450887.706,-5747096.184,-64.775,-64.051,31.685,SEPT POLARX5,GPS+GLO+GAL+BDS+QZSS,3025614,5.5.0,0,2023-03-10T18:21Z,ASH700936D_M,SCIS,CR14107,BPA,0.0794,0.0000,0.0000,1997-04-23T00:00Z,INTERNAL,,1997-04-23/CCYY-MM-DD
PARC00CHL,1255992.5,-3622975.2,-5079719.2,-53.137,-70.880,22.725,TRIMBLE ALLOY,GPS+GLO+GAL+BDS,5931R40025,6.10,2,2021-07-01T00:00Z,TRM57971.00,NONE,31051052,BAM,0.0000,0.000,0.000,2009-11-01T00:00Z,INTERNAL,,1999-01-01/CCYY-MM-DD
PARK00AUS,-4554255.2298,2816652.4564,-3454059.7149,-32.999,148.265,397.809,SEPT POLARX5TR,GPS+QZSS+GLO+GAL+BDS,3055081,5.5.0,0,2022-10-31T23:56Z,LEIAR25,NONE,727345,BPA,000.0250,000.0000,000.0000,2022-09-09T05:42Z,EXTERNAL H-MASER,10 ,2022-07-19/(CCYY-MM-DD)
PBR400IND,-295668.617,6240862.9057,1278143.3359,11.637,92.712,-13.823,TRIMBLE ALLOY,GPS+GAL+QZSS+IRNSS+GLO+BDS+SBAS,5945R40129,6.10,5,2022-12-07T11:40Z,LEIAR25,LEIT,765733,BPA,000.2600,000.0000,000.0000,2021-02-01T11:00Z,EXTERNAL CS-5071A,10 ,2021-02-01/(CCYY-MM-DD)
PDEL00PRT,4551596.139,-2186893.415,3883410.679,37.748,-25.663,111.180,TRIMBLE ALLOY,GPS+GLO+GAL,5841R40011,6.16,0,2022-11-09T15:40Z,TRM159900.00,NONE,5925338556,BPA,0.0000,0.0000,0.0000,2021-10-15T10:27Z,INTERNAL,,2000-01-16/CCYY-MM-DD
PENC00HUN,4052449.8,1417680.8,4701406.9,47.790,19.282,292.144,LEICA GRX1200GGPRO,GPS+GLO,352998,9.20/3.822,0,2021-08-30T12:02Z,LEIAT504GG,LEIS,200219,BPA,0.0300,0.0000,0.0000,2014-06-24T07:34Z,INTERNAL,,2003-05-22/CCYY-MM-DD
PERT00AUS,-2368688.0359,4881316.6955,-3341794.9735,-31.802,115.885,13.081,TRIMBLE ALLOY,GPS+GLO+GAL+BDS+QZSS,5921R40163,6.15,0,2022-10-31T23:46Z,TRM59800.00,NONE,5220354498,BPA,000.0595,000.0000,000.0000,2012-10-23T05:30Z,INTERNAL,,2012-10-23/(CCYY-MM-DD)
PETS00RUS,-3580828.5,1399698.1,5072185.2,53.023,158.650,102.604,JAVAD TRE_G3TH DELTA,GPS+GLO,01336,3.6.16 Jan 21 2020,0,2020-06-23T06:00Z,ASH701933B_M,SCIS,1999040131,BPA,000.0885,000.0000,000.0000,2005-10-06T00:00Z,INTERNAL,,2002-08-27/CCYY-MM-DD
PGEN00PHL,-3650007.45,5187339.681,669409.364, 6.065,125.132,121.487,LEICA GR50,GPS+GLO+GAL+BDS+QZSS+SBAS,1832007,4.31/7.403,0,2021-08-05T02:13Z,LEIAR25,LEIT,09300004,BPA,0.0000,0.0000,0.0000,2010-01-21T00:00Z,INTERNAL,,2010-01-10/CCYY-MM-DD
PICL00CAN,-11253.04,-3980586.68,4967210.25,51.480,-90.162,315.531,SEPT POLARX5,GPS+GLO+GAL,3046578,5.2.0,5,2019-07-18T17:00Z,TWIVC6150,NONE,1903150001,BPA,000.1000,000.0000,000.0000,2019-08-26T13:50Z,INTERNAL,5,2001-12-11
PIE100USA,-1640916.928,-5014781.187,3575447.077,34.302,-108.119,2348.129,JAVAD TRE_3 DELTA,GPS+GLO+GAL+BDS,02701,4.1.01,0,2021-07-27T22:41Z,ASH701945E_M,NONE,CR520022114,BPA,0.061,0.0000,0.0000,2007-01-23T18:00Z,EXTERNAL H-MASER,5,
PIMO00PHL,-3186293.8,5286624.28,1601158.31,14.636,121.078,95.936,JAVAD TRE_G3TH DELTA,GPS+GLO+BDS+QZSS,01524,4.1.01,0,2021-07-08T17:29Z,ASH701945C_M,NONE,CR620010502,BPA,0.0792,0.0000,0.0000,2005-09-22T00:00Z,INTERNAL,,1998-07-01/CCYY-MM-DD
PIN100USA,-2369510.78,-4761206.89,3511396.27,33.612,-116.458,1256.573,TPS NET-G3A,GPS,618-01134,4.7p6,0,2021-09-13T00:00Z,ASH701945B_M,SCIS,CR519991846,BPA,1.745,,,2004-09-10T03:30Z,INTERNAL,,1990-01-09/CCYY-MM-DD
PNGM00PNG,-5367943.2,3437431.2,-225886.0,-2.043,147.366,116.751,TRIMBLE NETR9,GPS+GLO+GAL+BDS+QZSS,5041K71030,5.44,0,2020-03-03T00:40Z,JAVRINGANT_DM,NONE,02121,BPA,000.0005,000.0000,000.0000,2023-03-23T03:16Z,INTERNAL,,2003-05-06/(CCYY-MM-DD)
POAL00BRA,3467519.4,-4300378.53,-3177517.73,-30.074,-51.120,77.155,TRIMBLE NETR9,GPS+GLO+GAL+BDS,5750R51611,5.56,0,2022-12-21T18:09Z,TRM115000.00,NONE,1551129639,BAM,0.0075,0.0000,0.0000,2018-05-15T17:00Z,INTERNAL,,1998-10-28/CCYY-MM-DD
POHN00FSM,-5879158.7411,2350291.7598,767748.1911, 6.960,158.210,91.101,SEPT POLARX5,GPS+GLO+GAL+BDS+QZSS+IRNSS,3025122,5.5.0,0,2022-11-01T00:25Z,JAVRINGANT_DM,NONE,02053,BPA,000.0010,000.0000,000.0000,2017-12-15T03:00Z,INTERNAL,,2003-05-01/(CCYY-MM-DD)
POL200KGZ,1239971.4511,4530790.0876,4302578.795,42.680,74.694,1714.630,JAVAD TRE_3 DELTA,GPS+GLO+GAL+BDS+QZSS,02563,4.1.01,0,2021-07-21T17:16Z,TPSCR.G3,NONE,383-1030,BPA,0.078,,,2009-10-23T00:00Z,INTERNAL,,1995-05-25/CCYY-MM-DD
POLV00UKR,3411557.338,2348463.835,4834396.643,49.603,34.543,178.551,LEICA GR50,GPS+GLO+GAL+BDS+QZSS,1871306,4.31/7.403,0,2021-11-30T14:36Z,LEIAR20,LEIM,23014041,BAM,0.0700,0.0000,0.0000,2021-11-30T14:36Z,INTERNAL,,2001-04-26/CCYY-MM-DD
POTS00DEU,3800689.6341,882077.3857,5028791.3179,52.379,13.066,144.853,JAVAD TRE_3,GPS+GLO+GAL+BDS+QZSS+IRNSS+SBAS,4171773,4.2.01-220630,0,2023-01-17T14:26Z,JAVRINGANT_G5T,NONE,6077C,BAM,0.1206,0.0000,0.0000,2020-10-06T08:00Z,INTERNAL,,2012-08-08/CCYY-MM-DD
POVE00BRA,2774265.608,-5662060.1407,-959415.8531,-8.709,-63.896,119.975,TRIMBLE NETR9,GPS+GLO+GAL+BDS,5750R51603,5.56,0,2022-12-20T18:12Z,TRM115000.00,NONE,1551129628,BAM,0.0075,0.0000,0.0000,2018-05-17T00:00Z,INTERNAL,,2005-10-14/CCYY-MM-DD
PPPC00PHL,-3022676.63,5511839.312,1075517.497, 9.773,118.740,66.930,LEICA GR50,GPS+GLO+GAL+BDS+QZSS+SBAS,1832024,4.31/7.403,0,2021-12-23T00:16Z,LEIAR25,LEIT,09300007,BPA,0.0000,0.0000,0.0000,2010-06-26T00:00Z,INTERNAL,,2010-06-26/CCYY-MM-DD
PRDS00CAN,-1659602.83,-3676725.75,4925493.59,50.871,-114.293,1248.373,JAVAD TRE_3N DELTA,GPS+GLO+GAL,02784,3.7.5p1 Jan 23 2019,5,2019-11-12T18:42Z,AOAD/M_T,NONE,KW-9493-01,BPA,000.1000,000.0000,000.0000,2022-08-16T23:14Z,EXTERNAL H-MASER,5,2017-08-20
PRE300ZAF,5066223.489,2719222.966,-2754406.543,-25.746,28.224,1414.248,NOV OEM6,GPS,NR034,D28CBA70,0,2021-10-14T00:00Z,TPSCR.G5,TPSH,762-10995,BPA,0.0000,0.0000,0.0000,2015-02-20T00:00Z,EXTERNAL CESIUM /RCVR1,5 ,2019-09-13/CCYY-MM-DD
PRE400ZAF,5066223.489,2719222.966,-2754406.543,-25.746,28.224,1414.248,NOV OEM6,GPS,NR038,D28CBA70,0,2021-10-14T00:00Z,TPSCR.G5,TPSH,762-10995,BPA,0.0000,0.0000,0.0000,2015-02-20T00:00Z,EXTERNAL CESIUM /RCVR2,5 ,2015-02-13/CCYY-MM-DD
PTAG00PHL,-3184318.607,5291065.565,1590418.272,14.535,121.041,87.054,LEICA GR50,GPS+GLO+GAL+BDS+QZSS+SBAS,1871663,4.51/7.710,0,2022-02-10T03:03Z,LEIAR25.R4,LEIT,726458,BPA,0.0000,0.0000,0.0000,2017-01-27T06:47Z,INTERNAL,,2008-09-23/CCYY-MM-DD
PTBB00DEU,3844060.11,709661.2,5023129.46,52.296,10.460,130.681,SEPT POLARX5TR,GPS+GLO+GAL+BDS+IRNSS+SBAS,3034575,5.4.0,0,2021-02-02T08:15Z,LEIAR25.R4,LEIT,726333,BPA,0.0590,0.0000,0.0000,2019-03-26T14:00Z,EXTERNAL ACTIVE H-MASER,20 ,2010-01-28/CCYY-MM-DD
PTGG00PHL,-3184365.6327,5291038.8848,1590414.0821,14.535,121.041,87.347,SEPT POLARX5,GPS+GLO+GAL+BDS+QZSS+SBAS+IRNSS,3022502,5.5.0,0,2022-12-09T08:36Z,TRM59800.00,SCIS,5332354745,BPA,2.0360,0.0000,0.0000,2018-02-14T00:45Z,INTERNAL,,2014-12-05/CCYY-MM-DD
PTVL00VUT,-5950573.262,1230677.252,-1932016.954,-17.749,168.315,86.846,SEPT POLARX5,GPS+GLO+GAL+BDS+QZSS+IRNSS,3025118,5.5.0,0,2022-12-09T02:43Z,JAVRINGANT_DM,NONE,00931,BPA,000.0000,000.0000,000.0000,2018-01-23T00:00Z,INTERNAL,,2012-10-14/(CCYY-MM-DD)
QAQ100GRL,2170942.18,-2251829.95,5539988.29,60.715,-46.048,110.835,SEPT POLARX5,GPS+GLO+GAL+BDS,3023005,5.5.0,0,2023-01-10T17:25Z,ASH701945E_M,SCIS,24206,BPA,0.1206,0.0000,0.0000,2003-12-30T17:09Z,INTERNAL,,2019-06-21/CCYY-MM-DD
QIKI00CAN,1069081.29,-2195214.2,5872519.02,67.559,-64.034,13.718,ASHTECH UZ-12,GPS,UC2200303009,CQ00,0,2014-08-07T01:40Z,ASH701945E_M,NONE,CR620024521,BPA,0.0000,0.0000,0.0000,2008-08-23T19:04Z,INTERNAL,,2004-07-16/CCYY-MM-DD
QUI300ECU,1275746.601,-6252216.81,-15440.994,-0.140,-78.467,2927.924,NOV OEM6,GPS,NR042,D28CBA70,0,2021-08-16T00:00Z,TPSCR.G5,TPSH,762-11852,BPA,0.0000,0.0000,0.0000,2015-06-22T00:00Z,EXTERNAL CESIUM /RCVR1,5 ,2019-09-13/CCYY-MM-DD
QUI400ECU,1275746.601,-6252216.81,-15440.994,-0.140,-78.467,2927.924,NOV OEM6,GPS,NR044,D28CBA70,0,2021-08-16T00:00Z,TPSCR.G5,TPSH,762-11852,BPA,0.0000,0.0000,0.0000,2015-06-22T00:00Z,EXTERNAL CESIUM /RCVR2,5 ,2015-06-22/CCYY-MM-DD
QUIN00USA,-2517231.209,-4198595.058,4076531.208,39.975,-120.944,1106.188,JAVAD TRE_3 DELTA,GPS+GLO+GAL+BDS+QZSS,02567,4.1.01,0,2021-07-21T17:40Z,ASH701945E_M,SNOW,CR6200548028,BPA,0.5847,0.0000,0.0000,2017-10-19T07:00Z,INTERNAL ,,
RABT00MAR,5255617.68,-631745.622,3546322.61,33.998,-6.854,90.539,JAVAD TRE_3 DELTA,GPS+GLO+GAL+BDS+IRNSS,02334,4.1.01,0,2021-10-21T18:27Z,TRM29659.00,SCIS,0220148021,BPA,000.0800,000.0000,000.0000,2000-05-17T00:00Z,INTERNAL,,2000-05-07/CCYY-MM-DD
RAEG00PRT,4618477.733,-2166047.526,3816304.845,36.986,-25.126,298.320,LEICA GR50,GPS+GLO+GAL+BDS,1871627,4.61/7.811,0,2022-11-23T12:00Z,LEIAR20,NONE,16073038,BAM,0.5793,0.0000,0.0000,2015-05-15T00:00Z,EXTERNAL H-MASER,5 ,2018-06-12/CCYY-MM-DD
RAMO00ISR,4514719.1,3133506.0,3228042.6,30.598,34.763,893.501,JAVAD TRE_G3TH DELTA,GPS+GLO,02628,3.6.14,0,2019-01-15,ASH701945B_M,SNOW,CR20014604,BPA,0.0030,0.0000,0.0000,2004-03-18T00:00Z,INTERNAL,,1998-06-10/CCYY-MM-DD
RBAY00ZAF,4739765.8116,2970758.3766,-3054077.6457,-28.796,32.078,32.206,TRIMBLE ALLOY,GPS+GLO,6048R40092,Nav 5.44 / Boot 5.44,5,2021-11-12T15:00Z,TRM59800.00,SCIS,50373533928,BPA,0.0,0.0,0.0,2012-12-02T00:00Z,INTERNAL,,2000-05-10/CCYY-MM-DD
RDSD00DOM,2078681.178,-5683736.413,2006886.9092,18.461,-69.911,-8.803,TRIMBLE NETR9,GPS+GLO+GAL+BDS,5941R60387,5.56,0,2023-01-14T01:07Z,TRM59800.00,SCIS,5220354497,BPA,0.02,0.0,0.0,2013-03-07T17:01Z,INTERNAL,,2004-08-01/CCYY-MM-DD
REDU00BEL,4091423.462,368380.429,4863179.703,50.002, 5.145,370.327,SEPT POLARX5TR,GPS+GLO+GAL+BDS+QZSS+SBAS+IRNSS,4701364,5.5.0,0,2023-01-19T09:00Z,SEPCHOKE_B3E6,NONE,5644,BPA,0.1150,0.0000,0.0000,2019-10-29T10:00Z,EXTERNAL CESIUM,10 ,2013-09-12/CCYY-MM-DD
RESO00CAN,-144097.43,-1683123.97,6129777.88,74.691,-94.893,35.359,ASHTECH UZ-12,GPS,ZR520020402,CK00,0,2006-03-10T20:26Z,ASH700936A_M,NONE,468,BPA,0.1000,0.0000,0.0000,2001-09-12,INTERNAL,,2001-09-12/CCYY-MM-DD
REUN00REU,3364099.1673,4907944.4587,-2293466.897,-21.208,55.572,1558.807,SEPT POLARX5,GPS+GLO+GAL+BDS+SBAS,3015948,5.3.2,0,2020-02-13T10:00Z,TRM55971.00,NONE,30976568,BAM,000.0610,000.0000,000.0000,2008-12-03T12:00Z,INTERNAL,,1997-10-14/CCYY-MM-DD
REYK00ISL,2587384.533,-1043033.497,5716564.008,64.139,-21.955,93.540,LEICA GR50,GPS+GLO+GAL+BDS+IRNSS+SBAS,1830137,4.52/7.711,0,2022-01-24T14:40Z,LEIAR25.R4,LEIT,725281,BPA,0.0635,0.0000,0.0000,2019-05-14T18:00Z,INTERNAL,,1995-11-02/CCYY-MM-DD
RGDG00ARG,1429870.3961,-3495334.7685,-5122723.0071,-53.786,-67.752,32.800,TRIMBLE ALLOY,GPS+GLO+GAL+BDS+SBAS,5823R40011,6.16,0,2023-03-09T13:40Z,TRM59800.00,SCIS,5222354514,BPA,0.4200,0.0000,0.0000,2018-07-10T15:30Z,INTERNAL,,2013-06-20/CCYY-MM-DD
RIGA00LVA,3183899.344,1421478.378,5322810.736,56.949,24.059,35.155,LEICA GR25,GPS+GLO+GAL+BDS+SBAS,1830430,4.60/6.525,0,2022-11-01T14:30Z,LEIAR25.R4,LEIT,726676,BPA,0.0850,0.0000,0.0000,2013-12-11T15:00Z,INTERNAL,,2005-01-13/CCYY-MM-DD
RIO200ARG,1429907.7834,-3495354.8119,-5122698.6553,-53.785,-67.751,32.477,SEPT ASTERX4,GPS+GLO+GAL+BDS+SBAS,3046694,4.8.2,0,2021-01-20T11:38Z,SEPCHOKE_B3E6,NONE,5482,BPA,0.0690,0.0000,0.0000,2020-02-20T15:00Z,INTERNAL,,2007-04-28/CCYY-MM-DD
RIOP00ECU,1255140.9798,-6253585.5781,-182569.6128,-1.651,-78.651,2793.400,TRIMBLE NETRS,GPS,4927175199,1.3-2,0,2019-03-21T15:03Z,TRM41249.00,NONE,60261189,BAM,0.0729,0.0000,0.0000,2009-06-30T18:48Z,INTERNAL,,1997-03-10/(CCYY-MM-DD)
ROAG00ESP,5105577.352,-555208.925,3769714.099,36.463,-6.206,83.661,SEPT POLARX5TR,GPS+GLO+GAL+BDS+SBAS+IRNSS,3013868,5.3.2,5,2020-02-24T12:50Z,LEIAR25.R4,NONE,726362,BPA,000.0000,000.0000,000.0000,2018-02-05T00:00Z,EXTERNAL H-MASER,10 ,2018-02-05/CCYY-MM-DD
ROCK00USA,-2533220.219,-4631543.3986,3568400.542,34.236,-118.676,553.811,SEPT POLARX5,GPS+GLO+GAL+SBAS,3017808,5.3.2,0,2021-06-10T21:30Z,TWIVC6150,SCIS,VC6150L1907310012,BPA,0.1420,0.0000,0.0000,2021-06-10T21:30Z,INTERNAL,,1995-05-05/(CCYY-MM-DD)
ROTH00ATA,909246.711,-2264763.494,-5873056.98,-67.571,-68.126,40.632,LEICA GRX1200+GNSS,GPS+GLO,495029,8.71/6.405,0,2019-04-04T12:00Z,LEIAR25,LEIT,765734,BPA,0.0000,0.0000,0.0000,2009-12-14T21:15Z,INTERNAL ,1191.715,
SALU00BRA,4566947.87,-4443098.5,-286674.66,-2.593,-44.212,19.353,TRIMBLE NETR9,GPS+GLO+GAL+BDS,5750R51599,5.56,0,2022-12-20T17:08Z,TRM115000.00,NONE,1551129671,BAM,000.008,000.000,000.000,2018-04-09T14:40Z,INTERNAL QUARTZ,,2007-05-23/CCYY-MM-DD
SAMO00WSM,-6129702.2557,-890029.4165,-1516807.4422,-13.849,-171.738,77.285,SEPT POLARX5,GPS+GLO+GAL+BDS+QZSS+IRNSS,3025115,5.5.0,0,2022-11-25T00:36Z,JAVRINGANT_DM,NONE,958,BPA,000.0040,000.0000,000.0000,2017-10-04T01:20Z,INTERNAL,,2001-06-30/(CCYY-MM-DD)
SANT00CHL,1769693.588,-5044574.184,-3468320.907,-33.150,-70.669,723.491,SEPT POLARX5,GPS+GLO+GAL+BDS,3018557,5.5.0,0,2023-03-10T18:36Z,JAVRINGANT_DM,NONE,00849,BPA,0.0614,0.000,0.000,2017-01-06T00:00Z,INTERNAL,,2020-08-27/CCYY-MM-DD
SASK00CAN,-1106129.71,-3758704.03,5016675.77,52.196,-106.398,579.010,JAVAD TRE_G3TH DELTA,GPS+GLO+GAL,01458,3.7.5p1 Jan 23 2019,5,2019-07-30T17:12Z,NOV750.R4,NOVS,NDE10020019,BPA,000.0500,000.0000,000.0000,2013-08-31T00:00Z,INTERNAL,,2003-05-08
SAVO00BRA,4870283.7503,-3864605.3094,-1418872.4823,-12.939,-38.432,76.704,TRIMBLE NETR9,GPS+GLO+GAL+BDS,5750R51577,5.56,0,2022-12-20T17:05Z,TRM115000.00,NONE,1551129631,BAM,0.0010,0.0000,0.0000,2018-04-19T16:00Z,INTERNAL QUARTZ,,2007-04-24/CCYY-MM-DD
SBOK00ZAF,5279492.0167,1703114.2749,-3139092.9922,-29.669,17.879,1043.489,TRIMBLE ALLOY,GPS+GLO,6141R40050,Nav 5.44  Boot 5.44,5,2022-03-29T10:00Z,ASH701941.B,SCIS,CRL1999100113,BPA,0.0,0.0,0.0,2000-02-29T00:00Z,INTERNAL,,
SCH200CAN,1448636.93,-3385243.67,5191046.95,54.832,-66.833,498.624,JAVAD TRE_3N DELTA,GPS+GLO+GAL,02686,3.7.5p1 Jan 23 2019,5,2019-04-02T18:44Z,ASH701945E_M,NONE,CR620045048,BPA,000.1000,000.0000,000.0000,2015-08-07T03:31Z,INTERNAL,5 ,2013-01-21
SCIP00USA,-2556587.44,-4711014.03,3446241.4,32.914,-118.488,453.290,TPS NET-G3A,GPS+GLO,618-01083,3.5,0,2011-06-02T18:51Z,TPSCR.G3,SCIS,383-1839,BPA,0.0083,0.0000,0.0000,2014-10-08T20:46Z,INTERNAL,,1998-01-21/CCYY-MM-DD
SCOR00GRL,1982096.1,-798821.025,5989464.5,70.485,-21.950,128.940,SEPT POLARX5,GPS+GLO+GAL+BDS+QZSS,3014049,5.5.0,0,2022-09-08T12:33Z,LEIAR20,LEIM,49014,BAM,0.1977,0.0000,0.0000,2021-09-09T15:08Z,EXTERNAL RUBIDIUM,5 ,2004-09-12/CCYY-MM-DD
SCRZ00BOL,2743005.924,-5420745.291,-1937117.112,-17.797,-63.160,442.510,LEICA GR10,GPS+GLO+GAL+BDS+SBAS,1700881,4.12/6.712,0,2019-02-20T09:05Z,LEIAR10,NONE,14206107,BAM,0.0000,0.0000,0.0000,2012-11-17T00:00Z,INTERNAL ,,
SCTB00ATA,-1311028.8,308512.8,-6213390.9,-77.849,166.758,-18.450,TRIMBLE ALLOY,GPS+GLO+GAL+BDS+QZSS,5921R40134,5.45,0,2020-09-21T23:55Z,TRM115000.00,NONE,1441025918,BAM,0.0550,0.0000,0.0000,2019-11-01T23:52Z,INTERNAL,,2004-10-28/CCYY-MM-DD
SCUB00CUB,1474538.1759,-5811243.3797,2168958.8133,20.012,-75.762,21.436,JAVAD TRE_G3TH DELTA,GPS+GLO+GAL,204,3.7.10,0,2021-11-16T10:50Z,JAV_RINGANT_G3T,NONE,341,BAM,0.0460,0.0000,0.0000,2014-12-18T09:00Z,INTERNAL,,1995-05-31/CCYY-MM-DD
SEJN00KOR,-3110081.801,4082093.983,3775023.519,36.522,127.303,181.627,TRIMBLE NETR9,GPS+GLO+GAL,5049K72207,5.45,5,2021-08-02T00:00Z,TRM59800.00,SCIS,5109354039,BPA,0.0000,0.0000,0.0000,2012-02-15T00:00Z,INTERNAL,,2012-02-15/CCYY-MM-DD
SEY200SYC,3602867.3394,5238179.3811,-516268.0725,-4.674,55.479,539.216,SEPT POLARX5,GPS+GLO+GAL+BDS,3013491,5.5.0,0,2023-01-31T08:36Z,JAVRINGANT_DM,SCIS,02102,BPA,0.0083,0.00,0.00,2023-01-31T08:36Z,INTERNAL,,2015-02-19/CCYY-MM-DD
SEYG00SYC,3597836.0,5240884.0,-516781.0,-4.679,55.531,-37.238,SEPT POLARX5,GPS+GLO+GAL+BDS+SBAS+IRNSS,3057554,5.5.0,0,2022-12-01T11:12Z,TRM59800.00,NONE,5037353964,BPA,0.5193,-0.0011,-0.0010,2012-06-20T00:00Z,INTERNAL,,2012-06-20/CCYY-MM-DD
SFDM00USA,-2532676.4067,-4615598.8587,3588781.3303,34.460,-118.755,291.939,SEPT POLARX5,GPS+GLO+GAL+BDS+SBAS,3235839,5.5.0,0,2022-09-28T23:13Z,TRM59800.99,SCIT,4624A17075,BPA,0.0083,0.0000,0.0000,2021-04-28T19:47Z,INTERNAL,,1999-10-28/CCYY-MM-DD
SFER00ESP,5105519.055,-555146.005,3769803.246,36.464,-6.206,84.563,LEICA GR30,GPS+GLO+GAL+BDS+SBAS,1708304,4.60/7.811,0,2023-02-15T10:00Z,LEIAR25,NONE,726380,BPA,1.6260,0.0000,0.0000,2019-01-17T11:00Z,EXTERNAL CESIUM,10 ,2019-09-23/CCYY-MM-DD
SGOC00LKA,1113280.0609,6233644.2886,760276.9549, 6.892,79.874,-78.095,JAVAD TRE_3,GPS+GLO+GAL+BDS+QZSS+IRNSS+SBAS,4171601,4.2.01-220630,0,2023-01-13T14:19Z,JAVRINGANT_G5T,NONE,6076C,BAM,0.1300,0.0000,0.0000,2018-09-20T05:20Z,INTERNAL,,2011-12-12/CCYY-MM-DD
SGPO00USA,-667801.1647,-5082858.388,3782394.883,36.604,-97.485,290.586,JAVAD TRE_3S,GPS+GLO+GAL+BDS+SBAS,4745162,4.2.01-220630,0,2023-02-09T15:00Z,JAVRINGANT_G5T,NONE,3203C,BAM,0.1555,0.0000,0.0000,2019-02-04T18:30Z,INTERNAL,,2019-02-04/CCYY-MM-DD
SHAO00CHN,-2831733.583,4675665.958,3275369.41,31.100,121.200,22.505,ASHTECH UZ-12,GPS,UC2200524020,CQ00,4,2007-09-27T00:00Z,AOAD/M_T,JPLA,429,BPA,0.0814,0.0000,0.0000,1995-01-20T00:00Z,INTERNAL,,2009-12-31/CCYY-MM-DD
SHE200CAN,1899507.99,-3991722.36,4582242.82,46.221,-64.552,-14.866,TRIMBLE NETR8,GPS,5003K65317,48.01,0,2019-03-31T01:09Z,TRM29659.00,NONE,4624A17046,BPA,0.1000,0.0000,0.0000,2012-10-04T14:00Z,INTERNAL,,2004-12-02/CCYY-MM-DD
SHLG00IND,-192075.209,5749765.124,2746987.544,25.674,91.913,1007.569,TRIMBLE ALLOY,GPS+QZSS+GLO+GAL+IRNSS+BDS+SBAS,5940R40038,5.45,5,2021-06-14T15:05Z,LEIAR25.R3,NONE,10040008,BPA,000.1500,000.0000,000.0000,2021-05-21T06:52Z,N/A,N/A,N/A
SIN100SGP,-1507972.56,6195614.06,148488.0, 1.343,103.679,92.943,TRIMBLE NETR9,GPS+GLO+GAL+BDS+QZSS+SBAS,5133K77754,5.52,0,2021-09-30T07:15Z,LEIAR25.R3,LEIT,09330041,BPA,000.0000,000.0000,000.0000,2010-09-09T08:00Z,INTERNAL,,2012-02-14/CCYY-MM-DD)
SMST00JPN,-3822373.395,3699359.882,3507585.789,33.578,135.937,97.953,TRIMBLE NETR9,GPS,5427R49080,Nav 5.22 Sig 0.00,15,2021-03-23T00:01Z,TRM57971.00,NONE,00119971,BAM,1.955,0.0,0.0,2020-02-18T06:00Z,EXTERNAL NONE,,
SNI100USA,-2631346.8232,-4646278.7114,3477113.3756,33.248,-119.524,240.089,TPS NET-G3A,GPS+GLO,618-01118,4.7 Feb 21 2019 p10,5,2019-03-27T20:04Z,TPSCR.G3,SCIS,383-1866,BPA,0.0000,0.0000,0.0000,2017-08-08T17:52Z,INTERNAL,,1995-11-21/(CCYY-MM-DD)
SOD300FIN,2200149.224,1091650.85,5866868.645,67.421,26.389,301.294,JAVAD TRE_3 DELTA,GPS+GLO+GAL+BDS+SBAS,02807,4.1.05-220902,0,2022-11-03T08:50Z,JAVRINGANT_DM,SCIS,00745,BPA,0.0000,0.0000,0.0000,2012-11-05T12:00Z,INTERNAL,,2012-11-05/CCYY-MM-DD
SOFI00BGR,4319372.39,1868687.57,4292063.8,42.556,23.395,1120.009,LEICA GR50,GPS+GLO+GAL+BDS+SBAS,1831025,4.50/7.710,0,2021-05-26T09:25Z,LEIAR25.R3,LEIT,09160008,BPA,0.2200,0.0000,0.0000,2010-04-29T13:00Z,INTERNAL,,1997-05-19/CCYY-MM-DD
SOLO00SLB,-5911340.124,2156887.299,-1038664.005,-9.435,159.954,123.225,SEPT POLARX5,GPS+GLO+GAL+BDS+IRNSS+QZSS,3025121,5.5.0,0,2023-01-19T04:29Z,JAVRINGANT_DM,NONE,954,BPA,000.0010,000.0000,000.0000,2015-03-10T01:45Z,INTERNAL,,2008-06-30/(CCYY-MM-DD)
SPK100USA,-2535991.9364,-4642434.9628,3552148.2605,34.059,-118.646,440.546,SEPT POLARX5,GPS+GLO+GAL+SBAS,3052387,5.4.0,0,2022-05-04T21:30Z,TWIVC6150,SCIS,710161202002210014,BPA,0.0000,0.0000,0.0000,2022-05-12T20:40Z,INTERNAL,,1995-03-20/(CCYY-MM-DD)
SPT000SWE,3328984.813,761910.066,5369033.475,57.715,12.891,220.344,SEPT POLARX5TR,GPS+GLO+GAL+BDS+SBAS,3046430,5.5.0,0,2022-12-08T10:00Z,TRM59800.00,OSOD,5025353801,BPA,0.0710,0.0000,0.0000,2020-08-13T10:00Z,EXTERNAL H-MASER,10 ,2019-04-02/CCYY-MM-DD
SPTU00BRA,3766123.31,-4567433.46,-2367323.83,-21.929,-50.492,509.182,TRIMBLE NETR9,GPS+GLO+GAL+BDS,5239K52833,5.45,0,2020-05-13T15:08Z,TRM57971.00,NONE,5311118901,BAM,0.008,0.000,0.000,2014-07-25T00:00Z,INTERNAL,,2014-07-25/CCYY-MM-DD
SSIA00SLV,95610.0615,-6197817.1521,1500617.9412,13.697,-89.116,664.835,TRIMBLE NETR9,GPS+GLO+GAL,5041K71033,5.42,10,2020-01-24T20:22Z,TRM59800.80,SCIS,4623A16423,BPA,0.0000,0.0000,0.0000,2019-05-31T16:44Z,INTERNAL ,,
STFU00USA,-2700404.18,-4292605.52,3855137.41,37.427,-122.173,20.834,JAVAD TRE_G3TH DELTA,GPS+GLO+GAL+SBAS,00184,3.7.10,0,2020-11-02T14:10Z,TRM57971.00,NONE,30123268,BAM,000.0000,000.0000,000.0000,2009-12-09T00:00Z,EXTERNAL RUBIDIUM,10 ,2018-04-24/CCYY-MM-DD
STHL00GBR,6104817.308,-605827.996,-1740738.865,-15.943,-5.667,453.695,JAVAD TRE_3 DELTA,GPS+GLO+GAL+BDS,02219,4.1.01,0,2021-08-03T17:58Z,TPSCR.G3,SCIS,383-0150,BPA,0.0083,0.0000,0.0000,2010-03-03T00:00Z,INTERNAL,,2010-03-03/CCYY-MM-DD
STJ300CAN,2612588.6706,-3426820.6402,4686773.7555,47.595,-52.678,154.946,SEPT POLARX5TR,GPS+GLO+GAL+BDS+SBAS,3022488,5.5.0,0,2022-11-30T13:30Z,LEIAR25.R4,NONE,10231016,BPA,0.0542,0.0000,0.0000,2018-10-04T14:00Z,EXTERNAL T4Science VCH-1008 passive maser ,10,
STJO00CAN,2612631.2,-3426807.0,4686757.8,47.595,-52.678,153.238,JAVAD TRE_3N DELTA,GPS+GLO+GAL,02626,3.7.5p1 Jan 23 2019,5,2019-03-18T13:53Z,AOAD/M_T,NONE,473,BPA,000.1000,000.0000,000.0000,2022-07-21T21:36Z,EXTERNAL H-MASER,5,2022-07-21/CCYY-MM-DD
STK200JPN,-3642161.206,2861487.883,4370351.333,43.529,141.845,118.965,TRIMBLE ALLOY,GPS+GLO+GAL+QZSS,6016R40293,6.10,5,2021-08-16T11:00Z,TRM59800.00,SCIS,5015353788,BPA,0.0,0.0,0.0,2012-02-14T01:12Z,EXTERNAL CESIUM,10,2003-05-23
STPM00SPM,2436208.256,-3634804.894,4624885.452,46.778,-56.168, 0.903,TRIMBLE NETR9,GPS+GLO+GAL+BDS+SBAS,5046K71749,4.85,0,2022-09-26T15:00Z,TRM57971.00,NONE,5311118375,BAM,3.0434,0.0000,0.0000,2013-06-06T00:00Z,INTERNAL,,2013-06-20/CCYY-MM-DD
STR100AUS,-4467103.1933,2683039.4751,-3666948.7457,-35.316,149.010,800.334,SEPT POLARX5,GPS+GLO+GAL+BDS+QZSS+IRNSS,3078707,5.5.0,0,2022-10-30T23:08Z,ASH701945C_M,NONE,CR620023911,BPA,000.0040,000.0000,000.0000,2003-11-07T00:00Z,EXTERNAL CESIUM,10 ,2012-01-17/(CCYY-MM-DD)
STR200AUS,-4467075.2351,2683011.847,-3667007.0408,-35.316,149.010,802.869,TRIMBLE ALLOY,GPS+GLO+GAL+BDS+QZSS,6135R40066,6.15,0,2022-11-01T00:37Z,LEIAR25.R3,NONE,09330026,BAM,000.0000,000.0000,000.0000,2017-11-27T00:00Z,INTERNAL,,1998-06-15/(CCYY-MM-DD)
SULP00UKR,3765296.991,1677559.204,4851297.409,49.836,24.014,370.957,TRIMBLE NETR9,GPS+GLO+GAL+BDS+SBAS,5342K46290,5.45,0,2020-12-18T00:00Z,TPSCR.G5,TPSH,11138,BPA,4.7290,0.0000,0.0000,2013-03-30T11:16Z,INTERNAL,,2001-06-01/CCYY-MM-DD
SUTH00ZAF,5041274.8417,1916054.1204,-3397075.9716,-32.380,20.810,1800.182,SEPT POLARX5,GPS+GLO+GAL+BDS,3013582,5.5.0,0,2023-03-10T18:58Z,ASH701945G_M,NONE,CR6200342011,BPA,0.084,0.000,0.000,2004-06-01T00:00Z,INTERNAL,,1997-12-05/CCYY-MM-DD
SUTM00ZAF,5041190.169,1916067.017,-3397189.514,-32.381,20.811,1798.017,JAVAD TRE_3,GPS+GLO+GAL+BDS+IRNSS+SBAS,4171748,4.2.01-220630,0,2023-01-17T14:32Z,JAVRINGANT_G5T,NONE,6082C,BAM,0.1300,0.0000,0.0000,2019-05-10T11:00Z,INTERNAL,,2008-04-25/CCYY-MM-DD
SUWN00KOR,-3062023.4156,4055449.1662,3841819.3768,37.276,127.054,84.353,TRIMBLE NETR9,GPS+GLO+GAL,5302K41501,5.37,5,2021-08-04T05:25Z,TRM59800.80,SCIS,0220170420,BPA,1.570,0.000,0.000,2018-02-05T00:00Z,EXTERNAL CESIUM,10 ,2010-03-05/CCYY-MM-DD
SVTL00RUS,2730156.0,1562365.0,5529989.0,60.533,29.781,77.227,JAVAD TRE_3 DELTA,GPS+GLO+GAL,02683,3.7.2 Aug 31 2017,3,2019-10-03T10:00Z,JAVRINGANT_DM,JVDM,00324,BPA,0.0285,0.0000,0.0000,2019-10-03T10:00Z,EXTERNAL H-MASER CH1-80,5 ,2008-10-23/CCYY-MM-DD
SYDN00AUS,-4648240.8472,2560636.4409,-3526317.7772,-33.781,151.150,85.973,SEPT POLARX5TR,QZSS+GPS+GLO+GAL+BDS,3055078,5.5.0,0,2022-11-01T01:21Z,ASH701945C_M,NONE,CR519994908,BPA,000.0300,000.0000,000.0000,2004-05-05T00:00Z,EXTERNAL CESIUM,10 ,2015-07-15/(CCYY-MM-DD)
SYOG00ATA,1766207.8686,1460290.3801,-5932297.7652,-69.007,39.584,50.539,TRIMBLE ALLOY,GPS+GLO+GAL+QZSS,5804R40006,6.15,5,2023-02-13T00:00Z,TRM159900.00,SCIS,5925338542,BPA,0.0,0.0,0.0,2020-01-18T00:00Z,EXTERNAL CESIUM,10,2008-01-27
TABL00USA,-2448550.1126,-4668099.0769,3582741.024,34.382,-117.678,2228.447,TRIMBLE NETR9,GPS+GLO+SBAS,5303K57287,5.37,5,2019-08-19T22:00Z,TRM57971.00,NONE,5000115197,BAM,0.1256,0.0000,0.0000,2013-11-21T20:45Z,INTERNAL,,1995-10-19/CCYY-MM-DD
TANA00ETH,4970747.7784,3790687.1134,1271109.0376,11.569,37.329,1851.365,LEICA GR25,GPS+GLO,1831151,3.22/6.521,0,2016-02-16T11:11Z,LEIAR25.R4,LEIT,726669,BPA,0.0762,0.0000,0.0000,2013-11-30T00:00Z,INTERNAL ,,
TASH00UZB,1695945.1994,4487138.5684,4190140.6931,41.328,69.296,440.123,SEPT ASTERX4,GPS+GLO+GAL+BDS+QZSS+IRNSS+SBAS,3046856,4.8.2,0,2021-01-20T11:39Z,SEPCHOKE_B3E6,NONE,5483,BPA,0.1206,0.0000,0.0000,2020-09-24T12:30Z,EXTERNAL RUBIDIUM,5 ,2003-05-15/CCYY-MM-DD
TCMS00TWN,-2982782.8539,4966660.1585,2658809.4594,24.798,120.987,77.670,TRIMBLE NETR9,GPS,5704R51245,5.15,4,2021-06-23T01:00Z,LEIAT504,NONE,720,BPA,0.0000,,,2002-08-22T01:00Z,INTERNAL,,2001-06-12/CCYY-MM-DD
TDOU00ZAF,5064840.8313,2969624.4192,-2485110.0433,-23.080,30.384,630.627,TRIMBLE ALLOY,GPS+GLO,6042R40128,Nav 5.44 / Boot 5.44,5,2021-11-17T00:00Z,LEIAT504,LEIS,102704,BPA,0.0,0.0,0.0,2008-02-14T00:00Z,INTERNAL,,
TEHN00IRN,3240499.403,4049740.323,3701663.005,35.697,51.334,1194.993,HI-TARGET VNET8,GPS+GLO,11364464,2.9.17,10,2022-04-19T06:30Z,HITAT45101CP,HITZ,,BAM,0.0000,0.0000,0.0000,2022-04-19T06:30Z,INTERNAL,,1999-12-01/CCYY-MM-DD
THTG00PYF,-5246414.0,-3077260.0,-1913842.0,-17.577,-149.606,97.107,SEPT POLARX5TR,GPS+GLO+GAL+BDS+QZSS+SBAS,3014247,5.5.0,0,2022-12-01T10:36Z,LEIAR25.R3,LEIT,10210021,BPA,1.0500,0.0000,0.0000,2011-01-13T00:00Z,EXTERNAL CESIUM,10,
THTI00PYF,-5246415.8134,-3077260.6338,-1913841.9696,-17.577,-149.606,98.895,TRIMBLE NETR9,GPS+GLO+GAL+BDS+SBAS,5048K71845,5.56,0,2023-03-09T10:40Z,ASH701945E_M,NONE,CR5200327039,BPA,1.0470,0.0000,0.0000,2004-01-13T00:00Z,INTERNAL,,2010-11-24/CCYY-MM-DD
THU200GRL,538093.193,-1389088.13,6180979.36,76.537,-68.825,36.674,SEPT POLARX5,GPS+GLO+GAL+BDS+QZSS,3234350,5.5.0,0,2022-09-08T12:24Z,ASH701073.1,SCIS,G0111,BPA,000.1002,000.0000,000.0000,2000-11-17T18:00Z,INTERNAL,,2019-05-04/CCYY-MM-DD
TID100AUS,-4460996.9502,2682557.08,-3674442.6274,-35.399,148.980,665.725,SEPT POLARX5,GPS+GLO+GAL+BDS+QZSS,3012244,5.5.0,0,2022-11-01T04:05Z,AOAD/M_T,NONE,402,BPA,000.0614,000.0000,000.0000,2016-08-04T01:00Z,EXTERNAL H-MASER,10 ,2009-09-22/(CCYY-MM-DD)
TIDB00AUS,-4460996.4047,2682557.0885,-3674443.393,-35.399,148.980,665.791,ASHTECH UZ-12,GPS,UC2200524011,CQ00,,2010-07-05T00:00Z,AOAD/M_T,NONE,402,BPA,0.0614,0.0000,0.0000,2016-08-04T01:00Z,EXTERNAL H-MASER,5 ,
TIT200DEU,3993787.1,450204.2,4936131.8,51.035, 6.432,156.532,JAVAD TRE_3 DELTA,GPS+GLO+GAL+BDS+SBAS,02909,4.1.06-221128,0,2023-02-08T09:55Z,LEIAR25.R4,LEIT,725551,BPA,0.0450,0.0000,0.0000,2019-11-13T10:15Z,INTERNAL,,2014-12-10/CCYY-MM-DD
TIXI00RUS,-1264872.963,1569455.814,6031003.388,71.634,128.866,47.435,JPS EGGDT,GPS+GLO,8RLTBTENFGG,2.7.0 Mar 31 2008,,2010-10-20T17:00Z,TPSCR3_GGD,NONE,00263,BPA,0.0792,0.0000,0.0000,2010-10-20T17:00Z,INTERNAL,,
TLSE00FRA,4627851.899,119638.546,4372993.537,43.561, 1.481,207.626,TRIMBLE ALLOY,GPS+GLO+GAL+BDS+SBAS+IRNSS,6139R40106,6.16,0,2023-03-09T14:33Z,TRM59800.00,NONE,5129354206,BPA,1.0530,0.0000,0.0000,2016-03-21T11:00Z,INTERNAL,,2009-10-23/CCYY-MM-DD
TLSG00FRA,4628685.095,119996.724,4372110.007,43.550, 1.485,209.169,SEPT POLARX5TR,GPS+GLO+GAL+BDS+SBAS+IRNSS,3014248,5.5.0,0,2022-11-15T13:10Z,TRM59800.00,NONE,5111354062,BPA,0.4410,0.0000,0.0000,2014-02-12T00:00Z,EXTERNAL CESIUM,10 ,2014-02-14/CCYY-MM-DD
TNML00TWN,-2982779.0389,4966662.6552,2658805.7381,24.798,120.987,76.269,TRIMBLE NETR9,GPS+GLO+GAL,5705R51339,5.15,4,2019-07-17T00:00Z,TRM115000.00,NONE,1440905709,BAM,1.5770,0.0000,0.0000,2019-07-17T00:00Z,EXTERNAL RUBIDIUM,5 ,2005-05-13/CCYY-MM-DD
TONG00TON,-5930303.7231,-500147.2009,-2286366.2029,-21.145,-175.179,56.732,SEPT POLARX5,GPS+BDS+GLO+QZSS+GAL,3013233,5.5.0,0,2022-11-01T03:45Z,TRM59800.00,NONE,4844A59860,BPA,000.0030,000.0000,000.0000,2017-01-09T00:00Z,INTERNAL,,2002-02-18/(CCYY-MM-DD)
TOPL00BRA,4174345.6,-4690236.73,-1118921.27,-10.171,-48.331,256.929,TRIMBLE NETR9,GPS+GLO+GAL+BDS,5750R51570,5.56,0,2022-12-20T16:21Z,TRM115000.00,NONE,1551129606,BAM,0.0080,0.0000,0.0000,2018-05-25T16:19Z,INTERNAL ,,
TORP00USA,-2517894.5535,-4670259.8838,3527827.6264,33.798,-118.331,-4.798,SEPT POLARX5,GPS+GLO+GAL+SBAS,3052252,5.3.2,0,2021-09-20T22:05Z,TWIVC6150,SCIS,VC6150L1910310004,BPA,0.1145,0.0000,0.0000,2021-09-21T22:00Z,INTERNAL,,1997-03-03/CCYY-MM-DD
TOW200AUS,-5054583.3956,3275504.1124,-2091538.4655,-19.269,147.056,88.503,SEPT POLARX5,GPS+QZSS+GLO+GAL+BDS,3048330,5.5.0,0,2022-11-01T01:20Z,LEIAR25.R3,NONE,09310016,BPA,000.0033,000.0000,000.0000,2013-01-22T00:00Z,INTERNAL,,2008-09-29/(CCYY-MM-DD)
TRAK00USA,-2480029.62,-4703110.48,3511298.77,33.618,-117.803,115.950,TPS NET-G3A,GPS+GLO,618-01033,4.7p6,0.,2019-04-02,TPSCR.G3,SCIT,383-1754,BPA,0.5800,,,2011-05-25T23:48Z,INTERNAL,,1994-06-02/CCYY-MM-DD
TRO100NOR,2102929.0,721619.0,5958196.0,69.663,18.940,138.415,TRIMBLE NETR9,GPS+GLO+GAL+BDS,5607R50071,5.52,0,2021-11-25T17:40Z,TRM59800.00,SCIS,5007353748,BPA,0.0000,0.0000,0.0000,2010-07-26T16:52Z,INTERNAL,,2022-05-07/CCYY-MM-DD
TSK200JPN,-3957184.109,3310231.726,3737703.956,36.106,140.087,70.350,TRIMBLE ALLOY,GPS+GLO+GAL+QZSS,6042R40142,6.15,5,2022-09-12T12:00Z,TRM159900.00,NONE,5938338714,BPA,0.0,0.0,0.0,2021-05-26T04:45Z,EXTERNAL H-MASER,10,2012-12-19
TSKB00JPN,-3957199.24,3310199.668,3737711.708,36.106,140.087,67.677,TRIMBLE ALLOY,GPS+GLO+QZSS,6032R40037,6.15,5,2022-10-18T00:00Z,AOAD/M_T,DOME,312,BPA,0.0,0.0,0.0,2017-05-17T08:20Z,EXTERNAL CESIUM,10,2017-04-24
TUBI00TUR,4211318.522,2377865.759,4144664.456,40.787,29.451,222.255,TRIMBLE 5700,GPS,220403445,2.32 / 2.32,0,2019-04-01T11:36Z,TRM29659.00,UNAV,145524,BPA,1.4260,0.0000,0.0000,1999-01-07T00:00Z,INTERNAL,,1998-05-07/CCYY-MM-DD
TUVA00TUV,-6307543.7662,88454.3221,-939278.1193,-8.525,179.197,38.826,SEPT POLARX5,GPS+GAL+GLO+BDS+QZSS+SBAS+IRNSS,3025061,5.5.0,0,2023-02-15T03:43Z,JAVRINGANT_DM,NONE,00688,BPA,000.0025,000.0000,000.0000,2017-11-09T04:57Z,INTERNAL,,2002-05-12/(CCYY-MM-DD)
TWTF00TWN,-2994425.04,4951312.24,2674498.6,24.954,121.164,203.529,SEPT POLARX4TR,GPS+GLO+GAL+BDS+QZSS+SBAS,3008014,2.9.6,10,2020-10-06T02:00Z,ASH701945C_M,SCIS,CR620012101,BPA,0.0,0.0,0.0,2001-08-01,EXTERNAL STEERED H-MASER,10,2004-12-21/CCYY-MM-DD
UCAL00CAN,-1641945.2,-3664804.1,4940009.3,51.080,-114.134,1119.238,TRIMBLE NETR9,GPS+GLO+GAL+BDS+QZSS+SBAS,5230K51053,5.56,0,2023-01-19T14:40Z,TRM57971.00,NONE,5000112670,BAM,000.1500,000.0000,000.0000,2013-08-21T05:00Z,INTERNAL,,2013-08-21T05:00Z
UCLP00USA,-2519007.2327,-4650672.3153,3552862.7886,34.069,-118.442,111.960,TPS NET-G3A,GPS+GLO,618-00933,4.7 Feb 21 2019 p10,5,2019-03-27T21:03Z,TPSCR.G3,SCIS,383-1913,BPA,0.0250,0.0000,0.0000,2012-09-21T19:56Z,INTERNAL,,1994-09-07/(CCYY-MM-DD)
UCLU00CAN,-2440669.042,-3416437.062,4785136.849,48.926,-125.542,10.487,SEPT POLARX5,GPS+GLO+GAL+BDS,3016064,5.3.2,0,2021-03-29T00:00Z,SEPCHOKE_B3E6,SPKE,5132,BPA,0.0771,0.000,0.000,2018-03-22T01:04Z,INTERNAL CLOCK,,2001-12-05/CCYY-MM-DD
UFPR00BRA,3763751.676,-4365113.8613,-2724404.579,-25.448,-49.231,926.179,TRIMBLE NETR9,GPS+GLO+GAL+BDS,5750R51572,5.56,0,2022-12-20T16:21Z,TRM115000.00,NONE,1551129613,BAM,000.100,000.000,000.000,2018-04-04T15:30Z,INTERNAL,,2007-05-08/CCYY-MM-DD
ULAB00MNG,-1257408.9234,4099404.3974,4707992.6715,47.865,107.052,1576.101,JAVAD TRE_3,GPS+GLO+GAL+BDS+QZSS+IRNSS+SBAS,1480898,4.2.01-220630,0,2023-01-19T09:32Z,JAVRINGANT_G5T,NONE,6090C,BAM,0.1206,0.0000,0.0000,2018-09-20T05:22Z,INTERNAL,,2000-11-11/CCYY-MM-DD
ULDI00ZAF,4796680.9045,2930311.4777,-3005435.8146,-28.293,31.421,608.362,TRIMBLE NETR9,GPS+GLO,5739R51173,Nav 5.30 / Boot 5.30,5,2018-02-10T10:00Z,ASH701941.B,SCIS,CRL1999100139,BPA,0.0000,0.0000,0.0000,2000-02-29T00:00Z,INTERNAL,,2006-08-29/CCYY-MM-DD
UNB300CAN,1761288.2,-4078238.6,4561417.8,45.950,-66.642,23.320,TRIMBLE ALLOY,GPS+GLO+GAL+BDS+SBAS,5922R40051,6.16,0,2023-03-03T05:03Z,TRM57971.00,NONE,5311118062,BAM,0.3145,0.,0.,2012-06-01T14:30Z,INTERNAL,,
UNBD00CAN,1761305.9,-4078238.57,4561411.35,45.950,-66.641,23.545,SEPT POLARX5S,GPS+GLO+GAL+BDS+SBAS,3055097,5.5.0,0,2022-09-07T05:45Z,TRM55971.00,NONE,30217879,BAM,000.0000,000.0000,000.0000,2013-08-08T14:00Z,INTERNAL,,2009-02-01/CCYY-MM-DD
UNBJ00CAN,1761288.1,-4078238.6,4561417.7,45.950,-66.642,23.221,TPS LEGACY,GPS+GLO,MT312140408,2.6.1 Jan 10 2008,-90,2010-01-15T00:00Z,TRM57971.00,NONE,5311118062,BAM,0.3145,,,2012-06-01T14:30Z,INTERNAL,,
UNBN00CAN,1761288.2,-4078238.6,4561417.8,45.950,-66.642,23.320,NOV OEM6,GPS+GLO+SBAS,BFN12250037,OEM060730RN0000,0,2018-01-19T15:13Z,TRM57971.00,NONE,5311118062,BAM,0.3145,0,0,2012-06-01T14:30Z,INTERNAL,,
UNSA00ARG,2412830.4245,-5271936.73,-2652209.0548,-24.727,-65.408,1258.213,SEPT ASTERX4,GPS+GLO+GAL+BDS+SBAS,3046445,4.8.2,0,2021-05-27T08:34Z,SEPCHOKE_B3E6,NONE,5470,BPA,0.1300,0.0000,0.0000,2020-02-17T15:00Z,INTERNAL,,1995-01-26/CCYY-MM-DD
URAL00RUS,1716013.966,3047281.697,5316302.551,56.838,60.615,278.057,TRIMBLE R9S,GPS+GLO+GAL+QZSS+SBAS,5549R00600,5.37,5,2021-07-07T00:00Z,CHCC220GR2,CHCD,2016040060,BPA,0.075,0.0000,0.0000,2016-12-16T00:00Z,INTERNAL,,2017-07-20/CCYY-MM-DD
URUM00CHN,193030.2318,4606851.332,4393311.5615,43.808,87.601,859.352,JAVAD TRE_3,GPS+GLO+GAL+BDS+QZSS+IRNSS+SBAS,4171718,4.2.01-220630,0,2023-01-19T09:44Z,JAVRINGANT_G5T,NONE,6070C,BAM,0.0460,0.0000,0.0000,2017-11-01T09:00Z,INTERNAL,,1998-04-01/CCYY-MM-DD
USCL00CHL,1762489.887,-5027632.74,-3496009.235,-33.450,-70.681,570.606,SEPT POLARX5,GPS+GLO+GAL+BDS+SBAS,3075024,5.5.0-beta2,0,2022-12-05T10:52Z,SEPCHOKE_B3E6,SPKE,5856,BPA,0.0343,0.0000,0.0000,2021-09-05T00:00Z,INTERNAL,,2021-09-05T00:00Z
USN700USA,1112162.138,-4842854.667,3985497.066,38.921,-77.066,59.346,SEPT POLARX5TR,GPS+GLO+GAL+BDS,3013939,5.5.0,0,2023-03-21T17:41Z,TPSCR.G5,TPSH,762-11615,BPA,0.0000,0.0000,0.0000,2014-11-12T11:00Z,EXTERNAL H-MASER,10,
USN800USA,1112162.138,-4842854.667,3985497.066,38.921,-77.066,59.346,SEPT POLARX5TR,GPS+GLO+GAL+BDS+SBAS,4701171,5.2.0,0,2019-04-03T07:50Z,TPSCR.G5,TPSH,762-11615,BPA,0.0,0.0,0.0,2014-11-12T11:00Z,EXTERNAL H-MASER,10 ,1998-03-24/CCYY-MM-DD
USN900USA,1112162.138,-4842854.667,3985497.066,38.921,-77.066,59.346,NOV OEM6,GPS+GLO+GAL+BDS+SBAS,NMCP13390014M,OMP060601RN0000,5,2020-11-13T15:59Z,TPSCR.G5,TPSH,762-11615,BPA,0.0,0.0,0.0,2014-11-12T11:00Z,EXTERNAL H-MASER,10 ,1998-03-24/CCYY-MM-DD
USP100FJI,-6060627.2843,164379.897,-1974093.2186,-18.149,178.446,70.966,PANDA PD51A,GPS+GLO+GAL+BDS,PD51A18C30024,5.0.0,5,2019-12-01T00:00Z,HXCCGX601A,HXCS,C1802000118,BAM,3.2000,0.0000,0.0000,2019-12-01T00:00Z,INTERNAL,,2019-12-01/CCYY-MM-DD
USUD00JPN,-3855263.0361,3427432.5571,3741020.2929,36.133,138.362,1509.039,SEPT POLARX5,GPS+GLO+GAL+BDS+QZSS,3025546,5.5.0,0,2023-03-10T19:48Z,AOAD/M_T,JPLA,121,BPA,-0.035,0.000,0.000,1993-07-20T00:00Z,EXTERNAL H-MASER,10 ,2019-02-15/CCYY-MM-DD
UTQI00USA,-1880399.9215,-813136.6979,6019921.5735,71.323,-156.615,12.565,JAVAD TR_G3TH,GPS+GLO+GAL,70155,4.2.01-220630,0,2023-01-19T09:35Z,JAV_GRANT-G3T,NONE,1721,BAM,0.0000,0.0000,0.0000,2018-12-20T23:30Z,INTERNAL,,2017-07-29/CCYY-MM-DD
UZHL00UKR,3907587.6652,1602428.5337,4763783.6858,48.632,22.298,232.475,NOV OEMV3,GPS+GLO,50014,3.905,0,2013-11-12T07:48Z,NOV702GG,NONE,90006,BAM,0.0063,0.0000,0.0000,2013-11-12T07:48Z,INTERNAL,,1999-02-05/CCYY-MM-DD
VACS00MUS,3215946.33,5047448.47,-2198719.6,-20.297,57.497,420.750,SEPT POLARX5,GPS+GLO+GAL+BDS+QZSS+IRNSS,3013412,5.5.0,0,2023-03-10T20:42Z,JAVRINGANT_DM,NONE,00850,BPA,0.2500,0.0000,0.0000,2018-06-21T00:00Z,INTERNAL,,2008-04-07/CCYY-MM-DD
VALD00CAN,919075.83,-4167766.23,4724323.53,48.097,-77.564,313.205,TPS NET-G5,GPS+GLO,1294-11320,5.2.2 Dec 06 2018,5,2019-03-14T18:46Z,TPSCR.G3,NONE,383-0466,BPA,000.1000,000.0000,000.0000,2017-06-07T13:50Z,INTERNAL,5,2001-12-04
VILL00ESP,4849833.874,-335049.255,4116014.809,40.444,-3.952,647.835,SEPT POLARX5,GPS+GLO+GAL+BDS+SBAS,4503035,5.4.0,0,2021-01-19T12:00Z,SEPCHOKE_B3E6,NONE,5674,BPA,0.0937,0.0000,0.0000,2020-01-07T12:30Z,EXTERNAL CESIUM,10 ,2012-12-27/CCYY-MM-DD
VIS000SWE,3246470.561,1077900.313,5365277.902,57.654,18.367,80.218,SEPT POLARX5,GPS+GLO+GAL+BDS+SBAS,3048055,5.5.0,0,2022-12-08T10:00Z,AOAD/M_T,OSOD,253,BPA,0.0710,0.0000,0.0000,1996-11-08,INTERNAL,,2018-02-14/CCYY-MM-DD
VNDP00USA,-2678090.1164,-4525437.3954,3597431.7369,34.556,-120.616,-11.085,SEPT POLARX5,GPS+GLO+GAL+BDS+QZSS+SBAS,3074018,5.5.0,0,2022-09-30T03:01Z,TRM59800.00,SCIS,4925353344,BPA,1.7480,0.0000,0.0000,2015-07-27T22:00Z,INTERNAL,,1992-05-25/CCYY-MM-DD
VOIM00MDG,4054014.146,4316070.229,-2365224.017,-21.906,46.793,1163.786,JAVAD TR_G3TH,GPS+GLO+GAL,1278952,4.2.01-220630,0,2023-01-19T09:47Z,JAV_RINGANT_G3T,NONE,338,BAM,0.1300,0.0000,0.0000,2013-05-01T00:00Z,INTERNAL,,2013-05-01/CCYY-MM-DD
WAB200CHE,4327318.0,566956.0,4636426.0,46.924, 7.464,611.544,SEPT POLARX5TR,GPS+GAL,3021141,5.3.2,0,2020-03-03T11:13Z,SEPCHOKE_B3E6,SPKE,5168,BPA,1.3327,0.0000,0.0000,2017-09-15T00:00Z,EXTERNAL UTC(CH) Master Clock,10,
WARK00NZL,-5115333.2299,477886.9079,-3767147.473,-36.434,174.663,111.710,TRIMBLE ALLOY,GPS+GLO+GAL+BDS+QZSS,5921R40150,5.45,0,2020-09-22T10:07Z,TRM115000.00,NONE,1551016808,BAM,0.002,0.000,0.000,2019-09-26T01:03Z,EXTERNAL H-MASER,10 ,2013-03-05/CCYY-MM-DD
WARN00DEU,3658785.6,784471.1,5147870.7,54.170,12.101,51.174,JAVAD TRE_3 DELTA,GPS+GLO+GAL+BDS+SBAS,02890,4.1.06-221128,0,2023-02-08T09:59Z,LEIAR25.R4,LEIT,725559,BPA,0.0690,0.0000,0.0000,2019-05-13T11:00Z,INTERNAL,,2003-02-11/CCYY-MM-DD
WDC500USA,1112158.868,-4842855.614,3985496.946,38.921,-77.066,59.419,NOV OEM6,GPS,NR048,D28CBA70,0,2021-10-22T00:00Z,TPSCR.G5,TPSH,762-11833,BPA,0.0000,0.0000,0.0000,2015-08-28T00:00Z,EXTERNAL H-MASER,5 ,2010-06-10/CCYY-MM-DD
WDC600USA,1112158.868,-4842855.614,3985496.946,38.921,-77.066,59.419,NOV OEM6,GPS,NR052,D28CBA70,0,2021-10-22T00:00Z,TPSCR.G5,TPSH,762-11833,BPA,0.0000,0.0000,0.0000,2015-08-28T00:00Z,EXTERNAL H-MASER,5 ,2010-06-10/CCYY-MM-DD
WES200USA,1492233.247,-4458089.489,4296046.035,42.613,-71.493,85.439,TRIMBLE ALLOY,GPS+GLO+GAL,6026R40020,NP 6.16 / SP 5.56,0,2023-01-27T17:49Z,TWIVC6150,SCIS,202109220004,BPA,0.0000,0.0000,0.0000,2021-10-28T18:00Z,EXTERNAL H-MASER,10,2021-02-26/CCYY-MM-DD
WGTN00NZL,-4777269.46,434270.155,-4189484.491,-41.323,174.806,26.486,TRIMBLE ALLOY,GPS+GLO+GAL+BDS+QZSS,5921R40132,5.45,0,2020-09-22T09:39Z,TRM115000.00,NONE,1551016811,BAM,0.0550,0.0000,0.0000,2020-02-14T01:16Z,INTERNAL,,1996-05-17/CCYY-MM-DD
WHC100USA,-2488199.3244,-4673487.1517,3544649.2637,33.980,-118.031,94.665,TPS NET-G3A,GPS+GLO,618-01123,4.7 Feb 21 2019 p10,5,2019-03-27T21:26Z,TPSCR.G3,SCIS,383-1860,BPA,0.0000,0.0000,0.0000,2012-03-12T22:57Z,INTERNAL,,1995-03-14/(CCYY-MM-DD)
WHIT00CAN,-2218337.85,-2201205.06,5543057.57,60.751,-135.222,1427.808,SEPT POLARX5,GPS+GLO+GAL,3061628,5.3.2,5,2021-06-22T18:13Z,AOAD/M_T,NONE,289,BPA,000.1000,000.0000,000.0000,2011-06-28T18:03Z,INTERNAL,5,2020-08-08
WIDC00USA,-2354850.17,-4745524.01,3540693.1,33.935,-116.392,445.462,TRIMBLE NETR9,GPS+GLO+SBAS,5250K54799,5.37,5,2021-02-25T00:00Z,TRM57971.00,NONE,5000115156,BAM,0.0083,0.0000,0.0000,2013-11-19T21:10Z,INTERNAL,,1997-09-30/CCYY-MM-DD
WILL00CAN,-2084258.016,-3313872.98,5019853.081,52.237,-122.168,1096.093,SEPT POLARX5,GPS+GLO+GAL+BDS,3227988,5.3.2,0,2021-08-31T23:13Z,SEPCHOKE_B3E6,SPKE,5146,BPA,0.0771,0.0000,0.0000,2021-08-31T23:13Z,INTERNAL,,2003-05-06/CCYY-MM-DD
WIND00NAM,5633708.7802,1732017.696,-2433985.8026,-22.575,17.089,1735.083,JAVAD TRE_3,GPS+GLO+GAL+BDS+IRNSS+SBAS,4171656,4.2.01-220630,0,2023-01-19T09:54Z,JAVRINGANT_G5T,NONE,3374C,BAM,0.1206,0.0000,0.0000,2021-03-04T14:00Z,INTERNAL,,2003-06-24/CCYY-MM-DD
WLSN00USA,-2483640.9494,-4660072.8425,3568172.1952,34.226,-118.056,1705.679,SEPT POLARX5,GPS+GLO+GAL+SBAS,3052264,5.4.0,0,2021-11-05T00:00Z,TWIVC6150,NONE,VC6150L1910310012,BPA,0.0614,0.0000,0.0000,2021-11-05T00:00Z,INTERNAL,,1994-07-18/(CCYY-MM-DD)
WROC00POL,3835751.0,1177249.0,4941605.0,51.113,17.062,180.697,LEICA GR50,GPS+GLO+GAL+BDS+QZSS+SBAS,1830242,4.50/7.710,0,2021-08-13T10:54Z,LEIAR25.R4,LEIT,725270,BPA,0.0000,0.0000,0.0000,2012-10-22T11:01Z,INTERNAL,,2008-09-12/CCYY-MM-DD
WSRT00NLD,3828739.0,443305.0,5064887.0,52.915, 6.605,86.424,SEPT POLARX5,GPS+GLO+GAL+BDS+QZSS+IRNSS+SBAS,3024778,5.3.2,0,2020-02-18T19:15Z,AOAD/M_T,DUTD,273,BPA,0.3888,0.0000,0.0000,1998-03-17T15:09Z,INTERNAL,,2019-02-13/CCYY-MM-DD
WTZ300DEU,4075535.3,931822.185,4801608.915,49.145,12.879,663.837,JAVAD TRE_G3TH DELTA,GPS+GLO+GAL+SBAS,00982,3.7.6,5,2019-04-11T10:00Z,LEIAR25.R3,LEIT,10020020,BPA,000.0560,000.0000,000.0000,2010-06-30T13:30Z,EXTERNAL H-MASER EFOS 39,10 ,2010-05-12/CCYY-MM-DD
WTZA00DEU,4075578.494,931852.658,4801569.946,49.144,12.879,666.350,SEPT POLARX2,GPS,1219,2.6.0,0,2017-08-03T14:50Z,ASH700936C_M,SNOW,12118,BPA,0.0450,0.0000,0.0000,2021-06-08T09:30Z,EXTERNAL CESIUM,20 ,2004-02-03/CCYY-MM-DD
WTZR00DEU,4075580.685,931853.66,4801568.054,49.144,12.879,666.462,LEICA GR50,GPS+GLO+GAL+BDS+IRNSS+SBAS,1831551,4.50/7.710,0,2021-05-18T12:30Z,LEIAR25.R3,LEIT,10020031,BPA,0.0710,0.0000,0.0000,2010-06-30T08:00Z,EXTERNAL H-MASER EFOS 18,5 ,2013-05-13/CCYY-MM-DD
WTZS00DEU,4075535.3,931822.185,4801608.915,49.145,12.879,663.837,SEPT POLARX5TR,GPS+GLO+GAL+BDS+IRNSS+SBAS,3022895,5.4.0,0,2021-09-21T13:00Z,LEIAR25.R3,LEIT,10020020,BPA,0.0560,0.0000,0.0000,2021-09-21T13:00Z,EXTERNAL CESIUM,10 ,2016-03-03/CCYY-MM-DD
WTZZ00DEU,4075579.269,931853.281,4801569.136,49.144,12.879,666.322,JAVAD TRE_3 DELTA,GPS+GLO+GAL+BDS+SBAS,1ZAHJWR29YJ3L0QDSPVJ,4.1.03-210713,0,2021-09-01T12:00Z,LEIAR25.R3,LEIT,10240011,BPA,0.2840,0.0000,0.0000,2015-07-13T10:00Z,EXTERNAL H-MASER EFOS 18,5 ,2019-03-14/CCYY-MM-DD
WUH200CHN,-2267749.0,5009154.0,3221290.0,30.532,114.357,25.541,JAVAD TRE_3,GPS+GLO+GAL+BDS+QZSS+IRNSS+SBAS,1480954,4.2.01+b0-211122,0,2021-11-25T06:18Z,JAVRINGANT_G5T,NONE,3354C,BAM,0.1206,0.0000,0.0000,2018-11-02T06:00Z,INTERNAL,,2011-06-08/CCYY-MM-DD
WUHN00CHN,-2267750.266,5009156.142,3221291.898,30.532,114.357,28.635,TRIMBLE NETR9,GPS+GLO+BDS,5137K78296,4.85,5,2018-05-05T00:00Z,TRM59800.00C,ENCL,4917353043,BPA,2.3612,-0.0094,-0.0022,2016-09-21T01:40Z,EXTERNAL RUBIDIUM CLOCK STEERED BY GPS,10 ,2011-03-23/CCYY-MM-DD
WUTH00NOR,1386490.169,385514.005,6192887.206,77.003,15.539,52.698,SEPT POLARX5S,GPS+GLO+GAL+BDS+QZSS+IRNSS+SBAS,3022664,5.4.0,0,2020-09-04T15:30Z,SEPCHOKE_B3E6,SPKE,5195,BPA,0.0910,0.0000,0.0000,2020-09-04T15:30Z,INTERNAL,,2020-09-05/CCYY-MM-DD
XMIS00AUS,-1696344.7528,6039590.0108,-1149275.0817,-10.450,105.689,261.917,TRIMBLE NETR9,QZSS+GPS+GLO+GAL+BDS,5211K83159,5.44,0,2020-04-03T05:50Z,JAVRINGANT_DM,NONE,00955,BPA,000.0005,000.0000,000.0000,2017-04-10T00:00Z,INTERNAL,,2005-07-01/(CCYY-MM-DD)
YAKT00RUS,-1914998.836,2308241.52,5610225.578,62.031,129.680,103.813,JAVAD TRE_3N DELTA,GPS+GLO,02641,3.6.12 Oct 12 2017,,2019-04-09T10:00Z,ASH701933B_M,SCIS,CRN1999100160,BPA,0.0810,,,2000-04-24,EXTERNAL CESIUM,5,2001-01-23/CCYY-MM-DD
YAR200AUS,-2389026.6092,5043317.0543,-3078529.5526,-29.047,115.347,241.683,TRIMBLE ALLOY,GPS+GLO+QZSS+GAL+IRNSS+BDS,5940R40019,6.15,0,2022-10-31T02:05Z,AOAD/M_T,NONE,371,BPA,000.0814,000.0000,000.0000,2015-02-19T00:00Z,INTERNAL,,2020-01-09/(CCYY-MM-DD)
YAR300AUS,-2389043.7652,5043313.5826,-3078524.3872,-29.046,115.347,242.853,SEPT POLARX5,QZSS+GPS+GLO+GAL+BDS,3016125,5.5.0,0,2022-11-01T00:45Z,LEIAR25,NONE,08360001,BPA,000.0040,000.0000,000.0000,2008-12-05T00:00Z,INTERNAL,,2007-06-01/(CCYY-MM-DD)
YARR00AUS,-2389025.573,5043315.5356,-3078532.971,-29.047,115.347,241.755,SEPT POLARX5,GPS+GLO+GAL+BDS+QZSS+IRNSS,3015945,5.5.0,0,2022-10-31T23:01Z,LEIAT504,NONE,103314,BPA,000.0045,000.0000,000.0000,2007-10-04T03:00Z,INTERNAL,,2014-12-24/(CCYY-MM-DD)
YEBE00ESP,4848724.95,-261632.509,4123093.952,40.525,-3.089,973.249,LEICA GR50,GPS+GLO+GAL+BDS,1871475,4.61/7.811,0,2022-11-24T08:00Z,LEIAR20,LEIM,23349016,BAM,0.0600,0.0000,0.0000,2021-11-18T13:20Z,EXTERNAL H-MASER,10 ,2008-09-17/CCYY-MM-DD
YEL200CAN,-1224441.9824,-2689174.6494,5633660.3762,62.481,-114.481,181.452,SEPT POLARX5TR,GPS+GLO+GAL+BDS+SBAS,3022348,5.5.0,0,2022-11-30T13:42Z,LEIAR25.R4,NONE,10231042,BPA,0.0500,0.0000,0.0000,2013-07-19T10:15Z,EXTERNAL VCH-1008 MASER,10,
YELL00CAN,-1224452.4,-2689216.0,5633638.2,62.481,-114.481,181.168,JAVAD TRE_3N DELTA,GPS+GLO+GAL,02684,3.7.5p1 Jan 23 2019,5,2019-03-01T14:18Z,AOAD/M_T,NONE,527,BPA,000.1000,000.0000,000.0000,2013-10-16T23:00Z,EXTERNAL MASER,5,2019-09-04
YIBL00OMN,3294552.811,4905092.434,2393579.637,22.186,56.112,95.529,TRIMBLE NETR9,GPS+GLO,5323K43643,4.62,5,2019-07-01T00:00Z,ASH701945C_M,NONE,4812CR62001,BPA,0.0000,0.0000,0.0000,2003-07-11T00:00Z,INTERNAL,,
YKRO00CIV,6306439.897,-578380.783,757956.481, 6.871,-5.240,270.584,JAVAD TRE_3 DELTA,GPS+GLO+GAL+BDS,02329,4.1.01,0,2021-08-12T17:17Z,ASH701945C_M,NONE,CR620012801,BPA,0.0455,0.000,0.000,2008-09-30T00:00Z,INTERNAL,,1999-07-18/CCYY-MM-DD
YONS00KOR,-3047506.741,4043980.58,3865243.01,37.541,127.001,97.270,TRIMBLE ALLOY,GPS+GLO+GAL,6013R40068,6.10,5,2020-07-06T06:00Z,TRM159900.00,SCIS,5007338036,BPA,0.0000,0.0000,0.0000,2020-07-06T06:00Z,INTERNAL,,2010-11-01/CCYY-MM-DD
YSSK00RUS,-3465320.847,2638269.382,4644085.485,47.030,142.717,91.719,JAVAD TRE_3N DELTA,GPS+GLO,02640,3.6.12 Oct 12 2017,,2019-03-05T01:00Z,ASH701933B_M,DOME,CRN1999040133,BPA,0.0798,,,1999-07-28,INTERNAL,,
ZAMB00ZMB,5415353.011,2917209.914,-1685888.865,-15.426,28.311,1325.318,JAVAD TRE_3 DELTA,GPS+GLO+GAL+BDS,02462,4.1.01,0,2021-07-22T18:59Z,AOAD/M_T,NONE,372,BPA,0.054,0.000,0.000,2002-03-28T00:00Z,INTERNAL,,2002-06-02/CCYY-MM-DD
ZECK00RUS,3451175.15,3060335.95,4391955.97,43.788,41.565,1167.416,JAVAD TRE_3 DELTA,GPS+GLO+GAL,02679,3.7.10 Oct 22 2020,0,2021-01-22T09:00Z,JAVRINGANT_DM,JVDM,00314,BPA,0.0450,0.0000,0.0000,2011-08-18T12:00Z,EXTERNAL H-MASER VCH-1003M,5 ,2011-05-28/CCYY-MM-DD
ZIM200CHE,4331300.16,567537.081,4633133.51,46.877, 7.465,956.881,TRIMBLE NETR9,GPS+GLO+GAL+BDS,5429R49173,5.56,0,2023-01-31T12:47Z,TRM59800.00,NONE,60369,BPA,0.0000,0.0000,0.0000,2013-10-10T12:00Z,INTERNAL,,2007-11-08/CCYY-MM-DD
ZIM300CHE,4331300.16,567537.081,4633133.51,46.877, 7.465,956.881,TRIMBLE NETR9,GPS+GLO+GAL+BDS+SBAS,5229K50741,5.56,0,2023-01-31T12:53Z,TRM59800.00,NONE,60369,BPA,0.0000,0.0000,0.0000,2013-10-10T12:00Z,INTERNAL,,2022-07-08/CCYY-MM-DD
ZIMM00CHE,4331297.348,567555.639,4633133.728,46.877, 7.465,956.782,TRIMBLE NETR9,GPS,5429R49141,5.56,5,2023-01-31T12:42Z,TRM29659.00,NONE,99390,BPA,0.0000,0.0000,0.0000,1999-07-02,INTERNAL,,1993-05-01/CCYY-MM-DD
